School_ID,Network,Short_Name,the_geom,Address,Zip,Governance,Grade_Cat,Grades,Lat,Long,Phone,GeoNetwork,COMMAREA,WARD_15,ALD_15
400009,Charter,GLOBAL CITIZENSHIP,POINT (-87.74009743581296 41.807578506885676),4647 W 47TH ST,60632,Charter,ES,"K, 1, 2, 3, 4, 5, 6, 7, 8",41.8075785077,-87.7400974358,1(773)582-1100,8,GARFIELD RIDGE,14,Edward M. Burke
400010,Charter,ACE TECH HS,POINT (-87.62584903655835 41.79612150956602),5410 S STATE ST,60609,Charter,HS,"9, 10, 11, 12",41.7961215104,-87.6258490365,1(773)548-8705,9,WASHINGTON PARK,3,Patricia R. Dowell
400011,Charter,LOCKE A,POINT (-87.70523452593643 41.87724835219521),3141 W JACKSON BLVD,60612,Charter,ES,"K, 1, 2, 3, 4, 5, 6, 7, 8",41.877248353,-87.7052345259,1(773)265-7232,5,EAST GARFIELD PARK,28,Jason C. Ervin
400013,Charter,ASPIRA - EARLY COLLEGE HS,POINT (-87.72709565849537 41.93729828444937),3986 W BARRY AVE,60618,Charter,HS,"9, 10, 11, 12",41.9372982853,-87.7270956585,1(773)252-0970 x137,4,AVONDALE,30,Ariel E. Reboyras
400017,Charter,ASPIRA - HAUGAN,POINT (-87.72182466520648 41.966405667183686),3729 W LELAND AVE,60625,Charter,ES,"6, 7, 8",41.966405668,-87.7218246652,1(773)252-0970,1,ALBANY PARK,35,Rey Colon
400021,Charter,CATALYST - CIRCLE ROCK,POINT (-87.76532197832837 41.8823222208844),5608 W WASHINGTON BLVD,60644,Charter,ES,"K, 1, 2, 3, 4, 5, 6, 7, 8",41.8823222217,-87.7653219783,1(773)945-5025,3,AUSTIN,29,Chris Taliaferro
400022,Contract,CHIARTS HS,POINT (-87.69494501176021 41.89937657239439),2714 W AUGUSTA BLVD,60622,Contract,HS,"9, 10, 11, 12",41.8993765732,-87.6949450118,1(773)534-9710,5,WEST TOWN,26,Roberto Maldonado
400023,Charter,CICS - AVALON/SOUTH SHORE,POINT (-87.58792764149399 41.74317941977078),1501 E 83RD PL,60619,Charter,ES,"K, 1, 2, 3, 4, 5, 6, 7, 8",41.7431794206,-87.5879276415,1(773)721-0858,12,AVALON PARK,8,Michelle A. Harris
400024,Charter,CICS - BASIL,POINT (-87.67024265731233 41.79404286369821),1816 W GARFIELD BLVD,60609,Charter,ES,"K, 1, 2, 3, 4, 5, 6, 7, 8",41.7940428645,-87.6702426573,1(773)778-9455,11,NEW CITY,16,JoAnn Thompson
400025,Charter,CICS - BUCKTOWN,POINT (-87.68135796494731 41.92241462911477),2235 N HAMILTON AVE,60647,Charter,ES,"K, 1, 2, 3, 4, 5, 6, 7, 8",41.9224146299,-87.6813579649,1(773)645-3321,6,LOGAN SQUARE,32,Scott Waguespack
400026,Charter,CICS - LOOMIS,POINT (-87.65756105861855 41.72024642296584),9535 S LOOMIS ST,60643,Charter,ES,"K, 1, 2",41.7202464238,-87.6575610586,1(773)429-8955,11,WASHINGTON HEIGHTS,21,"Howard B. Brookins, Jr."
400027,Charter,CICS - IRVING PARK,POINT (-87.71049242850188 41.95089127467508),3820 N SPAULDING AVE,60618,Charter,ES,"K, 1, 2, 3, 4, 5, 6, 7, 8",41.9508912755,-87.7104924285,1(773)433-5000,1,IRVING PARK,33,Deborah Mell
400028,Charter,CICS - PRAIRIE,POINT (-87.61688838173549 41.684433037932656),11530 S PRAIRIE AVE,60628,Charter,ES,"K, 1, 2, 3, 4, 5, 6, 7, 8",41.6844330387,-87.6168883817,1(773)928-0480,13,WEST PULLMAN,9,Anthony A. Beale
400029,Charter,CICS - WASHINGTON PARK,POINT (-87.62126075301158 41.784126396805284),110 E 61ST ST,60637,Charter,ES,"K, 1, 2, 3, 4, 5, 6, 7, 8",41.7841263976,-87.621260753,1(773)324-3300,9,WASHINGTON PARK,20,Willie B. Cochran
400030,Charter,CICS - WEST BELDEN,POINT (-87.77674853946418 41.92168749461324),2245 N MCVICKER AVE,60639,Charter,ES,"K, 1, 2, 3, 4, 5, 6, 7, 8",41.9216874954,-87.7767485395,1(773)637-9430,3,BELMONT CRAGIN,36,Nicholas Sposato
400031,Charter,CICS - WRIGHTWOOD,POINT (-87.69261439881286 41.74536544990311),8130 S CALIFORNIA AVE,60652,Charter,ES,"K, 1, 2, 3, 4, 5, 6, 7, 8",41.7453654507,-87.6926143988,1(773)434-4575,10,ASHBURN,18,Lona Lane
400032,Charter,CICS - ELLISON HS,POINT (-87.66897963900723 41.74838240757893),1817 W 80TH ST,60620,Charter,HS,"9, 10, 11, 12",41.7483824084,-87.668979639,1(773)478-4434,11,AUBURN GRESHAM,17,Latasha R. Thomas
400033,Charter,CICS - LONGWOOD,POINT (-87.65576813292576 41.72122143220191),1309 W 95TH ST,60643,Charter,HS,"3, 4, 5, 6, 7, 8, 9, 10, 11, 12",41.721221433,-87.6557681329,1(773)238-5330,11,WASHINGTON HEIGHTS,21,"Howard B. Brookins, Jr."
400034,Charter,CICS - NORTHTOWN HS,POINT (-87.72650426434443 41.99024501132617),3900 W PETERSON AVE,60659,Charter,HS,"9, 10, 11, 12",41.9902450122,-87.7265042643,1(773)478-3655,1,NORTH PARK,39,Margaret Laurino
400035,Charter,CHICAGO MATH & SCIENCE HS,POINT (-87.67481841837879 42.013031488980566),7212 N CLARK ST,60626,Charter,HS,"6, 7, 8, 9, 10, 11, 12",42.0130314898,-87.6748184184,1(773)761-8960,2,ROGERS PARK,49,Joe A. Moore
400036,Charter,CHICAGO VIRTUAL,POINT (-87.64977248488317 41.88055011182431),38 S PEORIA ST,60607,Charter,HS,"K, 1, 2, 3, 4, 5, 6, 7, 8, 9, 10, 11, 12",41.8805501126,-87.6497724849,1(312)267-4486,6,NEAR WEST SIDE,25,Daniel S. Solis
400039,Charter,ERIE,POINT (-87.69436444522483 41.90677063476995),1405 N WASHTENAW AVE,60622,Charter,ES,"K, 1, 2, 3, 4, 5, 6, 7, 8",41.9067706356,-87.6943644452,1(773)486-7161,5,WEST TOWN,1,Proco (Joe) Moreno III
400040,Charter,FRAZIER CHARTER,POINT (-87.71764197634056 41.86207686324782),3711 W DOUGLAS BLVD,60624,Charter,ES,"K, 1, 2, 3, 4, 5, 6, 7, 8",41.8620768641,-87.7176419763,1(773)534-6776,5,NORTH LAWNDALE,24,Michael D. Chandler
400043,Contract,HOPE INSTITUTE,POINT (-87.66807694563214 41.883362026191705),1628 W WASHINGTON,60612,Contract,ES,"K, 1, 2, 3, 4, 5",41.883362027,-87.6680769456,1(773)534-7405,6,NEAR WEST SIDE,27,"Walter Burnett, Jr."
400044,Charter,KIPP - ASCEND,POINT (-87.7210706465121 41.858369743196675),1616 S AVERS AVE,60623,Charter,ES,"K, 1, 2, 3, 4, 5, 6, 7, 8",41.858369744,-87.7210706465,1(773)521-4766,5,NORTH LAWNDALE,24,Michael D. Chandler
400045,Charter,NKRUMAH,POINT (-87.63105814858851 41.69804048805754),314 W 108TH ST,60628,Charter,ES,"K, 1, 2, 3, 4, 5, 6, 7, 8",41.6980404888,-87.6310581486,1(773)568-8000,13,ROSELAND,34,Carrie M. Austin
400046,Charter,LEARN - BUTLER,POINT (-87.7106794800759 41.867272713849566),1132 S HOMAN AVE,60624,Charter,ES,"K, 1, 2, 3, 4, 5, 6, 7, 8",41.8672727147,-87.7106794801,1(773)826-6330,5,NORTH LAWNDALE,24,Michael D. Chandler
400047,Charter,LEARN - CAMPBELL,POINT (-87.69873871980407 41.87786063109123),212 S FRANCISCO AVE,60612,Charter,ES,"K, 1, 2, 3, 4, 5",41.8778606319,-87.6987387198,1(773)826-0370,5,EAST GARFIELD PARK,27,"Walter Burnett, Jr."
400048,Charter,LEARN - EXCEL,POINT (-87.702070890427 41.887319914886554),3021 W CARROLL AVE,60612,Charter,ES,"K, 1, 2, 3, 4, 5",41.8873199157,-87.7020708904,1(312)243-7001,5,EAST GARFIELD PARK,27,"Walter Burnett, Jr."
400049,Charter,LEGACY,POINT (-87.708507681964 41.85696245124675),3318 W OGDEN AVE,60623,Charter,ES,"K, 1, 2, 3, 4, 5, 6, 7, 8",41.8569624521,-87.708507682,1(773)542-1640,5,NORTH LAWNDALE,24,Michael D. Chandler
400050,Charter,NAMASTE,POINT (-87.66772404348096 41.825699759221585),3737 S PAULINA ST,60609,Charter,ES,"K, 1, 2, 3, 4, 5, 6, 7, 8",41.82569976,-87.6677240435,1(773)715-9558,8,MCKINLEY PARK,12,George A. Cardenas
400051,Charter,NOBLE - NOBLE HS,POINT (-87.6626277822452 41.90019052036328),1010 N NOBLE ST,60642,Charter,HS,"9, 10, 11, 12",41.9001905212,-87.6626277822,1(773)862-1449,6,WEST TOWN,2,Bob Fioretti
400052,Charter,NOBLE - COMER,POINT (-87.60416374545034 41.765252281014504),7131 SOUTH CHICAGO AVE,60619,Charter,HS,"6, 7, 8, 9, 10, 11, 12",41.7652522818,-87.6041637454,1(773)729-3969,12,GREATER GRAND CROSSING,5,Leslie A. Hairston
400053,Charter,NOBLE - GOLDER HS,POINT (-87.66448299829219 41.89528219322829),1454 W SUPERIOR ST,60642,Charter,HS,"9, 10, 11, 12",41.895282194,-87.6644829983,1(312)265-9925,6,WEST TOWN,27,"Walter Burnett, Jr."
400054,Charter,NOBLE - PRITZKER HS,POINT (-87.73012671473326 41.91521410632573),4131 W CORTLAND AVE,60639,Charter,HS,"9, 10, 11, 12",41.9152141071,-87.7301267147,1(773)394-2848,4,HERMOSA,35,Rey Colon
400055,Charter,NOBLE - RAUNER HS,POINT (-87.66085886981283 41.89242501199445),1337 W OHIO ST,60642,Charter,HS,"9, 10, 11, 12",41.8924250128,-87.6608588698,1(312)226-5345,6,WEST TOWN,1,Proco (Joe) Moreno III
400056,Charter,NOBLE - ROWE CLARK HS,POINT (-87.7180467676694 41.89536225829381),3645 W CHICAGO AVE,60651,Charter,HS,"9, 10, 11, 12",41.8953622591,-87.7180467677,1(773)242-2212,5,HUMBOLDT PARK,27,"Walter Burnett, Jr."
400057,Charter,NOBLE - UIC HS,POINT (-87.67611092980181 41.86581741283157),1231 S DAMEN AVE,60608,Charter,HS,"9, 10, 11, 12",41.8658174136,-87.6761109298,1(312)768-4858,6,NEAR WEST SIDE,28,Jason C. Ervin
400058,Charter,NORTH LAWNDALE - CHRISTIANA HS,POINT (-87.70898711117727 41.85856355339459),1615 S. CHRISTIANA AVE.,60623,Charter,HS,"9, 10, 11, 12",41.8585635542,-87.7089871112,1(773)542-1490,5,NORTH LAWNDALE,24,Michael D. Chandler
400059,Charter,NORTH LAWNDALE - COLLINS HS,POINT (-87.70068059996225 41.86414584238213),1313 S SACRAMENTO DR,60623,Charter,HS,"9, 10, 11, 12",41.8641458432,-87.7006806,1(773)542-6766,5,NORTH LAWNDALE,24,Michael D. Chandler
400060,Charter,AHS - PASSAGES,POINT (-87.67116041931102 41.98337143551791),1643 W BRYN MAWR AVE,60660,Charter,ES,"K, 1, 2, 3, 4, 5, 6, 7, 8",41.9833714364,-87.6711604193,1(773)433-3530,2,EDGEWATER,40,Patrick O'Connor
400061,Charter,PERSPECTIVES - LEADERSHIP HS,POINT (-87.65204508844263 41.74596083113286),8131 S MAY ST,60620,Charter,HS,"6, 7, 8, 9, 10, 11, 12",41.7459608319,-87.6520450884,1(773)358-6100,11,AUBURN GRESHAM,21,"Howard B. Brookins, Jr."
400062,Charter,PERSPECTIVES - TECH HS,POINT (-87.6506570244465 41.745949018698816),8131 S MAY ST,60620,Charter,HS,"9, 10, 11, 12",41.7459490195,-87.6506570244,1(773)358-6120,11,AUBURN GRESHAM,21,"Howard B. Brookins, Jr."
400064,Charter,PERSPECTIVES - JOSLIN HS,POINT (-87.6285309007454 41.85599910441009),1930 S ARCHER AVE,60616,Charter,HS,"6, 7, 8, 9, 10, 11, 12",41.8559991052,-87.6285309007,1(312)225-7400,6,NEAR SOUTH SIDE,3,Patricia R. Dowell
400066,Charter,PERSPECTIVES - MATH & SCI HS,POINT (-87.62478771976076 41.827783856672056),3663 S WABASH AVE,60653,Charter,HS,"6, 7, 8, 9, 10, 11, 12",41.8277838575,-87.6247877198,1(773)358-6800,9,DOUGLAS,3,Patricia R. Dowell
400068,Contract,PLATO,POINT (-87.76333693234645 41.87276042775959),5545 W HARRISON ST,60644,Contract,ES,"K, 1, 2, 3, 4, 5, 6, 7, 8",41.8727604286,-87.7633369323,1(773)413-3090 x111,3,AUSTIN,29,Chris Taliaferro
400069,Charter,POLARIS,POINT (-87.70779647483542 41.89255017313203),620 N SAWYER AVE,60624,Charter,ES,"K, 1, 2, 3, 4, 5, 6, 7, 8",41.892550174,-87.7077964748,1(773)534-0820,5,HUMBOLDT PARK,27,"Walter Burnett, Jr."
400071,Charter,PROVIDENCE ENGLEWOOD,POINT (-87.66399582959697 41.775367366876885),6515 S ASHLAND AVE,60636,Charter,ES,"K, 1, 2, 3, 4, 5, 6, 7, 8",41.7753673677,-87.6639958296,1(773)434-0202,11,WEST ENGLEWOOD,16,JoAnn Thompson
400075,Charter,U OF C - DONOGHUE,POINT (-87.6085007807937 41.82772608093774),707 E 37TH ST,60653,Charter,ES,"K, 1, 2, 3, 4, 5",41.8277260817,-87.6085007808,1(773)285-5301,9,OAKLAND,4,"William ""Will"" D. Burns"
400076,Charter,U OF C - NKO,POINT (-87.59878626839304 41.81118286651697),1119 E 46TH ST,60653,Charter,ES,"K, 1, 2, 3, 4, 5",41.8111828673,-87.5987862684,1(773)536-2399,9,KENWOOD,4,"William ""Will"" D. Burns"
400077,Charter,U OF C - WOODLAWN HS,POINT (-87.59811392290797 41.77812969852457),6420 S UNIVERSITY AVE,60637,Charter,HS,"6, 7, 8, 9, 10, 11, 12",41.7781296993,-87.5981139229,1(773)752-8101,9,WOODLAWN,20,Willie B. Cochran
400078,Charter,U OF C - WOODSON,POINT (-87.60842562240991 41.813547304108404),4444 S EVANS AVE,60653,Charter,ES,"7, 8",41.8135473049,-87.6084256224,1(773)624-0700,9,GRAND BOULEVARD,3,Patricia R. Dowell
400079,Charter,ACERO - ZIZUMBO,POINT (-87.73049511744672 41.81013478652209),4248 W 47TH ST,60632,Charter,ES,"K, 1, 2, 3, 4, 5, 6, 7, 8",41.8101347873,-87.7304951174,1(773)579-3470,8,ARCHER HEIGHTS,14,Edward M. Burke
400080,Charter,ACERO - TORRES,POINT (-87.73045044341933 41.80819980605674),4248 W 47TH ST,60632,Charter,ES,"K, 1, 2, 3, 4, 5, 6, 7, 8",41.8081998069,-87.7304504434,1(773)579-3475,8,ARCHER HEIGHTS,14,Edward M. Burke
400081,Charter,ACERO - DE LAS CASAS,POINT (-87.66794916955581 41.859504007501364),1641 W 16TH ST,60608,Charter,ES,"K, 1, 2, 3, 4, 5, 6, 7, 8",41.8595040083,-87.6679491695,1(312)432-3224,7,LOWER WEST SIDE,25,Daniel S. Solis
400082,Charter,ACERO - FUENTES,POINT (-87.69959365144675 41.937475775108396),2845 W BARRY AVE,60618,Charter,ES,"K, 1, 2, 3, 4, 5, 6, 7, 8",41.9374757759,-87.6995936514,1(773)279-9826,4,AVONDALE,33,Deborah Mell
400083,Charter,ACERO - PAZ,POINT (-87.69255089867096 41.85003541229726),2651 W 23RD ST,60608,Charter,ES,"K, 1, 2, 3, 4, 5, 6, 7, 8",41.8500354131,-87.6925508987,1(773)890-1054,7,SOUTH LAWNDALE,24,Michael D. Chandler
400084,Charter,ACERO - TAMAYO,POINT (-87.69386163539056 41.799930185927614),5135 S CALIFORNIA AVE,60632,Charter,ES,"K, 1, 2, 3, 4, 5, 6, 7, 8",41.7999301867,-87.6938616354,1(773)434-6355,8,GAGE PARK,14,Edward M. Burke
400085,Charter,ACERO - GARCIA HS,POINT (-87.73046684945614 41.809170789228574),4248 W 47TH ST,60632,Charter,HS,"9, 10, 11, 12",41.80917079,-87.7304668494,1(773)579-3480,8,ARCHER HEIGHTS,14,Edward M. Burke
400086,Charter,URBAN PREP - ENGLEWOOD HS,POINT (-87.63435669192559 41.781497815831855),6201 S STEWART AVE,60621,Charter,HS,"9, 10, 11, 12",41.7814978166,-87.6343566919,1(773)535-9724,11,ENGLEWOOD,20,Willie B. Cochran
400087,Charter,YOUNG WOMENS HS,POINT (-87.61872379631045 41.84454380554294),2641 S CALUMET AVE,60616,Charter,HS,"9, 10, 11, 12",41.8445438064,-87.6187237963,1(312)949-9400,9,DOUGLAS,4,"William ""Will"" D. Burns"
400089,Charter,ACERO - MARQUEZ,POINT (-87.69739409699946 41.80830882382766),2916 W 47TH ST,60632,Charter,ES,"K, 1, 2, 3, 4, 5, 6, 7, 8",41.8083088246,-87.697394097,1(773)321-2200,8,BRIGHTON PARK,15,Raymond Lopez
400091,Contract,CHICAGO TECH HS,POINT (-87.65909480292642 41.86330140822328),1301 W 14TH ST,60608,Contract,HS,"9, 10, 11, 12",41.863301409,-87.6590948029,1(773)534-7755,6,NEAR WEST SIDE,25,Daniel S. Solis
400092,Charter,CICS - BOND,POINT (-87.60503910190955 41.653663449416015),13300 S LANGLEY AVE,60827,Charter,ES,"K, 1, 2, 3, 4, 5, 6",41.6536634502,-87.6050391019,1(773)468-1300,13,RIVERDALE,9,Anthony A. Beale
400094,Charter,EPIC HS,POINT (-87.55022236950532 41.744849105595485),8255 S HOUSTON AVE,60617,Charter,HS,"9, 10, 11, 12",41.7448491064,-87.5502223695,1(773)535-7930,12,SOUTH CHICAGO,7,Gregory Mitchell
400096,Charter,ROWE,POINT (-87.66407246853345 41.90779717825756),1424 N CLEAVER ST,60642,Charter,ES,"K, 1, 2, 3, 4, 5, 6, 7, 8",41.9077971791,-87.6640724685,1(312)445-5870,6,WEST TOWN,2,Bob Fioretti
400097,Charter,NOBLE - BULLS HS,POINT (-87.67819525963878 41.87880880794607),2040 W ADAMS ST,60612,Charter,HS,"9, 10, 11, 12",41.8788088088,-87.6781952596,1(773)534-7599,6,NEAR WEST SIDE,27,"Walter Burnett, Jr."
400098,Charter,NOBLE - MUCHIN HS,POINT (-87.62633828219971 41.88274025710012),1 N STATE ST,60602,Charter,HS,"9, 10, 11, 12",41.8827402579,-87.6263382822,1(312)445-4680,6,LOOP,42,Brendan M. Reilly
400101,Charter,ACERO - CISNEROS,POINT (-87.69399616198365 41.8228837404716),2744 W PERSHING RD,60632,Charter,ES,"K, 1, 2, 3, 4, 5, 6, 7, 8",41.8228837413,-87.693996162,1(312)376-8830,8,BRIGHTON PARK,12,George A. Cardenas
400102,Charter,URBAN PREP - WEST HS,POINT (-87.66010654063662 41.86254001922581),1326 W 14TH PL,60608,Charter,HS,"9, 10, 11, 12",41.86254002,-87.6601065406,1(773)534-8860,6,NEAR WEST SIDE,25,Daniel S. Solis
400104,Charter,INSTITUTO - HEALTH,POINT (-87.6872401588268 41.84596658769947),2520 S WESTERN AVE,60608,Charter,HS,"9, 10, 11, 12",41.8459665885,-87.6872401588,1(773)890-8020,7,LOWER WEST SIDE,25,Daniel S. Solis
400105,Charter,URBAN PREP - BRONZEVILLE HS,POINT (-87.61362864698684 41.83111753084326),521 E 35TH ST,60616,Charter,HS,"9, 10, 11, 12",41.8311175317,-87.613628647,1(773)495-0870,9,DOUGLAS,4,"William ""Will"" D. Burns"
400106,Charter,NOBLE - JOHNSON HS,POINT (-87.63511669835238 41.77836949834166),6350 S STEWART AVE,60621,Charter,HS,"9, 10, 11, 12",41.7783694991,-87.6351166983,1(312)348-1888,11,ENGLEWOOD,20,Willie B. Cochran
400107,Charter,LEARN - SOUTH CHICAGO,POINT (-87.54557989281986 41.73333313284307),8914 S BUFFALO AVE,60617,Charter,ES,"K, 1, 2, 3, 4, 5, 6, 7, 8",41.7333331336,-87.5455798928,1(773)722-8577,12,SOUTH CHICAGO,10,Susie Sadlowski Garza
400111,Charter,LEARN - PERKINS,POINT (-87.66572105552245 41.74312176998597),1700 W 83RD ST,60620,Charter,ES,"K, 1, 2, 3, 4, 5, 6, 7",41.7431217708,-87.6657210555,1(773)722-0200,11,AUBURN GRESHAM,21,"Howard B. Brookins, Jr."
400112,Charter,ACERO - IDAR,POINT (-87.70879678421302 41.80104241336387),5050 S HOMAN AVE,60632,Charter,ES,"K, 1, 2, 3, 4, 5, 6, 7, 8",41.8010424142,-87.7087967842,1(312)455-5450,8,GAGE PARK,14,Edward M. Burke
400113,Charter,CICS - CHICAGOQUEST HS,POINT (-87.6455614997251 41.90779679504793),1443 N OGDEN AVE,60610,Charter,HS,"9, 10, 11, 12",41.9077967959,-87.6455614997,1(773)565-2100,4,NEAR NORTH SIDE,27,"Walter Burnett, Jr."
400114,Charter,ACERO - SANTIAGO,POINT (-87.68989562476189 41.90034363442005),2510 W CORTEZ ST,60622,Charter,ES,"K, 1, 2, 3, 4, 5, 6, 7, 8",41.9003436352,-87.6898956248,1(312)455-5410,5,WEST TOWN,1,Proco (Joe) Moreno III
400115,Charter,CATALYST - MARIA,POINT (-87.6930753226288 41.770991718211576),6727 S CALIFORNIA AVE,60629,Charter,ES,"K, 1, 2, 3, 4, 5, 6, 7, 8, 9, 10, 11, 12",41.770991719,-87.6930753226,1(773)993-1770,10,CHICAGO LAWN,17,Latasha R. Thomas
400116,Charter,MONTESSORI ENGLEWOOD,POINT (-87.6676390084211 41.7673901123986),6936 S HERMITAGE AVE,60636,Charter,ES,"K, 1, 2, 3, 4, 5",41.7673901132,-87.6676390084,1(773)306-1759,11,WEST ENGLEWOOD,17,Latasha R. Thomas
400117,Charter,NOBLE - HANSBERRY HS,POINT (-87.65098672782085 41.734441622545084),8748 S ABERDEEN ST,60620,Charter,HS,"9, 10, 11, 12",41.7344416233,-87.6509867278,1(773)729-3400,11,AUBURN GRESHAM,21,"Howard B. Brookins, Jr."
400118,Charter,NOBLE - DRW HS,POINT (-87.71165422586564 41.86932807646286),931 S HOMAN AVE,60624,Charter,HS,"9, 10, 11, 12",41.8693280773,-87.7116542259,1(773)893-4500,5,NORTH LAWNDALE,24,Michael D. Chandler
400119,Charter,LEGAL PREP HS,POINT (-87.73377838310492 41.88173275840047),4319 W WASHINGTON BLVD,60624,Charter,HS,"9, 10, 11, 12",41.8817327592,-87.7337783831,1(773)922-7800,5,WEST GARFIELD PARK,28,Jason C. Ervin
400120,Charter,ACERO - CLEMENTE,POINT (-87.78783043795977 41.917951679001526),2050 N NATCHEZ AVE,60707,Charter,ES,"K, 1, 2, 3, 4, 5, 6, 7, 8",41.9179516798,-87.787830438,1(312)455-5425,3,BELMONT CRAGIN,29,Chris Taliaferro
400121,Charter,ACERO - DE LA CRUZ,POINT (-87.68440568153892 42.01647588165271),7416 N RIDGE BLVD,60645,Charter,ES,"K, 1, 2, 3, 4, 5, 6, 7, 8, 9, 10, 11, 12",42.0164758825,-87.6844056815,1(312)455-5440,2,WEST RIDGE,49,Joe A. Moore
400123,Options,YCCS - SCHOLASTIC ACHIEVEMENT,POINT (-87.74253889944762 41.880447187300774),4651 W MADISON ST,60644,Charter,HS,"10, 11, 12",41.8804471881,-87.7425388994,1(773)921-1315,3,AUSTIN,28,Jason C. Ervin
400124,Options,YCCS - MCKINLEY,POINT (-87.62533077011555 41.84133116704404),2920 S WABASH AVE,60616,Charter,HS,"10, 11, 12",41.8413311679,-87.6253307701,1(312)949-5010,9,DOUGLAS,3,Patricia R. Dowell
400125,Options,YCCS - ASPIRA PANTOJA,POINT (-87.72713735989637 41.93818660243103),3121 N PULASKI RD,60641,Charter,HS,"10, 11, 12",41.9381866033,-87.7271373599,1(773)252-0970,4,AVONDALE,30,Ariel E. Reboyras
400126,Options,YCCS - ASSOCIATION HOUSE,POINT (-87.70685988382161 41.9015724066718),1116 N KEDZIE AVE,60651,Charter,HS,"10, 11",41.9015724075,-87.7068598838,1(773)772-7170,5,HUMBOLDT PARK,26,Roberto Maldonado
400127,Options,YCCS - AUSTIN CAREER,POINT (-87.76022117562405 41.89497639068477),5352 W CHICAGO AVE,60651,Charter,HS,"10, 11, 12",41.8949763915,-87.7602211756,1(773)626-6988,3,AUSTIN,37,Emma M. Mitts
400128,Options,YCCS - CCA ACADEMY,POINT (-87.72366217143608 41.86494335189345),1231 S PULASKI RD,60623,Charter,HS,"10, 11, 12",41.8649433527,-87.7236621714,1(773)762-2272,5,NORTH LAWNDALE,24,Michael D. Chandler
400129,Options,YCCS - HOUSTON,POINT (-87.61584209881255 41.77416954786256),6620 S DR MARTIN LUTHER KING JR DR,60637,Charter,HS,"10, 11, 12",41.7741695487,-87.6158420988,1(773)723-9631,9,GREATER GRAND CROSSING,20,Willie B. Cochran
400130,Options,YCCS - YOUTH DEVELOPMENT,POINT (-87.64173118629225 41.751377111833904),7836 S UNION AVE,60620,Charter,HS,"10, 11, 12",41.7513771126,-87.6417311863,1(773)224-2273,11,AUBURN GRESHAM,6,Roderick T. Sawyer
400131,Options,YCCS - CAMPOS,POINT (-87.69600602220713 41.90284969724916),2739 W DIVISION ST,60622,Charter,HS,"10, 11, 12",41.9028496981,-87.6960060222,1(773)342-8022,5,WEST TOWN,26,Roberto Maldonado
400133,Options,YCCS - INNOVATIONS,POINT (-87.62773414585837 41.88304717157979),17 N. STATE ST.,60602,Charter,HS,"10, 11, 12",41.8830471724,-87.6277341458,1(312)999-9360,6,LOOP,42,Brendan M. Reilly
400134,Options,YCCS - ADDAMS,POINT (-87.6448879754817 41.85720785596084),1814 S UNION AVE,60616,Charter,HS,"10, 11, 12",41.8572078568,-87.6448879755,1(312)563-1748,7,LOWER WEST SIDE,11,James A. Balcer
400135,Options,YCCS - LATINO YOUTH,POINT (-87.69543001380885 41.85466465548888),2001 S CALIFORNIA AVE,60608,Charter,HS,"10, 11, 12",41.8546646563,-87.6954300138,1(773)648-2130,7,SOUTH LAWNDALE,12,George A. Cardenas
400136,Options,YCCS - OLIVE HARVEY,POINT (-87.592333202492 41.71292209989564),10001 S WOODLAWN AVE,60628,Charter,HS,"10, 11",41.7129221007,-87.5923332025,1(773)291-6517,12,PULLMAN,8,Michelle A. Harris
400137,Options,LITTLE BLACK PEARL HS,POINT (-87.59933993996285 41.809695495557065),1060 E 47TH ST,60653,Contract,HS,"9, 10, 11, 12",41.8096954964,-87.59933994,1(773)690-5500,9,KENWOOD,4,"William ""Will"" D. Burns"
400139,Options,YCCS - SULLIVAN,POINT (-87.57849166954297 41.746286569880006),8164 S SOUTH CHICAGO AVE,60617,Charter,HS,"10, 11",41.7462865707,-87.5784916695,1(773)978-8680,12,AVALON PARK,8,Michelle A. Harris
400141,Options,YCCS - TRUMAN,POINT (-87.65923928943083 41.965294816271395),1145 W WILSON AVE,60640,Charter,HS,"10, 11, 12",41.9652948171,-87.6592392894,1(773)907-4840,2,UPTOWN,46,James Cappleman
400143,Options,YCCS - WEST TOWN,POINT (-87.70205280026559 41.89080312095962),500 N SACRAMENTO BLVD,60612,Charter,HS,"10, 11",41.8908031218,-87.7020528003,1(312)563-9044,5,HUMBOLDT PARK,27,"Walter Burnett, Jr."
400144,Options,YCCS - WESTSIDE HOLISTIC,POINT (-87.74881028902938 41.90224003146582),4909 W DIVISION ST,60651,Charter,HS,"10, 11, 12",41.9022400323,-87.748810289,1(773)261-0994,3,AUSTIN,37,Emma M. Mitts
400145,Options,YCCS - YOUTH CONNECTION,POINT (-87.62678146982476 41.83207205772944),3424 S STATE ST,60616,Charter,HS,"10, 11, 12",41.8320720585,-87.6267814698,1(312)225-4668,9,DOUGLAS,3,Patricia R. Dowell
400146,Charter,KIPP CHICAGO - CREATE,POINT (-87.74661383938387 41.891816141953214),4818 W OHIO ST,60644,Charter,ES,"5, 6, 7, 8",41.8918161428,-87.7466138394,1(773)938-8553,3,AUSTIN,37,Emma M. Mitts
400147,Options,CAMELOT - CHICAGO EXCEL HS,POINT (-87.6537265378718 41.691969313672274),1257 W 111TH ST,60643,Contract,HS,"9, 10, 11, 12",41.6919693145,-87.6537265379,1(773)629-8379,13,MORGAN PARK,34,Carrie M. Austin
400148,Options,INSTITUTO - LOZANO HS,POINT (-87.68406493865558 41.84544601504087),2570 S BLUE ISLAND AVE,60608,Charter,HS,"9, 10, 11, 12",41.8454460159,-87.6840649386,1(773)696-3610,7,LOWER WEST SIDE,25,Daniel S. Solis
400149,Charter,ACERO - SOTO HS,POINT (-87.71102498480566 41.801762245391835),5025 S SAINT LOUIS AVE,60632,Charter,HS,"8, 9, 10, 11",41.8017622462,-87.7110249848,1(312)455-5446,8,GAGE PARK,14,Edward M. Burke
400150,Options,YCCS - CHATHAM,POINT (-87.60697990879785 41.73013138418161),9035 S LANGLEY AVE,60619,Charter,HS,"10, 11, 12",41.730131385,-87.6069799088,1(773)651-1500,12,CHATHAM,8,Michelle A. Harris
400151,Charter,LEARN - 7,POINT (-87.7014173913643 41.88731749028673),3021 W CARROLL AVE,60612,Charter,ES,"K, 1, 2, 3, 4, 5",41.8873174911,-87.7014173914,1(773)584-4350,5,EAST GARFIELD PARK,27,"Walter Burnett, Jr."
400153,Charter,ACERO - BRIGHTON PARK,POINT (-87.69323838455642 41.81310944439286),4420 S FAIRFIELD AVE,60632,Charter,ES,"K, 1, 2, 3, 4, 5, 6, 7, 8",41.8131094452,-87.6932383845,1(312)455-5434,8,BRIGHTON PARK,15,Raymond Lopez
400156,Charter,NOBLE - BUTLER HS,POINT (-87.60257331721643 41.706666858314506),821 E 103RD ST,60628,Charter,HS,"9, 10, 11",41.7066668591,-87.6025733172,1(312)835-1863,13,PULLMAN,9,Anthony A. Beale
400157,Charter,NOBLE - BAKER HS,POINT (-87.55620144124543 41.73462237120126),2710 E 89TH ST,60617,Charter,HS,"9, 10, 11, 12",41.734622372,-87.5562014412,1(773)535-6340,12,SOUTH CHICAGO,7,Gregory Mitchell
400159,Charter,CHRISTOPHER HOUSE,POINT (-87.75752152784457 41.9221811558643),5235 W BELDEN AVE,60639,Charter,ES,"K, 1, 2, 3, 4, 5",41.9221811567,-87.7575215278,1(773)472-1083,3,BELMONT CRAGIN,36,Nicholas Sposato
400161,Charter,CHICAGO COLLEGIATE,POINT (-87.61796787063743 41.679318442476),11816 S INDIANA AVE,60628,Charter,HS,"4, 5, 6, 7, 8, 9",41.6793184433,-87.6179678706,1(773)536-9098,13,WEST PULLMAN,9,Anthony A. Beale
400162,Charter,INTRINSIC HS,POINT (-87.74112862663965 41.938988427629674),4540 W BELMONT AVE,60641,Charter,HS,"7, 8, 9, 10, 11, 12",41.9389884285,-87.7411286266,1(708)887-2735,1,IRVING PARK,30,Ariel E. Reboyras
400163,Charter,KIPP CHICAGO - BLOOM,POINT (-87.63996733091673 41.79355626721791),5515 S LOWE AVE,60621,Charter,ES,"5, 6, 7, 8",41.793556268,-87.6399673309,1(773)938-8565,11,ENGLEWOOD,20,Willie B. Cochran
400165,Charter,LEARN - MIDDLE,POINT (-87.70272393872818 41.887319908674456),3021 W CARROLL AVE,60612,Charter,ES,"6, 7, 8",41.8873199095,-87.7027239387,1(773)584-4300,5,EAST GARFIELD PARK,27,"Walter Burnett, Jr."
400167,Charter,HORIZON - SOUTHWEST,POINT (-87.68396339328174 41.79520095247124),5401 S. WESTERN,60609,Charter,ES,"K, 1, 2, 3, 4, 5, 6, 7, 8, 9, 10, 11",41.7952009533,-87.6839633933,1(773)498-3355,8,GAGE PARK,15,Raymond Lopez
400169,Charter,NOBLE - ITW SPEER HS,POINT (-87.7596751723386 41.917266408665725),5321 W GRAND AVE,60639,Charter,HS,"9, 10, 11, 12",41.9172664095,-87.7596751723,1(773)278-6895,3,BELMONT CRAGIN,37,Emma M. Mitts
400170,Charter,NOBLE - ACADEMY HS,POINT (-87.64557693593237 41.90687879459018),1443 N OGDEN AVE,60610,Charter,HS,"9, 10, 11, 12",41.9068787954,-87.6455769359,1(773)862-1449,4,NEAR NORTH SIDE,27,"Walter Burnett, Jr."
400171,Charter,FOUNDATIONS,POINT (-87.6535352484652 41.694670738683605),1233 W. 109TH PL,60643,Charter,HS,"6, 7, 8, 9, 10",41.6946707395,-87.6535352485,1(773)298-5800,13,MORGAN PARK,34,Carrie M. Austin
400173,Options,PATHWAYS - BRIGHTON PARK HS,POINT (-87.70264475134516 41.80822578510756),3124 W. 47TH STREET,60632,ALOP,HS,"9, 10, 11, 12",41.8082257859,-87.7026447513,1(773)588-5007,8,BRIGHTON PARK,14,Edward M. Burke
400175,Options,CAMELOT - EXCEL SOUTH SHORE HS,POINT (-87.55648708348222 41.75974863927389),7530 S SOUTH SHORE DR,60649,Contract,HS,"9, 10, 11, 12",41.7597486401,-87.5564870835,1(773)902-7800,12,SOUTH SHORE,7,Gregory Mitchell
400176,Options,CAMELOT - EXCEL SOUTHWEST HS,POINT (-87.69073009115593 41.76592891992978),7014 S WASHTENAW AVE,60629,Contract,HS,"8, 9, 10, 11, 12",41.7659289207,-87.6907300911,1(773)424-0721,10,AUBURN GRESHAM,17,Latasha R. Thomas
609674,Network 12,CHICAGO VOCATIONAL HS,POINT (-87.57326751568073 41.73717393358173),2100 E 87TH ST,60617,District,HS,"9, 10, 11, 12",41.7371739344,-87.5732675157,1(773)535-6100,12,AVALON PARK,8,Michelle A. Harris
609676,Network 9,DUNBAR HS,POINT (-87.61763743460318 41.84022557168194),3000 S KING DR,60616,District,HS,"9, 10, 11, 12",41.8402255725,-87.6176374346,1(773)534-9000,9,DOUGLAS,4,"William ""Will"" D. Burns"
609678,ISP,JONES HS,POINT (-87.62767532291659 41.87306592282553),700 S STATE ST,60605,District,HS,"9, 10, 11, 12",41.8730659236,-87.6276753229,1(773)534-8600,6,LOOP,4,"William ""Will"" D. Burns"
609679,Network 3,PROSSER HS,POINT (-87.76104831561555 41.92005939899792),2148 N LONG AVE,60639,District,HS,"9, 10, 11, 12",41.9200593998,-87.7610483156,1(773)534-3200,3,BELMONT CRAGIN,36,Nicholas Sposato
609680,ISP,PAYTON HS,POINT (-87.6353847656341 41.90157516912679),1034 N WELLS ST,60610,District,HS,"9, 10, 11, 12",41.9015751699,-87.6353847656,1(773)534-0034,6,NEAR NORTH SIDE,27,"Walter Burnett, Jr."
609682,Network 8,RICHARDS HS,POINT (-87.66227784587741 41.80288137497483),5009 S LAFLIN ST,60609,District,HS,"9, 10, 11, 12",41.8028813758,-87.6622778459,1(773)535-4945,8,NEW CITY,20,Willie B. Cochran
609691,Network 5,NORTH-GRAND HS,POINT (-87.73523755588572 41.91167369206698),4338 W WABANSIA AVE,60639,District,HS,"9, 10, 11, 12",41.9116736929,-87.7352375559,1(773)534-8520,5,HUMBOLDT PARK,36,Nicholas Sposato
609692,ISP,SIMEON HS,POINT (-87.63541036888441 41.74578123023072),8147 S VINCENNES AVE,60620,District,HS,"9, 10, 11, 12",41.745781231,-87.6354103689,1(773)535-3200,11,CHATHAM,21,"Howard B. Brookins, Jr."
609693,Network 5,WESTINGHOUSE HS,POINT (-87.70733230830211 41.88997720311543),3223 W FRANKLIN BLVD,60624,District,HS,"9, 10, 11, 12",41.8899772039,-87.7073323083,1(773)534-6400,5,HUMBOLDT PARK,28,Jason C. Ervin
609694,Network 8,HANCOCK HS,POINT (-87.7244704643747 41.79146390854953),4034 W 56TH ST,60629,District,HS,"9, 10, 11, 12",41.7914639093,-87.7244704644,1(773)535-2410,8,WEST ELSDON,13,Marty Quinn
609695,ISP,AMUNDSEN HS,POINT (-87.67948421494859 41.97506725585589),5110 N DAMEN AVE,60625,District,HS,"9, 10, 11, 12",41.9750672567,-87.6794842149,1(773)534-2320,2,LINCOLN SQUARE,40,Patrick O'Connor
609698,Network 10,BOGAN HS,POINT (-87.72109744629778 41.749375609339616),3939 W 79TH ST,60652,District,HS,"9, 10, 11, 12",41.7493756101,-87.7210974463,1(773)535-2180,10,ASHBURN,18,Lona Lane
609704,Network 7,FARRAGUT HS,POINT (-87.70870563225235 41.84855987384877),2345 S CHRISTIANA AVE,60623,District,HS,"PK, 9, 10, 11, 12",41.8485598747,-87.7087056322,1(773)534-1300,7,SOUTH LAWNDALE,22,Ricardo Munoz
609705,Network 13,FENGER HS,POINT (-87.63757205080117 41.68995072454672),11220 S WALLACE ST,60628,District,HS,"9, 10, 11, 12",41.6899507253,-87.6375720508,1(773)535-5430,13,ROSELAND,34,Carrie M. Austin
609707,Network 11,ROBESON HS,POINT (-87.63715271773849 41.7697137956223),6835 S NORMAL BLVD,60621,District,HS,"9, 10, 11, 12",41.7697137964,-87.6371527177,1(773)535-3800,11,ENGLEWOOD,6,Roderick T. Sawyer
609708,Network 3,FOREMAN HS,POINT (-87.75416654390553 41.939796767286225),3235 N LECLAIRE AVE,60641,District,HS,"9, 10, 11, 12",41.9397967681,-87.7541665439,1(773)534-3400,1,PORTAGE PARK,31,Ray Suarez
609709,Network 8,GAGE PARK HS,POINT (-87.6889539419451 41.79101283821026),5630 S ROCKWELL ST,60629,District,HS,"9, 10, 11, 12",41.791012839,-87.6889539419,1(773)535-9230,8,GAGE PARK,15,Raymond Lopez
609710,Network 12,HARLAN HS,POINT (-87.6206234362719 41.71837234558635),9652 S MICHIGAN AVE,60628,District,HS,"7, 8, 9, 10, 11, 12",41.7183723464,-87.6206234363,1(773)535-5400,12,ROSELAND,9,Anthony A. Beale
609711,Network 11,HARPER HS,POINT (-87.6690892964138 41.77512408303257),6520 S WOOD ST,60636,District,HS,"9, 10, 11, 12",41.7751240838,-87.6690892964,1(773)535-9150,11,WEST ENGLEWOOD,15,Raymond Lopez
609712,Network 12,HIRSCH HS,POINT (-87.60172726636009 41.75374795516494),7740 S INGLESIDE AVE,60619,District,HS,"9, 10, 11, 12",41.753747956,-87.6017272664,1(773)535-3100,12,GREATER GRAND CROSSING,8,Michelle A. Harris
609713,Network 9,HYDE PARK HS,POINT (-87.58661500994783 41.78225692669282),6220 S STONY ISLAND AVE,60637,District,HS,"9, 10, 11, 12",41.7822569275,-87.5866150099,1(773)535-0880,9,WOODLAWN,5,Leslie A. Hairston
609715,Network 8,KELLY HS,POINT (-87.69463865990906 41.81872906307833),4136 S CALIFORNIA AVE,60632,District,HS,"9, 10, 11, 12",41.8187290639,-87.6946386599,1(773)535-4900,8,BRIGHTON PARK,12,George A. Cardenas
609716,Network 4,KELVYN PARK HS,POINT (-87.73599882158966 41.92791840231072),4343 W WRIGHTWOOD AVE,60639,District,HS,"7, 8, 9, 10, 11, 12",41.9279184031,-87.7359988216,1(773)534-4200,4,HERMOSA,31,Ray Suarez
609718,Network 10,KENNEDY HS,POINT (-87.7808397551086 41.7899612521533),6325 W 56TH ST,60638,District,HS,"9, 10, 11, 12",41.789961253,-87.7808397551,1(773)535-2325,10,GARFIELD RIDGE,13,Marty Quinn
609719,Network 2,LAKE VIEW HS,POINT (-87.66895268958682 41.95476406721259),4015 N ASHLAND AVE,60613,District,HS,"9, 10, 11, 12",41.954764068,-87.6689526896,1(773)534-5440,2,LAKE VIEW,47,Ameya Pawar
609720,Network 4,LANE TECH HS,POINT (-87.69101262674111 41.94664457419042),2501 W ADDISON ST,60618,District,HS,"7, 8, 9, 10, 11, 12",41.946644575,-87.6910126267,1(773)534-5400,4,NORTH CENTER,47,Ameya Pawar
609722,Network 5,MANLEY HS,POINT (-87.69989559044011 41.870938955765155),2935 W POLK ST,60612,District,HS,"9, 10, 11, 12",41.8709389566,-87.6998955904,1(773)534-6900,5,EAST GARFIELD PARK,28,Jason C. Ervin
609723,Network 5,MARSHALL HS,POINT (-87.70805006977712 41.878444085129374),3250 W ADAMS ST,60624,District,HS,"9, 10, 11, 12",41.8784440859,-87.7080500698,1(773)534-6455,5,EAST GARFIELD PARK,28,Jason C. Ervin
609724,Network 2,MATHER HS,POINT (-87.7024963956971 41.98758868185385),5835 N LINCOLN AVE,60659,District,HS,"9, 10, 11, 12",41.9875886827,-87.7024963957,1(773)534-2350,2,WEST RIDGE,40,Patrick O'Connor
609725,Network 10,MORGAN PARK HS,POINT (-87.66565754522058 41.6920350088894),1744 W PRYOR AVE,60643,District,HS,"7, 8, 9, 10, 11, 12",41.6920350097,-87.6656575452,1(773)535-2550,10,MORGAN PARK,19,Matthew J. O'Shea
609726,Network 13,BROOKS HS,POINT (-87.61635260657202 41.692762528429355),250 E 111TH ST,60628,District,HS,"7, 8, 9, 10, 11, 12",41.6927625292,-87.6163526066,1(773)535-9930,13,ROSELAND,9,Anthony A. Beale
609727,AUSL,PHILLIPS HS,POINT (-87.61979634572873 41.82387996738068),244 E PERSHING RD,60653,District,HS,"9, 10, 11, 12",41.8238799682,-87.6197963457,1(773)535-1603,9,DOUGLAS,3,Patricia R. Dowell
609728,Network 1,ROOSEVELT HS,POINT (-87.71481861559978 41.96482788378516),3436 W WILSON AVE,60625,District,HS,"7, 8, 9, 10, 11, 12",41.9648278846,-87.7148186156,1(773)534-5000,1,ALBANY PARK,33,Deborah Mell
609729,Network 1,SCHURZ HS,POINT (-87.73561211048235 41.94636454274745),3601 N MILWAUKEE AVE,60641,District,HS,"9, 10, 11, 12",41.9463645436,-87.7356121105,1(773)534-3420,1,IRVING PARK,45,John Arena
609730,Network 2,SENN HS,POINT (-87.66713618982065 41.98902853847887),5900 N GLENWOOD AVE,60660,District,HS,"9, 10, 11, 12",41.9890285393,-87.6671361898,1(773)534-2365,2,EDGEWATER,48,Harry Osterman
609732,Network 3,STEINMETZ HS,POINT (-87.78351523288265 41.93563358725084),3030 N MOBILE AVE,60634,District,HS,"9, 10, 11, 12",41.9356335881,-87.7835152329,1(773)534-3030,3,BELMONT CRAGIN,36,Nicholas Sposato
609733,Network 2,SULLIVAN HS,POINT (-87.66919214534073 42.002687558010145),6631 N BOSWORTH AVE,60626,District,HS,"9, 10, 11, 12",42.0026875589,-87.6691921453,1(773)534-2000,2,ROGERS PARK,49,Joe A. Moore
609734,Network 1,TAFT HS,POINT (-87.79154724941422 41.98296098619859),6530 W BRYN MAWR AVE,60631,District,HS,"7, 8, 9, 10, 11, 12",41.982960987,-87.7915472494,1(773)534-1000,1,NORWOOD PARK,41,Mary O'Connor
609735,Network 8,TILDEN HS,POINT (-87.64296648354815 41.80751007096626),4747 S UNION AVE,60609,District,HS,"9, 10, 11, 12",41.8075100718,-87.6429664835,1(773)535-1625,8,NEW CITY,11,James A. Balcer
609737,Network 1,VON STEUBEN HS,POINT (-87.71338625328654 41.97318504807329),5039 N KIMBALL AVE,60625,District,HS,"9, 10, 11, 12",41.9731850489,-87.7133862533,1(773)534-5100,1,NORTH PARK,39,Margaret Laurino
609738,ISP,LINCOLN PARK HS,POINT (-87.64600935976243 41.91826831075271),2001 N ORCHARD ST,60614,District,HS,"9, 10, 11, 12",41.9182683116,-87.6460093598,1(773)534-8130,4,LINCOLN PARK,43,Michele Smith
609739,Network 13,WASHINGTON HS,POINT (-87.53757030027741 41.688136935625785),3535 E 114TH ST,60617,District,HS,"9, 10, 11, 12",41.6881369364,-87.5375703003,1(773)535-5725,13,EAST SIDE,10,Susie Sadlowski Garza
609740,ISP,WELLS HS,POINT (-87.66748286896365 41.89899470698043),936 N ASHLAND AVE,60622,District,HS,"9, 10, 11, 12",41.8989947078,-87.667482869,1(773)534-7010,6,WEST TOWN,1,Proco (Joe) Moreno III
609741,Network 10,HUBBARD HS,POINT (-87.71801374323086 41.780526386627955),6200 S HAMLIN AVE,60629,District,HS,"9, 10, 11, 12",41.7805263874,-87.7180137432,1(773)535-2200,10,WEST LAWN,23,Michael R. Zalewski
609744,Network 1,NORTHSIDE LEARNING HS,POINT (-87.72238621544285 41.98297252121619),3730 W BRYN MAWR AVE,60659,District,HS,"9, 10, 11, 12",41.9829725221,-87.7223862154,1(773)534-5180,1,NORTH PARK,39,Margaret Laurino
609745,ISP,SOUTHSIDE HS,POINT (-87.67594676756123 41.75985242841147),7342 S HOYNE AVE,60636,District,HS,"11, 12",41.7598524292,-87.6759467676,1(773)535-9100,11,WEST ENGLEWOOD,17,Latasha R. Thomas
609746,Network 9,KENWOOD HS,POINT (-87.59042088945237 41.803772118508014),5015 S BLACKSTONE AVE,60615,District,HS,"7, 8, 9, 10, 11, 12",41.8037721193,-87.5904208894,1(773)535-1350,9,KENWOOD,4,"William ""Will"" D. Burns"
609748,Network 11,YORK HS,POINT (-87.6952610158806 41.84253334794401),2700 S CALIFORNIA AVE,60608,District,HS,"9, 10, 11, 12",41.8425333488,-87.6952610159,1(773)535-7021,7,SOUTH LAWNDALE,24,Michael D. Chandler
609749,Network 1,NORTHSIDE PREP HS,POINT (-87.70870780077357 41.98131528213096),5501 N KEDZIE AVE,60625,District,HS,"9, 10, 11, 12",41.981315283,-87.7087078008,1(773)534-3954,1,NORTH PARK,40,Patrick O'Connor
609750,Network 6,SIMPSON HS,POINT (-87.6687222293137 41.86436548208224),1321 S PAULINA ST,60608,District,HS,"6, 7, 8, 9, 10, 11, 12",41.8643654829,-87.6687222293,1(773)534-7812,6,NEAR WEST SIDE,28,Jason C. Ervin
609751,Network 9,KING HS,POINT (-87.60387386164147 41.81367545211025),4445 S DREXEL BLVD,60653,District,HS,"9, 10, 11, 12",41.8136754529,-87.6038738616,1(773)535-1180,9,KENWOOD,4,"William ""Will"" D. Burns"
609753,ISP,CHICAGO AGRICULTURE HS,POINT (-87.71776967268775 41.69122074178622),3857 W 111TH ST,60655,District,HS,"9, 10, 11, 12",41.6912207426,-87.7177696727,1(773)535-2500,10,MOUNT GREENWOOD,19,Matthew J. O'Shea
609754,Network 6,CHICAGO MILITARY HS,POINT (-87.61921554223582 41.83055497708962),3519 S GILES AVE,60653,District,HS,"9, 10, 11, 12",41.8305549779,-87.6192155422,1(773)534-9750,9,DOUGLAS,3,Patricia R. Dowell
609755,ISP,YOUNG HS,POINT (-87.6642333434002 41.878602532328486),211 S LAFLIN ST,60607,District,HS,"7, 8, 9, 10, 11, 12",41.8786025331,-87.6642333434,1(773)534-7500,6,NEAR WEST SIDE,27,"Walter Burnett, Jr."
609756,Network 8,CURIE HS,POINT (-87.72204165467807 41.803060206697396),4959 S ARCHER AVE,60632,District,HS,"9, 10, 11, 12",41.8030602075,-87.7220416547,1(773)535-2100,8,ARCHER HEIGHTS,14,Edward M. Burke
609759,Network 5,CLEMENTE HS,POINT (-87.68690614585311 41.9026257915793),1147 N WESTERN AVE,60622,District,HS,"9, 10, 11, 12",41.9026257924,-87.6869061458,1(773)534-4000,5,WEST TOWN,1,Proco (Joe) Moreno III
609760,Network 6,CARVER MILITARY HS,POINT (-87.59062038515513 41.65628995142258),13100 S DOTY AVE,60627,District,HS,"9, 10, 11, 12",41.6562899522,-87.5906203851,1(773)535-5250,13,RIVERDALE,9,Anthony A. Beale
609761,Network 13,CORLISS HS,POINT (-87.60121587665988 41.70665961641773),821 E 103RD ST,60628,District,HS,"9, 10, 11, 12",41.7066596172,-87.6012158767,1(773)535-5115,13,PULLMAN,9,Anthony A. Beale
609762,Network 13,JULIAN HS,POINT (-87.65374921077066 41.705858935588914),10330 S ELIZABETH ST,60643,District,HS,"9, 10, 11, 12",41.7058589364,-87.6537492108,1(773)535-5170,10,WASHINGTON HEIGHTS,34,Carrie M. Austin
609764,ISP,JUAREZ HS,POINT (-87.66433930958303 41.85267013572381),1450 W CERMAK RD,60608,District,HS,"9, 10, 11, 12",41.8526701365,-87.6643393096,1(773)534-7030,7,LOWER WEST SIDE,25,Daniel S. Solis
609766,Network 1,VAUGHN HS,POINT (-87.76466317336318 41.960363795857305),4355 N LINDER AVE,60641,District,HS,"9, 10, 11, 12",41.9603637967,-87.7646631734,1(773)534-3600,1,PORTAGE PARK,38,Timothy M. Cullerton
609768,Network 11,HOPE HS,POINT (-87.64124410920577 41.793553466470584),5515 S LOWE AVE,60621,District,HS,"9, 10, 11, 12",41.7935534673,-87.6412441092,1(773)535-3160,11,ENGLEWOOD,20,Willie B. Cochran
609769,Network 6,GRAHAM HS,POINT (-87.62531481527424 41.84967541708467),2347 S WABASH AVE,60616,District,HS,"9, 10, 11, 12",41.8496754179,-87.6253148153,1(773)534-9257,6,NEAR SOUTH SIDE,3,Patricia R. Dowell
609772,ISP,ADDAMS,POINT (-87.53297604181783 41.69873879907316),10810 S AVENUE H,60617,District,ES,"PK, K, 1, 2, 3, 4, 5, 6, 7, 8",41.6987387999,-87.5329760418,1(773)535-6210,13,EAST SIDE,10,Susie Sadlowski Garza
609773,ISP,AGASSIZ,POINT (-87.65622866744738 41.93412629749406),2851 N SEMINARY AVE,60657,District,ES,"PK, K, 1, 2, 3, 4, 5, 6, 7, 8",41.9341262983,-87.6562286674,1(773)534-5725,4,LAKE VIEW,44,Thomas Tunney
609777,Network 6,ARMOUR,POINT (-87.65065315649788 41.83385390882868),950 W 33RD PL,60608,District,ES,"PK, K, 1, 2, 3, 4, 5, 6, 7, 8",41.8338539096,-87.6506531565,1(773)535-4530,6,BRIDGEPORT,11,James A. Balcer
609779,Network 2,ARMSTRONG G,POINT (-87.6844418273605 42.01014998373587),2110 W GREENLEAF AVE,60645,District,ES,"PK, K, 1, 2, 3, 4, 5, 6, 7, 8",42.0101499846,-87.6844418274,1(773)534-2150,2,WEST RIDGE,50,Debra L. Silverstein
609780,ISP,MARINE LEADERSHIP AT AMES HS,POINT (-87.72174231678147 41.91604463306548),1920 N HAMLIN AVE,60647,District,HS,"7, 8, 9, 10, 11, 12",41.9160446339,-87.7217423168,1(773)534-4970,4,LOGAN SQUARE,26,Roberto Maldonado
609782,Network 4,AUDUBON,POINT (-87.68104105313787 41.94506222430422),3500 N HOYNE AVE,60618,District,ES,"PK, K, 1, 2, 3, 4, 5, 6, 7, 8",41.9450622251,-87.6810410531,1(773)534-5470,4,NORTH CENTER,47,Ameya Pawar
609783,Network 11,JEFFERSON HS,POINT (-87.68041755457105 41.867832284629486),1100 S HAMILTON AVE,60612,District,HS,"6, 7, 8, 9, 10, 11, 12",41.8678322854,-87.6804175546,1(312)433-7110,6,NEAR WEST SIDE,27,"Walter Burnett, Jr."
609786,Network 12,AVALON PARK,POINT (-87.59165381085134 41.74824699397219),8045 S KENWOOD AVE,60619,District,ES,"PK, K, 1, 2, 3, 4, 5, 6, 7, 8",41.7482469948,-87.5916538108,1(773)535-6615,12,AVALON PARK,8,Michelle A. Harris
609788,Network 10,BARNARD,POINT (-87.65807422406259 41.705131011309035),10354 S CHARLES ST,60643,District,ES,"PK, K, 1, 2, 3, 4, 5, 6, 7, 8",41.7051310121,-87.6580742241,1(773)535-2625,10,BEVERLY,19,Matthew J. O'Shea
609789,ISP,BARRY,POINT (-87.73938835103296 41.93251058278424),2828 N KILBOURN AVE,60641,District,ES,"PK, K, 1, 2, 3, 4, 5, 6",41.9325105836,-87.739388351,1(773)534-3455,4,HERMOSA,31,Ray Suarez
609790,Network 11,BARTON,POINT (-87.67092712872531 41.75419384978611),7650 S WOLCOTT AVE,60620,District,ES,"PK, K, 1, 2, 3, 4, 5, 6, 7, 8",41.7541938506,-87.6709271287,1(773)535-3260,11,AUBURN GRESHAM,17,Latasha R. Thomas
609791,Network 11,BASS,POINT (-87.65353242019691 41.77424645004429),1140 W 66TH ST,60621,District,ES,"PK, K, 1, 2, 3, 4, 5, 6, 7, 8",41.7742464508,-87.6535324202,1(773)535-3275,11,ENGLEWOOD,16,JoAnn Thompson
609792,Network 1,BATEMAN,POINT (-87.70215096179008 41.95821983888024),4220 N RICHMOND ST,60618,District,ES,"PK, K, 1, 2, 3, 4, 5, 6, 7, 8",41.9582198397,-87.7021509618,1(773)534-5055,1,IRVING PARK,33,Deborah Mell
609793,Network 11,NICHOLSON,POINT (-87.64745284245632 41.78494237979363),6006 S PEORIA ST,60621,District,ES,"PK, K, 1, 2, 3, 4, 5, 6, 7, 8",41.7849423806,-87.6474528424,1(773)535-3285,11,ENGLEWOOD,16,JoAnn Thompson
609794,Network 1,EDISON,POINT (-87.70930366577336 41.97150609649997),4929 N SAWYER AVE,60625,District,ES,"K, 1, 2, 3, 4, 5, 6, 7, 8",41.9715060973,-87.7093036658,1(773)534-0540,1,ALBANY PARK,33,Deborah Mell
609795,Network 3,CLARK ES,POINT (-87.77041752738367 41.867812567517284),1045 S MONITOR AVE,60644,District,ES,"PK, K, 1, 2, 3, 4, 5, 6, 7, 8",41.8678125683,-87.7704175274,1(773)534-6225,3,AUSTIN,29,Chris Taliaferro
609796,Network 1,BEAUBIEN,POINT (-87.75756503918218 41.97239394466906),5025 N LARAMIE AVE,60630,District,ES,"PK, K, 1, 2, 3, 4, 5, 6, 7, 8",41.9723939455,-87.7575650392,1(773)534-3500,1,JEFFERSON PARK,45,John Arena
609797,Network 5,BEIDLER,POINT (-87.70585481200737 41.885321039474746),3151 W WALNUT ST,60612,District,ES,"PK, K, 1, 2, 3, 4, 5, 6, 7, 8",41.8853210403,-87.705854812,1(773)534-6811,5,EAST GARFIELD PARK,27,"Walter Burnett, Jr."
609798,Network 1,BELDING,POINT (-87.73401972967199 41.95893849363402),4257 N TRIPP AVE,60641,District,ES,"PK, K, 1, 2, 3, 4, 5, 6, 7, 8",41.9589384945,-87.7340197297,1(773)534-3590,1,IRVING PARK,39,Margaret Laurino
609799,Network 4,BELL,POINT (-87.68601824433433 41.9495297982333),3730 N OAKLEY AVE,60618,District,ES,"K, 1, 2, 3, 4, 5, 6, 7, 8",41.9495297991,-87.6860182443,1(773)534-5150,4,NORTH CENTER,47,Ameya Pawar
609800,Network 13,BENNETT,POINT (-87.61739045570121 41.71043494844108),10115 S PRAIRIE AVE,60628,District,ES,"PK, K, 1, 2, 3, 4, 5, 6, 7, 8",41.7104349492,-87.6173904557,1(773)535-5460,13,ROSELAND,9,Anthony A. Beale
609803,Network 4,BLAINE,POINT (-87.66496784467402 41.95078051805864),1420 W GRACE ST,60613,District,ES,"PK, K, 1, 2, 3, 4, 5, 6, 7, 8",41.9507805189,-87.6649678447,1(773)534-5750,4,LAKE VIEW,44,Thomas Tunney
609804,Network 2,BOONE,POINT (-87.69746282205826 42.00341160727272),6710 N WASHTENAW AVE,60645,District,ES,"PK, K, 1, 2, 3, 4, 5, 6, 7, 8",42.0034116081,-87.697462822,1(773)534-2160,2,WEST RIDGE,50,Debra L. Silverstein
609805,Network 11,JOPLIN,POINT (-87.66936564961709 41.74933916080359),7931 S HONORE ST,60620,District,ES,"PK, K, 1, 2, 3, 4, 5, 6, 7, 8",41.7493391616,-87.6693656496,1(773)535-3425,11,AUBURN GRESHAM,17,Latasha R. Thomas
609806,AUSL,BRADWELL,POINT (-87.5571419710349 41.754365131246374),7736 S BURNHAM AVE,60649,District,ES,"PK, K, 1, 2, 3, 4, 5, 6, 7, 8",41.754365132,-87.557141971,1(773)535-6600,12,SOUTH SHORE,7,Gregory Mitchell
609807,Network 10,HAMPTON,POINT (-87.70873128447809 41.75345719265228),3434 W 77TH ST,60652,District,ES,"K, 1, 2, 3, 4, 5, 6, 7, 8",41.7534571934,-87.7087312845,1(773)535-4030,10,ASHBURN,18,Lona Lane
609808,Network 13,HALEY,POINT (-87.63363213619498 41.686659969507105),11411 S EGGLESTON AVE,60628,District,ES,"PK, K, 1, 2, 3, 4, 5, 6, 7, 8",41.6866599703,-87.6336321362,1(773)535-5340,13,ROSELAND,34,Carrie M. Austin
609809,Network 4,BRENTANO,POINT (-87.69629419836866 41.9309660958041),2723 N FAIRFIELD AVE,60647,District,ES,"PK, K, 1, 2, 3, 4, 5, 6, 7, 8",41.9309660966,-87.6962941984,1(773)534-4100,4,LOGAN SQUARE,32,Scott Waguespack
609810,Network 1,BRIDGE,POINT (-87.79866892056614 41.94911438626606),3800 N NEW ENGLAND AVE,60634,District,ES,"PK, K, 1, 2, 3, 4, 5, 6, 7, 8",41.9491143871,-87.7986689206,1(773)534-3718,1,DUNNING,38,Timothy M. Cullerton
609811,Network 13,BRIGHT,POINT (-87.56208422999353 41.699726221063116),10740 S CALHOUN AVE,60617,District,ES,"PK, K, 1, 2, 3, 4, 5, 6, 7, 8",41.6997262218,-87.56208423,1(773)535-6215,13,SOUTH DEERING,10,Susie Sadlowski Garza
609812,Network 6,BROWN W,POINT (-87.67068239048238 41.88299678413438),54 N HERMITAGE AVE,60612,District,ES,"PK, K, 1, 2, 3, 4, 5, 6, 7, 8",41.882996785,-87.6706823905,1(773)534-7250,6,NEAR WEST SIDE,27,"Walter Burnett, Jr."
609813,Network 12,BROWNELL,POINT (-87.62174596836614 41.77162035907393),6741 S MICHIGAN AVE,60637,District,ES,"PK, K, 1, 2, 3, 4, 5, 6",41.7716203599,-87.6217459684,1(773)535-3030,12,GREATER GRAND CROSSING,6,Roderick T. Sawyer
609815,Network 12,BOUCHET,POINT (-87.57607485712315 41.76084747994678),7355 S JEFFERY BLVD,60649,District,ES,"PK, K, 1, 2, 3, 4, 5, 6, 7, 8",41.7608474807,-87.5760748571,1(773)535-0501,12,SOUTH SHORE,7,Gregory Mitchell
609817,Network 2,BUDLONG,POINT (-87.69655603218193 41.97575432973367),2701 W FOSTER AVE,60625,District,ES,"PK, K, 1, 2, 3, 4, 5, 6, 7, 8",41.9757543306,-87.6965560322,1(773)534-2591,2,LINCOLN SQUARE,40,Patrick O'Connor
609818,Network 3,BURBANK,POINT (-87.78269957086374 41.91759813746918),2035 N MOBILE AVE,60639,District,ES,"PK, K, 1, 2, 3, 4, 5, 6, 7, 8",41.9175981383,-87.7826995709,1(773)534-3000,3,BELMONT CRAGIN,29,Chris Taliaferro
609819,Network 9,BURKE,POINT (-87.6161405235956 41.79675956372592),5356 S KING DR,60615,District,ES,"PK, K, 1, 2, 3, 4, 5, 6, 7, 8",41.7967595645,-87.6161405236,1(773)535-1325,9,WASHINGTON PARK,3,Patricia R. Dowell
609820,ISP,BURLEY,POINT (-87.66985312412211 41.937937473581265),1630 W BARRY AVE,60657,District,ES,"PK, K, 1, 2, 3, 4, 5, 6, 7, 8",41.9379374744,-87.6698531241,1(773)534-5475,4,LAKE VIEW,32,Scott Waguespack
609821,ISP,BURNHAM,POINT (-87.56713059136543 41.71440206175561),9928 S CRANDON AVE,60617,District,ES,"PK, K, 1, 2, 3, 4, 5, 6, 7, 8",41.7144020625,-87.5671305914,1(773)535-6530,13,SOUTH DEERING,7,Gregory Mitchell
609826,Network 7,CASTELLANOS,POINT (-87.71492701415002 41.84544987856497),2524 S CENTRAL PARK AVE,60623,District,ES,"4, 5, 6, 7, 8",41.8454498794,-87.7149270141,1(773)534-1620,7,SOUTH LAWNDALE,22,Ricardo Munoz
609827,Network 12,BURNSIDE,POINT (-87.60743532128883 41.72848063790991),650 E 91ST PL,60619,District,ES,"PK, K, 1, 2, 3, 4, 5, 6, 7, 8",41.7284806387,-87.6074353213,1(773)535-3300,12,CHATHAM,8,Michelle A. Harris
609828,ISP,BURR,POINT (-87.66866060377357 41.912357907271925),1621 W WABANSIA AVE,60622,District,ES,"PK, K, 1, 2, 3, 4, 5, 6, 7, 8",41.9123579081,-87.6686606038,1(773)534-4090,6,WEST TOWN,32,Scott Waguespack
609829,ISP,BURROUGHS,POINT (-87.69245662922816 41.82886790652319),3542 S WASHTENAW AVE,60632,District,ES,"PK, K, 1, 2, 3, 4, 5, 6, 7, 8",41.8288679073,-87.6924566292,1(773)535-7226,8,BRIGHTON PARK,12,George A. Cardenas
609830,Network 3,BRUNSON,POINT (-87.76560565853956 41.89766257161412),932 N CENTRAL AVE,60651,District,ES,"PK, K, 1, 2, 3, 4, 5, 6, 7, 8",41.8976625724,-87.7656056585,1(773)534-6025,3,AUSTIN,29,Chris Taliaferro
609832,Network 10,BYRNE,POINT (-87.7915444826982 41.79503096443681),5329 S OAK PARK AVE,60638,District,ES,"K, 1, 2, 3, 4, 5, 6, 7, 8",41.7950309652,-87.7915444827,1(773)535-2170,10,GARFIELD RIDGE,23,Michael R. Zalewski
609833,Network 12,CALDWELL,POINT (-87.58072902767272 41.73922635448458),8546 S CREGIER AVE,60617,District,ES,"PK, K, 1, 2, 3, 4, 5, 6, 7, 8",41.7392263553,-87.5807290277,1(773)535-6300,12,AVALON PARK,8,Michelle A. Harris
609834,ISP,LITTLE VILLAGE,POINT (-87.71731895269359 41.84369811757608),2620 S LAWNDALE AVE,60623,District,ES,"PK, K, 1, 2, 3, 4, 5, 6, 7, 8",41.8436981184,-87.7173189527,1(773)534-1880,7,SOUTH LAWNDALE,22,Ricardo Munoz
609835,Network 5,CAMERON,POINT (-87.71792663520327 41.90379211711643),1234 N MONTICELLO AVE,60651,District,ES,"PK, K, 1, 2, 3, 4, 5, 6, 7, 8",41.9037921179,-87.7179266352,1(773)534-4290,5,HUMBOLDT PARK,26,Roberto Maldonado
609836,Network 1,CANTY,POINT (-87.8292957010156 41.948007027273874),3740 N PANAMA AVE,60634,District,ES,"PK, K, 1, 2, 3, 4, 5, 6, 7, 8",41.9480070281,-87.829295701,1(773)534-1238,1,DUNNING,38,Timothy M. Cullerton
609837,ISP,CARNEGIE,POINT (-87.59079500925881 41.78336832270084),1414 E 61ST PL,60637,District,ES,"PK, K, 1, 2, 3, 4, 5, 6, 7, 8",41.7833683235,-87.5907950092,1(773)535-0530,9,WOODLAWN,20,Willie B. Cochran
609839,Network 10,CARROLL,POINT (-87.69601207513412 41.742516625773),2929 W 83RD ST,60652,District,ES,"PK, K, 1, 2, 3, 4, 5, 6, 7, 8",41.7425166266,-87.6960120751,1(773)535-9414,10,ASHBURN,18,Lona Lane
609842,ISP,CARSON,POINT (-87.68779954321866 41.79327214337314),5516 S MAPLEWOOD AVE,60629,District,ES,"PK, K, 1, 2, 3, 4, 5, 6, 7, 8",41.7932721442,-87.6877995432,1(773)535-9222,8,GAGE PARK,15,Raymond Lopez
609844,AUSL,CARTER,POINT (-87.62245275191152 41.78982790446188),5740 S MICHIGAN AVE,60637,District,ES,"PK, K, 1, 2, 3, 4, 5, 6, 7, 8",41.7898279053,-87.6224527519,1(773)535-0860,9,WASHINGTON PARK,20,Willie B. Cochran
609845,Network 13,CARVER G,POINT (-87.59951563220227 41.65370211546621),901 E 133RD PL,60827,District,ES,"PK, K, 1, 2, 3, 4, 5, 6, 7, 8",41.6537021162,-87.5995156322,1(773)535-5674,13,RIVERDALE,9,Anthony A. Beale
609848,Network 13,ALDRIDGE,POINT (-87.60647384691308 41.65740496962151),630 E 131ST ST,60827,District,ES,"PK, K, 1, 2, 3, 4, 5, 6, 7, 8",41.6574049704,-87.6064738469,1(773)535-5614,13,RIVERDALE,9,Anthony A. Beale
609849,Network 10,CASSELL,POINT (-87.70321548828544 41.6873470545929),11314 S SPAULDING AVE,60655,District,ES,"K, 1, 2, 3, 4, 5, 6, 7, 8",41.6873470554,-87.7032154883,1(773)535-2640,10,MOUNT GREENWOOD,19,Matthew J. O'Shea
609850,Network 4,GREELEY,POINT (-87.65097986936915 41.952809511187816),832 W SHERIDAN RD,60613,District,ES,"PK, K, 1, 2, 3, 4, 5, 6, 7, 8",41.952809512,-87.6509798694,1(773)534-5800,4,LAKE VIEW,46,James Cappleman
609851,AUSL,CHALMERS,POINT (-87.6952593685406 41.866435251350666),2745 W ROOSEVELT RD,60608,District,ES,"PK, K, 1, 2, 3, 4, 5, 6, 7, 8",41.8664352522,-87.6952593685,1(773)534-1720,5,NORTH LAWNDALE,28,Jason C. Ervin
609852,Network 2,CHAPPELL,POINT (-87.68326359190789 41.97589429991424),2135 W FOSTER AVE,60625,District,ES,"PK, K, 1, 2, 3, 4, 5, 6, 7, 8",41.9758943007,-87.6832635919,1(773)534-2390,2,LINCOLN SQUARE,40,Patrick O'Connor
609853,Network 4,CHASE,POINT (-87.69456225149781 41.91799265283444),2021 N POINT ST,60647,District,ES,"PK, K, 1, 2, 3, 4, 5, 6, 7, 8",41.9179926537,-87.6945622515,1(773)534-4185,4,LOGAN SQUARE,1,Proco (Joe) Moreno III
609854,Network 5,CHOPIN,POINT (-87.68893676245328 41.89671268815487),2450 W RICE ST,60622,District,ES,"PK, K, 1, 2, 3, 4, 5, 6, 7, 8",41.896712689,-87.6889367624,1(773)534-4080,5,WEST TOWN,26,Roberto Maldonado
609855,Network 8,CHRISTOPHER,POINT (-87.68560700306816 41.80165862417512),5042 S ARTESIAN AVE,60632,District,ES,"K, 1, 2, 3, 4, 5, 6, 7, 8",41.801658625,-87.6856070031,1(773)535-9375,8,GAGE PARK,14,Edward M. Burke
609856,Network 13,CLAY,POINT (-87.54461359769068 41.654558148396525),13231 S BURLEY AVE,60633,District,ES,"PK, K, 1, 2, 3, 4, 5, 6, 7, 8",41.6545581492,-87.5446135977,1(773)535-5600,13,HEGEWISCH,10,Susie Sadlowski Garza
609857,Network 1,CLEVELAND,POINT (-87.70644252546367 41.95204212082533),3121 W BYRON ST,60618,District,ES,"PK, K, 1, 2, 3, 4, 5, 6, 7, 8",41.9520421217,-87.7064425255,1(773)534-5130,1,IRVING PARK,33,Deborah Mell
609859,Network 2,CLINTON,POINT (-87.69835995432015 41.99254135950569),6110 N FAIRFIELD AVE,60659,District,ES,"PK, K, 1, 2, 3, 4, 5, 6, 7, 8",41.9925413603,-87.6983599543,1(773)534-2025,2,WEST RIDGE,40,Patrick O'Connor
609861,Network 10,CLISSOLD,POINT (-87.6808967872205 41.693026005644974),2350 W 110TH PL,60643,District,ES,"K, 1, 2, 3, 4, 5, 6, 7, 8",41.6930260064,-87.6808967872,1(773)535-2560,10,MORGAN PARK,19,Matthew J. O'Shea
609862,Network 12,COLES,POINT (-87.56596977182141 41.74141280641801),8441 S YATES BLVD,60617,District,ES,"PK, K, 1, 2, 3, 4, 5, 6, 7, 8",41.7414128072,-87.5659697718,1(773)535-6550,12,SOUTH CHICAGO,7,Gregory Mitchell
609863,ISP,COLUMBUS,POINT (-87.681938049323 41.89956577485199),1003 N LEAVITT ST,60622,District,ES,"PK, K, 1, 2, 3, 4, 5, 6, 7, 8",41.8995657757,-87.6819380493,1(773)534-4350,5,WEST TOWN,2,Bob Fioretti
609864,Network 11,COOK,POINT (-87.65977458980146 41.74523702141981),8150 S BISHOP ST,60620,District,ES,"PK, K, 1, 2, 3, 4, 5, 6, 7, 8",41.7452370222,-87.6597745898,1(773)535-3315,11,AUBURN GRESHAM,21,"Howard B. Brookins, Jr."
609865,Network 2,JORDAN,POINT (-87.67776251685315 42.01708759096721),7414 N WOLCOTT AVE,60626,District,ES,"PK, K, 1, 2, 3, 4, 5, 6, 7, 8",42.0170875918,-87.6777625168,1(773)534-2220,2,ROGERS PARK,49,Joe A. Moore
609866,Network 2,COONLEY,POINT (-87.68376530076175 41.95555319469823),4046 N LEAVITT ST,60618,District,ES,"K, 1, 2, 3, 4, 5, 6, 7, 8",41.9555531955,-87.6837653008,1(773)534-5140,2,NORTH CENTER,47,Ameya Pawar
609867,Network 7,COOPER,POINT (-87.66722708445998 41.85603119195194),1624 W 19TH ST,60608,District,ES,"PK, K, 1, 2, 3, 4, 5",41.8560311928,-87.6672270845,1(773)534-7205,7,LOWER WEST SIDE,25,Daniel S. Solis
609869,Network 11,LANGFORD,POINT (-87.65716920537632 41.78468086054669),6010 S THROOP ST,60636,District,ES,"PK, K, 1, 2, 3, 4, 5, 6, 7, 8",41.7846808613,-87.6571692054,1(773)535-9180,11,WEST ENGLEWOOD,16,JoAnn Thompson
609870,Network 7,CORKERY,POINT (-87.73119286568263 41.84560242144964),2510 S KILDARE AVE,60623,District,ES,"PK, K, 1, 2, 3, 4, 5, 6, 7, 8",41.8456024223,-87.7311928657,1(773)534-1650,7,SOUTH LAWNDALE,22,Ricardo Munoz
609871,Network 10,VICK,POINT (-87.6856765978834 41.688190837411916),2554 W 113TH ST,60655,District,ES,PK,41.6881908382,-87.6856765979,1(773)535-2671,10,MORGAN PARK,19,Matthew J. O'Shea
609872,Network 7,PEREZ,POINT (-87.65798012769622 41.85602872248889),1241 W 19TH ST,60608,District,ES,"PK, K, 1, 2, 3, 4, 5, 6, 7, 8",41.8560287233,-87.6579801277,1(773)534-7650,7,LOWER WEST SIDE,25,Daniel S. Solis
609873,Network 5,CROWN,POINT (-87.71247015061276 41.85266348767926),2128 S SAINT LOUIS AVE,60623,District,ES,"PK, K, 1, 2, 3, 4, 5, 6, 7, 8",41.8526634885,-87.7124701506,1(773)534-1680,5,NORTH LAWNDALE,24,Michael D. Chandler
609874,Network 1,DIRKSEN,POINT (-87.84104144264982 41.973714776786956),8601 W FOSTER AVE,60656,District,ES,"PK, K, 1, 2, 3, 4, 5, 6, 7, 8",41.9737147776,-87.8410414426,1(773)534-1090,1,OHARE,41,Mary O'Connor
609875,ISP,DARWIN,POINT (-87.70541291384822 41.923322716802375),3116 W BELDEN AVE,60647,District,ES,"PK, K, 1, 2, 3, 4, 5, 6, 7, 8",41.9233227176,-87.7054129138,1(773)534-4110,4,LOGAN SQUARE,32,Scott Waguespack
609876,Network 8,DAVIS N,POINT (-87.70020216026171 41.82185161377397),3014 W 39TH PL,60632,District,ES,"PK, K, 1, 2, 3, 4, 5, 6, 7, 8",41.8218516146,-87.7002021603,1(773)535-4540,8,BRIGHTON PARK,12,George A. Cardenas
609879,Network 10,DAWES,POINT (-87.71735342363266 41.74507775134669),3810 W 81ST PL,60652,District,ES,"PK, K, 1, 2, 3, 4, 5, 6, 7, 8",41.7450777521,-87.7173534236,1(773)535-2350,10,ASHBURN,18,Lona Lane
609880,Network 2,DECATUR,POINT (-87.7046185932244 42.00928855699754),7030 N SACRAMENTO AVE,60645,District,ES,"K, 1, 2, 3, 4, 5, 6",42.0092885578,-87.7046185932,1(773)534-2201,2,WEST RIDGE,50,Debra L. Silverstein
609883,AUSL,DENEEN,POINT (-87.62334458926513 41.76249026346902),7240 S WABASH AVE,60619,District,ES,"PK, K, 1, 2, 3, 4, 5, 6, 7, 8",41.7624902643,-87.6233445893,1(773)535-3035,12,GREATER GRAND CROSSING,6,Roderick T. Sawyer
609884,Network 1,DEVER,POINT (-87.81313152528315 41.94255166950198),3436 N OSCEOLA AVE,60634,District,ES,"PK, K, 1, 2, 3, 4, 5, 6, 7, 8",41.9425516703,-87.8131315253,1(773)534-3090,1,DUNNING,38,Timothy M. Cullerton
609885,AUSL,DEWEY,POINT (-87.6426515784289 41.79564568303255),5415 S UNION AVE,60609,District,ES,"PK, K, 1, 2, 3, 4, 5, 6, 7, 8",41.7956456838,-87.6426515784,1(773)535-1666,11,NEW CITY,20,Willie B. Cochran
609887,Network 12,DIXON,POINT (-87.6099788745453 41.74366924135812),8306 S SAINT LAWRENCE AVE,60619,District,ES,"PK, K, 1, 2, 3, 4, 5, 6, 7, 8",41.7436692421,-87.6099788745,1(773)535-3834,12,CHATHAM,6,Roderick T. Sawyer
609891,Network 9,DOOLITTLE,POINT (-87.61227454299049 41.83112062833841),535 E 35TH ST,60616,District,ES,"PK, K, 1, 2, 3, 4, 5, 6, 7, 8",41.8311206291,-87.612274543,1(773)535-1040,9,DOUGLAS,4,"William ""Will"" D. Burns"
609893,Network 10,DORE,POINT (-87.78760442131032 41.78095446341107),6108 S NATOMA AVE,60638,District,ES,"PK, K, 1, 2, 3, 4, 5, 6, 7, 8",41.7809544642,-87.7876044213,1(773)535-2080,10,CLEARING,13,Marty Quinn
609894,Network 9,DRAKE,POINT (-87.6285534465876 41.84404331209266),2710 S DEARBORN ST,60616,District,ES,"PK, K, 1, 2, 3, 4, 5, 6, 7, 8",41.8440433129,-87.6285534466,1(773)534-9129,9,DOUGLAS,3,Patricia R. Dowell
609895,Network 11,TURNER-DREW,POINT (-87.63016447885606 41.725609215693005),9300 S PRINCETON AVE,60620,District,ES,"K, 1, 2, 3, 4, 5, 6, 7, 8",41.7256092165,-87.6301644788,1(773)535-5720,11,ROSELAND,21,"Howard B. Brookins, Jr."
609896,Network 6,DRUMMOND,POINT (-87.67449459893486 41.915913801094945),1845 W CORTLAND ST,60622,District,ES,"PK, K, 1, 2, 3, 4, 5, 6, 7, 8",41.9159138019,-87.6744945989,1(773)534-4120,6,LOGAN SQUARE,32,Scott Waguespack
609897,Network 11,EARLE,POINT (-87.67554666012475 41.78122517253027),2040 W 62ND ST,60636,District,ES,"PK, K, 1, 2, 3, 4, 5, 6, 7, 8",41.7812251733,-87.6755466601,1(773)535-9130,11,WEST ENGLEWOOD,16,JoAnn Thompson
609898,Network 10,EBERHART,POINT (-87.70795263348174 41.774420451594345),3400 W 65TH PL,60629,District,ES,"PK, K, 1, 2, 3, 4, 5, 6, 7, 8",41.7744204524,-87.7079526335,1(773)535-9190,10,CHICAGO LAWN,23,Michael R. Zalewski
609899,ISP,EBINGER,POINT (-87.81116978485632 42.004407921137776),7350 W PRATT AVE,60631,District,ES,"K, 1, 2, 3, 4, 5, 6, 7, 8",42.004407922,-87.8111697848,1(773)534-1070,1,EDISON PARK,41,Mary O'Connor
609900,AUSL,CURTIS,POINT (-87.6216526075813 41.68541839968939),32 E 115TH ST,60628,District,ES,"PK, K, 1, 2, 3, 4, 5, 6, 7, 8",41.6854184005,-87.6216526076,1(773)535-5050,13,ROSELAND,9,Anthony A. Beale
609901,Network 1,EDGEBROOK,POINT (-87.7618404744351 41.99943683277353),6525 N HIAWATHA AVE,60646,District,ES,"K, 1, 2, 3, 4, 5, 6, 7, 8",41.9994368336,-87.7618404744,1(773)534-1194,1,FOREST GLEN,41,Mary O'Connor
609902,Network 13,METCALFE,POINT (-87.63430552125133 41.669444022412314),12339 S NORMAL AVE,60628,District,ES,"PK, K, 1, 2, 3, 4, 5, 6, 7, 8",41.6694440232,-87.6343055212,1(773)535-5590,13,WEST PULLMAN,34,Carrie M. Austin
609903,ISP,EDWARDS,POINT (-87.72585617790203 41.805541539105775),4815 S KARLOV AVE,60632,District,ES,"PK, K, 1, 2, 3, 4, 5, 6, 7, 8",41.8055415399,-87.7258561779,1(773)535-4875,8,ARCHER HEIGHTS,14,Edward M. Burke
609904,Network 3,ELLINGTON,POINT (-87.76658937771538 41.88552957975924),243 N PARKSIDE AVE,60644,District,ES,"PK, K, 1, 2, 3, 4, 5, 6, 7, 8",41.8855295806,-87.7665893777,1(773)534-6361,3,AUSTIN,29,Chris Taliaferro
609907,Network 5,ERICSON,POINT (-87.7158044315032 41.87574412263659),3600 W 5TH AVE,60624,District,ES,"PK, K, 1, 2, 3, 4, 5, 6, 7, 8",41.8757441235,-87.7158044315,1(773)534-6660,5,EAST GARFIELD PARK,28,Jason C. Ervin
609908,Network 10,ESMOND,POINT (-87.66915866999116 41.68941960556063),1865 W MONTVALE AVE,60643,District,ES,"PK, K, 1, 2, 3, 4, 5, 6, 7, 8",41.6894196063,-87.66915867,1(773)535-2650,10,MORGAN PARK,19,Matthew J. O'Shea
609909,Network 8,EVERETT,POINT (-87.68131030372447 41.83155516065107),3419 S BELL AVE,60608,District,ES,"PK, K, 1, 2, 3, 4, 5",41.8315551615,-87.6813103037,1(773)535-4550,8,MCKINLEY PARK,12,George A. Cardenas
609910,Network 3,FALCONER,POINT (-87.74933062514465 41.93578457297129),3020 N LAMON AVE,60641,District,ES,"PK, K, 1, 2, 3, 4, 5, 6",41.9357845738,-87.7493306251,1(773)534-3560,3,BELMONT CRAGIN,31,Ray Suarez
609912,Network 1,FARNSWORTH,POINT (-87.7660716581908 41.979790054887566),5414 N LINDER AVE,60630,District,ES,"PK, K, 1, 2, 3, 4, 5, 6, 7, 8",41.9797900557,-87.7660716582,1(773)534-3535,1,JEFFERSON PARK,45,John Arena
609917,Network 13,FERNWOOD,POINT (-87.64041364558067 41.71118362225583),10041 S UNION AVE,60628,District,ES,"PK, K, 1, 2, 3, 4, 5, 6, 7, 8",41.711183623,-87.6404136456,1(773)535-2700,13,WASHINGTON HEIGHTS,34,Carrie M. Austin
609918,Network 2,FIELD,POINT (-87.66998540067715 42.00966385468162),7019 N ASHLAND AVE,60626,District,ES,"5, 6, 7, 8",42.0096638555,-87.6699854007,1(773)534-2030,2,ROGERS PARK,49,Joe A. Moore
609919,Network 9,FISKE,POINT (-87.60863289647321 41.78518281585605),6020 S LANGLEY AVE,60637,District,ES,"PK, K, 1, 2, 3, 4, 5, 6, 7, 8",41.7851828167,-87.6086328965,1(773)535-0990,9,WOODLAWN,20,Willie B. Cochran
609920,Network 7,KANOON,POINT (-87.70511207710514 41.85077148359955),2233 S KEDZIE AVE,60623,District,ES,"PK, K, 1, 2, 3, 4, 5, 6, 7, 8",41.8507714844,-87.7051120771,1(773)534-1736,7,SOUTH LAWNDALE,12,George A. Cardenas
609921,Network 7,TELPOCHCALLI,POINT (-87.69600587942459 41.847947431747436),2832 W 24TH BLVD,60623,District,ES,"PK, K, 1, 2, 3, 4, 5, 6, 7, 8",41.8479474326,-87.6960058794,1(773)534-1402,7,SOUTH LAWNDALE,12,George A. Cardenas
609922,Network 3,BELMONT-CRAGIN,POINT (-87.75795257360043 41.92160395650289),5252 W PALMER ST,60639,District,ES,"PK, K, 1, 2, 3, 4, 5, 6, 7, 8",41.9216039573,-87.7579525736,1(773)534-2900,3,BELMONT CRAGIN,36,Nicholas Sposato
609924,Network 11,FORT DEARBORN,POINT (-87.65548116090856 41.72967267412901),9025 S THROOP ST,60620,District,ES,"PK, K, 1, 2, 3, 4, 5, 6, 7, 8",41.7296726749,-87.6554811609,1(773)535-2680,11,WASHINGTON HEIGHTS,21,"Howard B. Brookins, Jr."
609925,Network 5,KELLMAN,POINT (-87.70216290437963 41.87016771714874),3030 W ARTHINGTON ST,60612,District,ES,"PK, K, 1, 2, 3, 4, 5, 6, 7, 8",41.870167718,-87.7021629044,1(773)534-6602,5,EAST GARFIELD PARK,28,Jason C. Ervin
609926,ISP,FRANKLIN,POINT (-87.63551281031579 41.90659998946294),225 W EVERGREEN AVE,60610,District,ES,"K, 1, 2, 3, 4, 5, 6, 7, 8",41.9065999903,-87.6355128103,1(773)534-8510,4,NEAR NORTH SIDE,27,"Walter Burnett, Jr."
609927,Network 11,FOSTER PARK,POINT (-87.66809931234333 41.73842547724147),8530 S WOOD ST,60620,District,ES,"PK, K, 1, 2, 3, 4, 5, 6, 7, 8",41.738425478,-87.6680993123,1(773)535-2725,11,AUBURN GRESHAM,21,"Howard B. Brookins, Jr."
609928,AUSL,FULLER,POINT (-87.61178404265375 41.81800340293327),4214 S ST LAWRENCE AVE,60653,District,ES,"PK, K, 1, 2, 3, 4, 5, 6, 7, 8",41.8180034037,-87.6117840426,1(773)535-1687,9,GRAND BOULEVARD,4,"William ""Will"" D. Burns"
609929,Network 11,FULTON,POINT (-87.66843588180264 41.797580270019274),5300 S HERMITAGE AVE,60609,District,ES,"PK, K, 1, 2, 3, 4, 5, 6, 7, 8",41.7975802708,-87.6684358818,1(773)535-9000,11,NEW CITY,16,JoAnn Thompson
609930,Network 4,FUNSTON,POINT (-87.71689166480509 41.91761651373583),2010 N CENTRAL PARK AVE,60647,District,ES,"PK, K, 1, 2, 3, 4, 5, 6, 7, 8",41.9176165146,-87.7168916648,1(773)534-4125,4,LOGAN SQUARE,26,Roberto Maldonado
609933,Network 2,GALE,POINT (-87.67193897621 42.02109055717383),1631 W JONQUIL TER,60626,District,ES,"PK, K, 1, 2, 3, 4, 5, 6, 7, 8",42.021090558,-87.6719389762,1(773)534-2100,2,ROGERS PARK,49,Joe A. Moore
609935,Network 13,GALLISTEL,POINT (-87.53517530585388 41.70680099884353),10347 S EWING AVE,60617,District,ES,"PK, K, 1, 2, 3, 4, 5, 6, 7, 8",41.7068009996,-87.5351753058,1(773)535-6540,13,EAST SIDE,10,Susie Sadlowski Garza
609937,ISP,GARVY,POINT (-87.79623511407263 41.976351663260274),5225 N OAK PARK AVE,60656,District,ES,"K, 1, 2, 3, 4, 5, 6, 7, 8",41.9763516641,-87.7962351141,1(773)534-1185,1,NORWOOD PARK,41,Mary O'Connor
609938,Network 7,GARY,POINT (-87.71869663582645 41.83706515120611),3740 W 31ST ST,60623,District,ES,"PK, 3, 4, 5, 6, 7, 8",41.837065152,-87.7186966358,1(773)534-1455,7,SOUTH LAWNDALE,22,Ricardo Munoz
609939,ISP,GILLESPIE,POINT (-87.62371943750111 41.72533227855046),9301 S STATE ST,60619,District,ES,"PK, K, 1, 2, 3, 4, 5, 6, 7, 8",41.7253322793,-87.6237194375,1(773)535-5065,12,ROSELAND,9,Anthony A. Beale
609941,Network 11,RANDOLPH,POINT (-87.67596551356017 41.76061412672374),7316 S HOYNE AVE,60636,District,ES,"PK, K, 1, 2, 3, 4, 5, 6, 7, 8",41.7606141275,-87.6759655136,1(773)535-9015,11,WEST ENGLEWOOD,17,Latasha R. Thomas
609942,Network 4,GOETHE,POINT (-87.69289969583106 41.9228310066053),2236 N ROCKWELL ST,60647,District,ES,"PK, K, 1, 2, 3, 4, 5, 6, 7, 8",41.9228310074,-87.6928996958,1(773)534-4135,4,LOGAN SQUARE,1,Proco (Joe) Moreno III
609943,Network 13,OWENS,POINT (-87.6225456606333 41.670617539510694),12302 S STATE ST,60628,District,ES,"PK, K, 1, 2, 3, 4, 5, 6, 7, 8",41.6706175403,-87.6225456606,1(773)535-5475,13,WEST PULLMAN,9,Anthony A. Beale
609944,ISP,GRISSOM,POINT (-87.55330671029182 41.66248099818303),12810 S ESCANABA AVE,60633,District,ES,"PK, K, 1, 2, 3, 4, 5, 6, 7, 8",41.662480999,-87.5533067103,1(773)535-5380,13,HEGEWISCH,10,Susie Sadlowski Garza
609945,Network 2,GOUDY,POINT (-87.65791249240219 41.975816529586815),5120 N WINTHROP AVE,60640,District,ES,"PK, K, 1, 2, 3, 4, 5, 6, 7, 8",41.9758165304,-87.6579124924,1(773)534-2480,2,UPTOWN,48,Harry Osterman
609947,Network 6,GRAHAM ES,POINT (-87.64334423562201 41.813303728919124),4436 S UNION AVE,60609,District,ES,"PK, K, 1, 2, 3, 4, 5, 6, 7, 8",41.8133037297,-87.6433442356,1(773)535-1308,6,NEW CITY,11,James A. Balcer
609949,Network 1,GRAY,POINT (-87.75711559859316 41.948763578738756),3730 N LARAMIE AVE,60641,District,ES,"PK, K, 1, 2, 3, 4, 5, 6, 7, 8",41.9487635796,-87.7571155986,1(773)534-3520,1,PORTAGE PARK,45,John Arena
609950,Network 7,ORTIZ DE DOMINGUEZ,POINT (-87.71719032015918 41.83879051932452),3000 S LAWNDALE AVE,60623,District,ES,"PK, K, 1, 2",41.8387905201,-87.7171903202,1(773)534-1600,7,SOUTH LAWNDALE,22,Ricardo Munoz
609951,ISP,ARIEL,POINT (-87.5975029309574 41.81117346166929),1119 E 46TH ST,60653,District,ES,"PK, K, 1, 2, 3, 4, 5, 6, 7, 8",41.8111734625,-87.5975029309,1(773)535-1996,9,KENWOOD,4,"William ""Will"" D. Burns"
609952,Network 8,GREENE,POINT (-87.67149236962507 41.829669280594075),3525 S HONORE ST,60609,District,ES,"PK, K, 1, 2, 3, 4, 5",41.8296692814,-87.6714923696,1(773)535-4560,8,MCKINLEY PARK,12,George A. Cardenas
609954,Network 5,GREGORY,POINT (-87.71866612901917 41.870742161904005),3715 W POLK ST,60624,District,ES,"PK, K, 1, 2, 3, 4, 5, 6, 7, 8",41.8707421627,-87.718666129,1(773)534-6820,5,EAST GARFIELD PARK,24,Michael D. Chandler
609955,AUSL,GRESHAM,POINT (-87.6450252374513 41.73892015701293),8524 S GREEN ST,60620,District,ES,"PK, K, 1, 2, 3, 4, 5, 6, 7, 8",41.7389201578,-87.6450252374,1(773)535-3350,11,AUBURN GRESHAM,21,"Howard B. Brookins, Jr."
609956,Network 10,GRIMES,POINT (-87.75880329372156 41.775464260680124),5450 W 64TH PL,60638,District,ES,"PK, K, 1, 2, 3, 4, 5, 6, 7, 8",41.7754642615,-87.7588032937,1(773)535-2364,10,CLEARING,13,Marty Quinn
609958,ISP,GUNSAULUS,POINT (-87.69936418519978 41.81300736946093),4420 S SACRAMENTO AVE,60632,District,ES,"PK, K, 1, 2, 3, 4, 5, 6, 7, 8",41.8130073703,-87.6993641852,1(773)535-7215,8,BRIGHTON PARK,15,Raymond Lopez
609959,Network 6,HAINES,POINT (-87.63380633095656 41.849958315448625),247 W 23RD PL,60616,District,ES,"PK, K, 1, 2, 3, 4, 5, 6, 7, 8",41.8499583163,-87.6338063309,1(773)534-9200,6,ARMOUR SQUARE,25,Daniel S. Solis
609960,Network 10,HALE,POINT (-87.7765787090829 41.78019173126069),6140 S MELVINA AVE,60638,District,ES,"PK, K, 1, 2, 3, 4, 5, 6, 7, 8",41.7801917321,-87.7765787091,1(773)535-2265,10,CLEARING,13,Marty Quinn
609961,Network 12,NINOS HEROES,POINT (-87.55186171886463 41.74375308254673),8344 S COMMERCIAL AVE,60617,District,ES,"PK, K, 1, 2, 3, 4, 5, 6, 7, 8",41.7437530833,-87.5518617189,1(773)535-6694,12,SOUTH CHICAGO,7,Gregory Mitchell
609963,Network 4,HAMILTON,POINT (-87.67086537303385 41.9452196541829),1650 W CORNELIA AVE,60657,District,ES,"PK, K, 1, 2, 3, 4, 5, 6, 7, 8",41.945219655,-87.670865373,1(773)534-5484,4,LAKE VIEW,47,Ameya Pawar
609964,Network 8,HAMLINE,POINT (-87.66117465983926 41.807241557294766),4747 S BISHOP ST,60609,District,ES,"PK, K, 1, 2, 3, 4, 5, 6, 7, 8",41.8072415581,-87.6611746598,1(773)535-4565,8,NEW CITY,20,Willie B. Cochran
609966,Network 7,HAMMOND,POINT (-87.69624330091553 41.852719134125216),2819 W 21ST PL,60623,District,ES,"PK, K, 1, 2, 3, 4, 5, 6, 7, 8",41.8527191349,-87.6962433009,1(773)535-4580,7,SOUTH LAWNDALE,12,George A. Cardenas
609967,Network 7,FINKL,POINT (-87.68566784266554 41.84921490516214),2332 S WESTERN AVE,60608,District,ES,"PK, K, 1, 2, 3, 4, 5, 6, 7, 8",41.849214906,-87.6856678427,1(773)535-5850,7,LOWER WEST SIDE,25,Daniel S. Solis
609968,Network 4,MCAULIFFE,POINT (-87.72393113204004 41.91481634101467),1841 N SPRINGFIELD AVE,60647,District,ES,"PK, K, 1, 2, 3, 4, 5, 6, 7, 8",41.9148163418,-87.723931132,1(773)534-4400,4,HERMOSA,26,Roberto Maldonado
609969,Network 9,HARTE,POINT (-87.58685459669739 41.793447242937695),1556 E 56TH ST,60637,District,ES,"PK, K, 1, 2, 3, 4, 5, 6, 7, 8",41.7934472437,-87.5868545967,1(773)535-0870,9,HYDE PARK,5,Leslie A. Hairston
609971,AUSL,HARVARD,POINT (-87.63273687422281 41.757340541424945),7525 S HARVARD,60620,District,ES,"PK, K, 1, 2, 3, 4, 5, 6, 7, 8",41.7573405422,-87.6327368742,1(773)535-3045,11,GREATER GRAND CROSSING,6,Roderick T. Sawyer
609972,Network 1,HAUGAN,POINT (-87.72312803497978 41.96402870839728),4540 N HAMLIN AVE,60625,District,ES,"PK, K, 1, 2, 3, 4, 5, 6",41.9640287092,-87.723128035,1(773)534-5040,1,ALBANY PARK,35,Rey Colon
609973,ISP,ZAPATA,POINT (-87.73431332380997 41.841393803375034),2728 S KOSTNER AVE,60623,District,ES,"PK, K, 1, 2, 3, 4, 5, 6, 7, 8",41.8413938042,-87.7343133238,1(773)534-1390,7,SOUTH LAWNDALE,22,Ricardo Munoz
609974,Network 4,HAWTHORNE,POINT (-87.65770887713292 41.9422754880435),3319 N CLIFTON AVE,60657,District,ES,"K, 1, 2, 3, 4, 5, 6, 7, 8",41.9422754889,-87.6577088771,1(773)534-5550,4,LAKE VIEW,44,Thomas Tunney
609975,Network 3,HAY,POINT (-87.75581325276387 41.89917135484533),1018 N LARAMIE AVE,60651,District,ES,"PK, K, 1, 2, 3, 4, 5, 6, 7, 8",41.8991713557,-87.7558132528,1(773)534-6000,3,AUSTIN,37,Emma M. Mitts
609976,Network 2,HAYT,POINT (-87.6685037746682 41.9945408856925),1518 W GRANVILLE AVE,60660,District,ES,"PK, K, 1, 2, 3, 4, 5, 6, 7, 8",41.9945408865,-87.6685037747,1(773)534-2040,2,EDGEWATER,48,Harry Osterman
609977,Network 9,WOODLAWN,POINT (-87.59439199560451 41.773365531535546),6657 S KIMBARK AVE,60637,District,ES,"PK, K, 1, 2, 3, 4, 5, 6",41.7733655323,-87.5943919956,1(773)535-0801,9,WOODLAWN,5,Leslie A. Hairston
609978,Network 13,SMITH,POINT (-87.60466040818855 41.707557616833554),744 E 103RD ST,60628,District,ES,"PK, K, 1, 2, 3, 4, 5, 6, 7, 8",41.7075576176,-87.6046604082,1(773)535-5689,13,PULLMAN,8,Michelle A. Harris
609979,Network 6,HEALY,POINT (-87.64034074985236 41.83959485551953),3010 S PARNELL AVE,60616,District,ES,"PK, K, 1, 2, 3, 4, 5, 6, 7, 8",41.8395948563,-87.6403407498,1(773)534-9190,6,BRIDGEPORT,11,James A. Balcer
609981,Network 10,HEARST,POINT (-87.7457260568699 41.80817499924241),4640 S LAMON AVE,60638,District,ES,"PK, K, 1, 2, 3, 4, 5, 6, 7, 8",41.808175,-87.7457260569,1(773)535-2376,10,GARFIELD RIDGE,22,Ricardo Munoz
609983,Network 8,HEDGES,POINT (-87.67332725897988 41.80711213143929),4747 S WINCHESTER AVE,60609,District,ES,"PK, K, 1, 2, 3, 4, 5, 6, 7, 8",41.8071121322,-87.673327259,1(773)535-7360,8,NEW CITY,15,Raymond Lopez
609985,Network 5,HEFFERAN,POINT (-87.73580189345245 41.87866464687076),4409 W WILCOX ST,60624,District,ES,"PK, K, 1, 2, 3, 4, 5, 6, 7, 8",41.8786646477,-87.7358018934,1(773)534-6192,5,WEST GARFIELD PARK,28,Jason C. Ervin
609986,Network 11,HENDERSON,POINT (-87.67188730720532 41.79059128647526),5650 S WOLCOTT AVE,60636,District,ES,"PK, K, 1, 2, 3, 4, 5, 6, 7, 8",41.7905912873,-87.6718873072,1(773)535-9080,11,WEST ENGLEWOOD,15,Raymond Lopez
609987,Network 9,HENDRICKS,POINT (-87.63366447727905 41.815787750861396),4316 S PRINCETON AVE,60609,District,ES,"PK, K, 1, 2, 3, 4, 5, 6, 7, 8",41.8157877517,-87.6336644773,1(773)535-1696,9,FULLER PARK,3,Patricia R. Dowell
609988,Network 1,HENRY,POINT (-87.71563237170022 41.95898879701257),4250 N SAINT LOUIS AVE,60618,District,ES,"PK, K, 1, 2, 3, 4, 5, 6",41.9589887978,-87.7156323717,1(773)534-5060,1,IRVING PARK,35,Rey Colon
609990,ISP,SOUTH LOOP,POINT (-87.62861500383094 41.86687450538593),1212 S PLYMOUTH CT,60605,District,ES,"K, 1, 2, 3, 4, 5, 6, 7, 8",41.8668745062,-87.6286150038,1(773)534-8690,6,NEAR SOUTH SIDE,3,Patricia R. Dowell
609991,AUSL,HERZL,POINT (-87.71899385437372 41.862081296189544),3711 W DOUGLAS BLVD,60623,District,ES,"PK, K, 1, 2, 3, 4, 5, 6, 7, 8",41.862081297,-87.7189938544,1(773)534-1480,5,NORTH LAWNDALE,24,Michael D. Chandler
609993,Network 8,LARA,POINT (-87.67218159330169 41.80977029629537),4619 S WOLCOTT AVE,60609,District,ES,"PK, K, 1, 2, 3, 4, 5, 6, 7, 8",41.8097702971,-87.6721815933,1(773)535-4389,8,NEW CITY,15,Raymond Lopez
609994,Network 1,HIBBARD,POINT (-87.71036161379189 41.97033523440857),3244 W AINSLIE ST,60625,District,ES,"PK, K, 1, 2, 3, 4, 5, 6",41.9703352352,-87.7103616138,1(773)534-5191,1,ALBANY PARK,33,Deborah Mell
609995,Network 1,HITCH,POINT (-87.77912305214302 41.98367169519542),5625 N MCVICKER AVE,60646,District,ES,"PK, K, 1, 2, 3, 4, 5, 6, 7, 8",41.983671696,-87.7791230521,1(773)534-1189,1,NORWOOD PARK,45,John Arena
609996,Network 6,HOLDEN,POINT (-87.65379166831435 41.838027387031694),1104 W 31ST ST,60608,District,ES,"PK, K, 1, 2, 3, 4, 5, 6, 7, 8",41.8380273878,-87.6537916683,1(773)535-7200,6,BRIDGEPORT,11,James A. Balcer
609997,Network 11,HOLMES,POINT (-87.64979535548208 41.79378764864115),955 W GARFIELD BLVD,60621,District,ES,"PK, K, 1, 2, 3, 4, 5, 6, 7, 8",41.7937876494,-87.6497953555,1(773)535-9025,11,ENGLEWOOD,16,JoAnn Thompson
610000,AUSL,HOWE,POINT (-87.75939838514245 41.89361221058601),720 N LOREL AVE,60644,District,ES,"PK, K, 1, 2, 3, 4, 5, 6, 7, 8",41.8936122114,-87.7593983851,1(773)534-6060,3,AUSTIN,37,Emma M. Mitts
610002,Network 12,HOYNE,POINT (-87.5682281016789 41.73333775178664),8905 S CRANDON AVE,60617,District,ES,"K, 1, 2, 3, 4, 5, 6, 7, 8",41.7333377526,-87.5682281017,1(773)535-6425,12,CALUMET HEIGHTS,7,Gregory Mitchell
610003,Network 11,CUFFE,POINT (-87.6536334470717 41.74245162654451),8324 S RACINE AVE,60620,District,ES,"PK, K, 1, 2, 3, 4, 5, 6, 7, 8",41.7424516273,-87.6536334471,1(773)535-8250,11,AUBURN GRESHAM,21,"Howard B. Brookins, Jr."
610004,Network 13,CULLEN,POINT (-87.611244458428 41.70033514086694),10650 S EBERHART AVE,60628,District,ES,"K, 1, 2, 3, 4, 5, 6, 7, 8",41.7003351416,-87.6112444584,1(773)535-5375,13,ROSELAND,9,Anthony A. Beale
610005,Network 5,HUGHES C,POINT (-87.73177738714124 41.86051773774005),4247 W 15TH ST,60623,District,ES,"PK, K, 1, 2, 3, 4, 5, 6, 7, 8",41.8605177386,-87.7317773871,1(773)534-1762,5,NORTH LAWNDALE,24,Michael D. Chandler
610006,Network 10,HURLEY,POINT (-87.71954083263259 41.76678528121033),3849 W 69TH PL,60629,District,ES,"PK, K, 1, 2, 3, 4, 5, 6, 7, 8",41.766785282,-87.7195408326,1(773)535-2068,10,WEST LAWN,13,Marty Quinn
610009,Network 6,GALILEO,POINT (-87.65336555308967 41.871254823914555),820 S CARPENTER ST,60607,District,ES,"K, 1, 2, 3, 4, 5, 6, 7, 8",41.8712548247,-87.6533655531,1(773)534-7070,6,NEAR WEST SIDE,25,Daniel S. Solis
610010,Network 4,JAHN,POINT (-87.67580971870883 41.93924749646116),3149 N WOLCOTT AVE,60657,District,ES,"PK, K, 1, 2, 3, 4, 5, 6, 7, 8",41.9392474973,-87.6758097187,1(773)534-5500,4,NORTH CENTER,32,Scott Waguespack
610011,Network 2,JAMIESON,POINT (-87.70052941984592 41.98464077590956),5650 N MOZART ST,60659,District,ES,"PK, K, 1, 2, 3, 4, 5, 6, 7, 8",41.9846407767,-87.7005294198,1(773)534-2395,2,WEST RIDGE,40,Patrick O'Connor
610012,Network 6,JENNER,POINT (-87.64105555968784 41.902054841191266),1119 N CLEVELAND AVE,60610,District,ES,"PK, K, 1, 2, 3, 4, 5, 6, 7, 8",41.902054842,-87.6410555597,1(773)534-8440,6,NEAR NORTH SIDE,27,"Walter Burnett, Jr."
610013,Network 7,PILSEN,POINT (-87.66220943343347 41.858848875127656),1420 W 17TH ST,60608,District,ES,"PK, K, 1, 2, 3, 4, 5, 6, 7, 8",41.8588488759,-87.6622094334,1(773)534-7675,7,LOWER WEST SIDE,25,Daniel S. Solis
610015,Network 7,JUNGMAN,POINT (-87.65230159448453 41.85806477637944),1746 S MILLER ST,60608,District,ES,"PK, K, 1, 2, 3, 4, 5, 6, 7, 8",41.8580647772,-87.6523015945,1(773)534-7375,7,LOWER WEST SIDE,25,Daniel S. Solis
610016,Network 10,KELLOGG,POINT (-87.67723250603343 41.72526343941196),9241 S LEAVITT ST,60643,District,ES,"K, 1, 2, 3, 4, 5, 6, 7, 8",41.7252634402,-87.677232506,1(773)535-2590,10,BEVERLY,19,Matthew J. O'Shea
610017,Network 7,SAUCEDO,POINT (-87.69731553741838 41.84794071549516),2850 W 24TH BLVD,60623,District,ES,"PK, K, 1, 2, 3, 4, 5, 6, 7, 8",41.8479407163,-87.6973155374,1(773)534-1770,7,SOUTH LAWNDALE,12,George A. Cardenas
610019,Network 11,KERSHAW,POINT (-87.64089202544183 41.776452809875806),6450 S LOWE AVE,60621,District,ES,"PK, K, 1, 2, 3, 4, 5, 6, 7, 8",41.7764528107,-87.6408920254,1(773)535-3050,11,ENGLEWOOD,20,Willie B. Cochran
610021,AUSL,CASALS,POINT (-87.71423364672151 41.90450276371701),3501 W POTOMAC AVE,60651,District,ES,"PK, K, 1, 2, 3, 4, 5, 6, 7, 8",41.9045027645,-87.7142336467,1(773)534-4444,5,HUMBOLDT PARK,26,Roberto Maldonado
610022,Network 2,KILMER,POINT (-87.6682224666446 42.00364046247936),6700 N GREENVIEW AVE,60626,District,ES,"PK, K, 1, 2, 3, 4, 5, 6, 7, 8",42.0036404633,-87.6682224666,1(773)534-2115,2,ROGERS PARK,49,Joe A. Moore
610024,ISP,CARDENAS,POINT (-87.71601740734381 41.84848776988237),2345 S MILLARD AVE,60623,District,ES,"PK, K, 1, 2, 3",41.8484877707,-87.7160174073,1(773)534-1465,7,SOUTH LAWNDALE,22,Ricardo Munoz
610026,ISP,KINZIE,POINT (-87.77948259998581 41.78996463373201),5625 S MOBILE AVE,60638,District,ES,"PK, K, 1, 2, 3, 4, 5, 6, 7, 8",41.7899646345,-87.7794826,1(773)535-2425,10,GARFIELD RIDGE,13,Marty Quinn
610027,Network 11,KIPLING,POINT (-87.63952072119606 41.72362690530607),9351 S LOWE AVE,60620,District,ES,"K, 1, 2, 3, 4, 5, 6, 7, 8",41.7236269061,-87.6395207212,1(773)535-3151,11,WASHINGTON HEIGHTS,21,"Howard B. Brookins, Jr."
610029,Network 6,LOZANO,POINT (-87.66509327199046 41.90888612755934),1501 N GREENVIEW AVE,60642,District,ES,"PK, K, 1, 2, 3, 4, 5, 6, 7, 8",41.9088861284,-87.665093272,1(773)534-4750,6,WEST TOWN,2,Bob Fioretti
610030,Network 9,KOZMINSKI,POINT (-87.60248144781133 41.79800187755761),936 E 54TH ST,60615,District,ES,"PK, K, 1, 2, 3, 4, 5, 6, 7, 8",41.7980018784,-87.6024814478,1(773)535-0980,9,HYDE PARK,5,Leslie A. Hairston
610032,Network 11,GREEN,POINT (-87.65250013920128 41.7192919470327),1150 W 96TH ST,60643,District,ES,"PK, K, 1, 2, 3, 4, 5, 6, 7, 8",41.7192919478,-87.6525001392,1(773)535-2575,11,WASHINGTON HEIGHTS,21,"Howard B. Brookins, Jr."
610033,Network 4,LASALLE,POINT (-87.6375648635131 41.913899532240116),1734 N ORLEANS ST,60614,District,ES,"K, 1, 2, 3, 4, 5, 6, 7, 8",41.9138995331,-87.6375648635,1(773)534-8470,4,LINCOLN PARK,43,Michele Smith
610034,Network 5,LAWNDALE,POINT (-87.71295678680646 41.8629600240244),3500 W DOUGLAS BLVD,60623,District,ES,"PK, K, 1, 2, 3, 4, 5, 6, 7, 8",41.8629600248,-87.7129567868,1(773)534-1635,5,NORTH LAWNDALE,24,Michael D. Chandler
610036,AUSL,LEWIS,POINT (-87.75454995058135 41.90682604943746),1431 N LEAMINGTON AVE,60651,District,ES,"PK, K, 1, 2, 3, 4, 5, 6, 7, 8",41.9068260503,-87.7545499506,1(773)534-3060,3,AUSTIN,37,Emma M. Mitts
610037,Network 11,LIBBY,POINT (-87.65993281795551 41.7976848317794),5300 S LOOMIS BLVD,60609,District,ES,"K, 1, 2, 3, 4, 5, 6, 7, 8",41.7976848326,-87.6599328179,1(773)535-9050,11,NEW CITY,20,Willie B. Cochran
610038,Network 4,LINCOLN,POINT (-87.64449730395249 41.92452481554802),615 W KEMPER PL,60614,District,ES,"K, 1, 2, 3, 4, 5, 6, 7, 8",41.9245248164,-87.6444973039,1(773)534-5720,4,LINCOLN PARK,43,Michele Smith
610039,ISP,VON LINNE,POINT (-87.70263467430392 41.94000927950655),3221 N SACRAMENTO AVE,60618,District,ES,"PK, K, 1, 2, 3, 4, 5, 6, 7, 8",41.9400092803,-87.7026346743,1(773)534-5262,4,AVONDALE,33,Deborah Mell
610040,ISP,LLOYD,POINT (-87.74851501351564 41.91881409549009),2103 N LAMON AVE,60639,District,ES,"PK, K, 1, 2, 3, 4, 5",41.9188140963,-87.7485150135,1(773)534-3070,3,BELMONT CRAGIN,36,Nicholas Sposato
610041,Network 3,LOCKE J,POINT (-87.79560407108775 41.93176235386544),2828 N OAK PARK AVE,60634,District,ES,"PK, K, 1, 2, 3, 4, 5, 6, 7, 8",41.9317623547,-87.7956040711,1(773)534-3300,3,MONTCLARE,36,Nicholas Sposato
610043,Network 3,LOVETT,POINT (-87.7839188468446 41.91271802632649),6333 W BLOOMINGDALE AVE,60639,District,ES,"PK, K, 1, 2, 3, 4, 5, 6, 7, 8",41.9127180271,-87.7839188468,1(773)534-3130,3,AUSTIN,29,Chris Taliaferro
610044,Network 5,LOWELL,POINT (-87.71021700196137 41.906519590642205),3320 W HIRSCH ST,60651,District,ES,"PK, K, 1, 2, 3, 4, 5, 6, 7, 8",41.9065195915,-87.710217002,1(773)534-4300,5,HUMBOLDT PARK,26,Roberto Maldonado
610046,Network 3,LYON,POINT (-87.77717419891789 41.93419216195367),2941 N MCVICKER AVE,60634,District,ES,"K, 1, 2, 3, 4, 5, 6, 7, 8",41.9341921628,-87.7771741989,1(773)534-3120,3,BELMONT CRAGIN,30,Ariel E. Reboyras
610047,Network 12,MADISON,POINT (-87.59071239557854 41.7595480593299),7433 S DORCHESTER AVE,60619,District,ES,"PK, K, 1, 2, 3, 4, 5, 6, 7, 8",41.7595480601,-87.5907123956,1(773)535-0551,12,SOUTH SHORE,8,Michelle A. Harris
610048,Network 4,MANIERRE,POINT (-87.63982651349252 41.90824688157034),1420 N HUDSON AVE,60610,District,ES,"PK, K, 1, 2, 3, 4, 5, 6, 7, 8",41.9082468824,-87.6398265135,1(773)534-8456,4,NEAR NORTH SIDE,27,"Walter Burnett, Jr."
610051,Network 3,NORTHWEST,POINT (-87.7579205092878 41.92061097049243),5252 W PALMER ST,60639,District,ES,"6, 7, 8",41.9206109713,-87.7579205093,1(773)534-3250,3,BELMONT CRAGIN,36,Nicholas Sposato
610052,Network 12,MANN,POINT (-87.57481563733104 41.74827412688152),8050 S CHAPPEL AVE,60617,District,ES,"PK, K, 1, 2, 3, 4, 5, 6, 7, 8",41.7482741277,-87.5748156373,1(773)535-6640,12,SOUTH CHICAGO,8,Michelle A. Harris
610053,AUSL,MARQUETTE,POINT (-87.69702979923206 41.77388107943701),6550 S RICHMOND ST,60629,District,ES,"PK, K, 1, 2, 3, 4, 5, 6, 7, 8",41.7738810802,-87.6970297992,1(773)535-9260,10,CHICAGO LAWN,17,Latasha R. Thomas
610054,Network 13,MARSH,POINT (-87.552483426299 41.71658801422081),9822 S EXCHANGE AVE,60617,District,ES,"PK, K, 1, 2, 3, 4, 5, 6, 7, 8",41.716588015,-87.5524834263,1(773)535-6430,13,SOUTH DEERING,10,Susie Sadlowski Garza
610055,Network 5,FARADAY,POINT (-87.70809202044725 41.87971359062364),3250 W MONROE ST,60624,District,ES,"PK, K, 1, 2, 3, 4, 5, 6, 7, 8",41.8797135914,-87.7080920204,1(773)534-6670,5,EAST GARFIELD PARK,28,Jason C. Ervin
610056,Network 5,MASON,POINT (-87.73167243317674 41.85686370029008),4217 W 18TH ST,60623,District,ES,"PK, K, 1, 2, 3, 4, 5, 6, 7, 8",41.8568637011,-87.7316724332,1(773)534-1530,5,NORTH LAWNDALE,24,Michael D. Chandler
610057,Network 10,FAIRFIELD,POINT (-87.69211506377934 41.780903897781826),6201 S FAIRFIELD AVE,60629,District,ES,"PK, K, 1, 2, 3, 4, 5, 6, 7, 8",41.7809038986,-87.6921150638,1(773)535-9500,10,CHICAGO LAWN,16,JoAnn Thompson
610059,Network 4,MAYER,POINT (-87.6572874390699 41.9232035215517),2250 N CLIFTON AVE,60614,District,ES,"PK, K, 1, 2, 3, 4, 5, 6, 7, 8",41.9232035224,-87.6572874391,1(773)534-5535,4,LINCOLN PARK,43,Michele Smith
610060,Network 6,JACKSON A,POINT (-87.66098467185456 41.87429963784802),1340 W HARRISON ST,60607,District,ES,"K, 1, 2, 3, 4, 5, 6, 7, 8",41.8742996387,-87.6609846718,1(773)534-7000,6,NEAR WEST SIDE,28,Jason C. Ervin
610062,ISP,MCCLELLAN,POINT (-87.64110257532762 41.82999286271181),3527 S WALLACE ST,60609,District,ES,"PK, K, 1, 2, 3, 4, 5, 6, 7, 8",41.8299928635,-87.6411025753,1(773)535-1732,6,BRIDGEPORT,11,James A. Balcer
610063,Network 7,MCCORMICK,POINT (-87.70630009267421 41.842267165253034),2712 S SAWYER AVE,60623,District,ES,"PK, K, 1, 2, 3, 4, 5",41.8422671661,-87.7063000927,1(773)535-7252,7,SOUTH LAWNDALE,22,Ricardo Munoz
610065,Network 9,TILL,POINT (-87.60935721102054 41.77542384358335),6543 S CHAMPLAIN AVE,60637,District,ES,"PK, K, 1, 2, 3, 4, 5, 6, 7, 8",41.7754238444,-87.609357211,1(773)535-0570,9,WOODLAWN,20,Willie B. Cochran
610066,Network 12,MCDADE,POINT (-87.61921444366602 41.73454990758765),8801 S INDIANA AVE,60619,District,ES,"K, 1, 2, 3, 4, 5, 6",41.7345499084,-87.6192144437,1(773)535-3669,12,CHATHAM,9,Anthony A. Beale
610067,Network 10,MCKAY,POINT (-87.69178650208616 41.76814276384329),6901 S FAIRFIELD AVE,60629,District,ES,"PK, K, 1, 2, 3, 4, 5, 6, 7, 8",41.7681427646,-87.6917865021,1(773)535-9340,10,CHICAGO LAWN,17,Latasha R. Thomas
610068,Network 3,HANSON PARK,POINT (-87.76151477061356 41.92395525728403),5411 W FULLERTON AVE,60639,District,ES,"PK, K, 1, 2, 3, 4, 5, 6, 7, 8",41.9239552581,-87.7615147706,1(773)534-3100,3,BELMONT CRAGIN,36,Nicholas Sposato
610070,Network 2,MCPHERSON,POINT (-87.67628825215505 41.967846866944384),4728 N WOLCOTT AVE,60640,District,ES,"PK, K, 1, 2, 3, 4, 5, 6, 7, 8",41.9678468678,-87.6762882521,1(773)534-2625,2,LINCOLN SQUARE,47,Ameya Pawar
610073,ISP,MITCHELL,POINT (-87.68318458636575 41.89208216526377),2233 W OHIO ST,60612,District,ES,"PK, K, 1, 2, 3, 4, 5, 6, 7, 8",41.8920821661,-87.6831845864,1(773)534-7655,5,WEST TOWN,26,Roberto Maldonado
610074,Network 4,MONROE,POINT (-87.71922375096231 41.92998860303459),3651 W SCHUBERT AVE,60647,District,ES,"PK, K, 1, 2, 3, 4, 5, 6, 7, 8",41.9299886039,-87.719223751,1(773)534-4155,4,LOGAN SQUARE,35,Rey Colon
610076,ISP,MOOS,POINT (-87.69694138617929 41.91250548308736),1711 N CALIFORNIA AVE,60647,District,ES,"PK, K, 1, 2, 3, 4, 5, 6, 7, 8",41.9125054839,-87.6969413862,1(773)534-4340,5,WEST TOWN,1,Proco (Joe) Moreno III
610077,Network 10,MORRILL,POINT (-87.68854925525291 41.78431328076809),6011 S ROCKWELL ST,60629,District,ES,"PK, K, 1, 2, 3, 4, 5, 6, 7, 8",41.7843132816,-87.6885492552,1(773)535-9288,10,CHICAGO LAWN,16,JoAnn Thompson
610078,Network 4,INTER-AMERICAN,POINT (-87.65157334215013 41.94900330015414),851 W WAVELAND AVE,60613,District,ES,"PK, K, 1, 2, 3, 4, 5, 6, 7, 8",41.949003301,-87.6515733421,1(773)534-5490,4,LAKE VIEW,44,Thomas Tunney
610081,Network 6,SHERIDAN,POINT (-87.64133980576402 41.84440015810834),533 W 27TH ST,60616,District,ES,"K, 1, 2, 3, 4, 5, 6, 7, 8",41.8444001589,-87.6413398058,1(773)534-9120,6,BRIDGEPORT,11,James A. Balcer
610082,ISP,MOUNT GREENWOOD,POINT (-87.70580994472903 41.6957338615494),10841 S HOMAN AVE,60655,District,ES,"K, 1, 2, 3, 4, 5, 6, 7, 8",41.6957338623,-87.7058099447,1(773)535-2786,10,MOUNT GREENWOOD,19,Matthew J. O'Shea
610083,Network 1,BEARD,POINT (-87.78963033157311 41.97012488233337),6445 W STRONG ST,60656,District,ES,"PK, K, 1, 2, 3",41.9701248832,-87.7896303316,1(773)534-1228,1,NORWOOD PARK,45,John Arena
610084,ISP,KELLER,POINT (-87.69727833700603 41.69717033376076),3020 W 108TH ST,60655,District,ES,"1, 2, 3, 4, 5, 6, 7, 8",41.6971703345,-87.697278337,1(773)535-2636,10,MOUNT GREENWOOD,19,Matthew J. O'Shea
610086,Network 13,MOUNT VERNON,POINT (-87.64765248687098 41.70195211636729),10540 S MORGAN ST,60643,District,ES,"PK, K, 1, 2, 3, 4, 5, 6, 7, 8",41.7019521171,-87.6476524869,1(773)535-2825,13,WASHINGTON HEIGHTS,34,Carrie M. Austin
610087,Network 10,BLAIR,POINT (-87.79060442456863 41.77655626926709),6751 W 63RD PL,60638,District,ES,"PK, K, 1, 2",41.7765562701,-87.7906044246,1(773)535-2076,10,CLEARING,23,Michael R. Zalewski
610088,Network 4,MOZART,POINT (-87.72188814467631 41.92090964906956),2200 N HAMLIN AVE,60647,District,ES,"PK, K, 1, 2, 3, 4, 5, 6, 7, 8",41.9209096499,-87.7218881447,1(773)534-4160,4,LOGAN SQUARE,35,Rey Colon
610089,Network 1,MURPHY,POINT (-87.7168318552293 41.9500777530905),3539 W GRACE ST,60618,District,ES,"PK, K, 1, 2, 3, 4, 5, 6, 7, 8",41.9500777539,-87.7168318552,1(773)534-5223,1,IRVING PARK,35,Rey Colon
610090,Network 9,MURRAY,POINT (-87.5933404053317 41.79853548435717),5335 S KENWOOD AVE,60615,District,ES,"K, 1, 2, 3, 4, 5, 6, 7, 8",41.7985354852,-87.5933404053,1(773)535-0585,9,HYDE PARK,4,"William ""Will"" D. Burns"
610091,Network 13,BROWN R,POINT (-87.638957725196 41.66487334928807),12607 S UNION AVE,60628,District,ES,"PK, K, 1, 2, 3, 4, 5, 6, 7, 8",41.6648733501,-87.6389577252,1(773)535-5385,13,WEST PULLMAN,9,Anthony A. Beale
610092,Network 3,NASH,POINT (-87.74793587821061 41.89180975019866),4837 W ERIE ST,60644,District,ES,"PK, K, 1, 2, 3, 4, 5, 6, 7, 8",41.891809751,-87.7479358782,1(773)534-6125,3,AUSTIN,37,Emma M. Mitts
610093,Network 12,NEIL,POINT (-87.62093345511654 41.738406594368776),8555 S MICHIGAN AVE,60619,District,ES,"PK, K, 1, 2, 3, 4, 5, 6, 7, 8",41.7384065952,-87.6209334551,1(773)535-3000,12,CHATHAM,6,Roderick T. Sawyer
610094,Network 4,NETTELHORST,POINT (-87.64456122231692 41.94163655405973),3252 N BROADWAY ST,60657,District,ES,"PK, K, 1, 2, 3, 4, 5, 6, 7, 8",41.9416365549,-87.6445612223,1(773)534-5810,4,LAKE VIEW,44,Thomas Tunney
610095,Network 4,NEWBERRY,POINT (-87.64599025179788 41.91394721710463),700 W WILLOW ST,60614,District,ES,"PK, K, 1, 2, 3, 4, 5, 6, 7, 8",41.9139472179,-87.6459902518,1(773)534-8000,4,LINCOLN PARK,43,Michele Smith
610096,ISP,NIGHTINGALE,POINT (-87.68913886417093 41.79771437860455),5250 S ROCKWELL ST,60632,District,ES,"PK, K, 1, 2, 3, 4, 5, 6, 7, 8",41.7977143794,-87.6891388642,1(773)535-9270,8,GAGE PARK,14,Edward M. Burke
610097,Network 4,NIXON,POINT (-87.73142009081249 41.91958145214497),2121 N KEELER AVE,60639,District,ES,"PK, K, 1, 2, 3, 4, 5, 6",41.919581453,-87.7314200908,1(773)534-4375,4,HERMOSA,35,Rey Colon
610098,ISP,NOBEL,POINT (-87.72995463177843 41.90615515234865),4127 W HIRSCH ST,60651,District,ES,"PK, K, 1, 2, 3, 4, 5, 6, 7, 8",41.9061551532,-87.7299546318,1(773)534-4365,5,HUMBOLDT PARK,26,Roberto Maldonado
610099,Network 1,NORWOOD PARK,POINT (-87.8029794402957 41.98815250593599),5900 N NINA AVE,60631,District,ES,"PK, K, 1, 2, 3, 4, 5, 6, 7, 8",41.9881525068,-87.8029794403,1(773)534-1198,1,NORWOOD PARK,41,Mary O'Connor
610100,Network 5,WEST PARK,POINT (-87.73244309565793 41.90690720506762),1425 N TRIPP AVE,60651,District,ES,"PK, K, 1, 2, 3, 4, 5, 6, 7, 8",41.9069072059,-87.7324430957,1(773)534-4940,5,HUMBOLDT PARK,26,Roberto Maldonado
610102,Network 11,OGLESBY,POINT (-87.64546949689873 41.754670062092764),7646 S GREEN ST,60620,District,ES,"PK, K, 1, 2, 3, 4, 5, 6, 7, 8",41.7546700629,-87.6454694969,1(773)535-3060,11,AUBURN GRESHAM,17,Latasha R. Thomas
610103,AUSL,OKEEFFE,POINT (-87.57280595498251 41.76860231188592),6940 S MERRILL AVE,60649,District,ES,"PK, K, 1, 2, 3, 4, 5, 6, 7, 8",41.7686023127,-87.572805955,1(773)535-0600,12,SOUTH SHORE,5,Leslie A. Hairston
610104,Network 1,ONAHAN,POINT (-87.79310825534886 41.99379034896786),6634 W RAVEN ST,60631,District,ES,"PK, K, 1, 2, 3, 4, 5, 6, 7, 8",41.9937903498,-87.7931082553,1(773)534-1180,1,NORWOOD PARK,41,Mary O'Connor
610105,Network 1,ORIOLE PARK,POINT (-87.8120540397679 41.97850137610472),5424 N OKETO AVE,60656,District,ES,"PK, K, 1, 2, 3, 4, 5, 6, 7, 8",41.9785013769,-87.8120540398,1(773)534-1201,1,NORWOOD PARK,41,Mary O'Connor
610106,AUSL,PICCOLO,POINT (-87.73126059628552 41.90013965538226),1040 N KEELER AVE,60651,District,ES,"PK, K, 1, 2, 3, 4, 5, 6, 7, 8",41.9001396562,-87.7312605963,1(773)534-4425,5,HUMBOLDT PARK,37,Emma M. Mitts
610107,Network 6,OTIS,POINT (-87.66542623591396 41.89180608125555),525 N ARMOUR ST,60642,District,ES,"PK, K, 1, 2, 3, 4, 5, 6, 7, 8",41.8918060821,-87.6654262359,1(773)534-7665,6,WEST TOWN,1,Proco (Joe) Moreno III
610108,Network 11,OTOOLE,POINT (-87.67486500006889 41.774571072845625),6550 S SEELEY AVE,60636,District,ES,"PK, K, 1, 2, 3, 4, 5, 6, 7, 8",41.7745710736,-87.6748650001,1(773)535-9040,11,WEST ENGLEWOOD,16,JoAnn Thompson
610109,Network 10,OWEN,POINT (-87.70574908777306 41.742849921345986),8247 S CHRISTIANA AVE,60652,District,ES,"K, 1, 2, 3, 4, 5, 6, 7, 8",41.7428499221,-87.7057490878,1(773)535-9330,10,ASHBURN,18,Lona Lane
610110,Network 9,WELLS ES,POINT (-87.61977966041285 41.827355266010585),249 E 37TH ST,60653,District,ES,"PK, K, 1, 2, 3, 4, 5, 6, 7, 8",41.8273552668,-87.6197796604,1(773)535-1204,9,DOUGLAS,3,Patricia R. Dowell
610111,Network 1,PALMER,POINT (-87.73921294544903 41.973289392402634),5051 N KENNETH AVE,60630,District,ES,"PK, K, 1, 2, 3, 4, 5, 6, 7, 8",41.9732893932,-87.7392129454,1(773)534-3704,1,ALBANY PARK,39,Margaret Laurino
610112,Network 11,PARKER,POINT (-87.63408585603759 41.77077979515438),6800 S STEWART AVE,60621,District,ES,"PK, K, 1, 2, 3, 4, 5, 6, 7, 8",41.7707797959,-87.634085856,1(773)535-3375,11,ENGLEWOOD,6,Roderick T. Sawyer
610115,Network 12,PARK MANOR,POINT (-87.61154559301644 41.76647654247946),7037 S RHODES AVE,60637,District,ES,"PK, K, 1, 2, 3, 4, 5, 6, 7, 8",41.7664765433,-87.611545593,1(773)535-3070,12,GREATER GRAND CROSSING,6,Roderick T. Sawyer
610116,Network 12,PARKSIDE,POINT (-87.58295438278273 41.76855518950886),6938 S EAST END AVE,60649,District,ES,"PK, K, 1, 2, 3, 4, 5, 6, 7, 8",41.7685551903,-87.5829543828,1(773)535-0940,12,SOUTH SHORE,5,Leslie A. Hairston
610117,ISP,PASTEUR,POINT (-87.73266645521085 41.78689537665073),5825 S KOSTNER AVE,60629,District,ES,"PK, K, 1, 2, 3, 4",41.7868953774,-87.7326664552,1(773)535-2270,8,WEST ELSDON,13,Marty Quinn
610120,ISP,PECK,POINT (-87.71921626107621 41.7878989699163),3826 W 58TH ST,60629,District,ES,"PK, K, 1, 2, 3, 4",41.7878989707,-87.7192162611,1(773)535-2450,8,WEST ELSDON,23,Michael R. Zalewski
610121,Network 6,IRVING,POINT (-87.68361565115903 41.87159549158413),749 S OAKLEY BLVD,60612,District,ES,"PK, K, 1, 2, 3, 4, 5, 6, 7, 8",41.8715954924,-87.6836156512,1(773)534-7295,6,NEAR WEST SIDE,28,Jason C. Ervin
610122,Network 2,PEIRCE,POINT (-87.66585003700392 41.98345579149934),1423 W BRYN MAWR AVE,60660,District,ES,"PK, K, 1, 2, 3, 4, 5, 6, 7, 8",41.9834557923,-87.665850037,1(773)534-2440,2,EDGEWATER,48,Harry Osterman
610123,Network 5,PENN,POINT (-87.7223855479275 41.85837241920013),1616 S AVERS AVE,60623,District,ES,"PK, K, 1, 2, 3, 4, 5, 6, 7, 8",41.85837242,-87.7223855479,1(773)534-1665,5,NORTH LAWNDALE,24,Michael D. Chandler
610124,Network 12,WASHINGTON H ES,POINT (-87.59625661668589 41.728534142083625),9130 S UNIVERSITY AVE,60619,District,ES,"PK, K, 1, 2, 3, 4, 5, 6, 7, 8",41.7285341429,-87.5962566167,1(773)535-6225,12,BURNSIDE,8,Michelle A. Harris
610125,Network 7,RUIZ,POINT (-87.68074453482734 41.8481009392156),2410 S LEAVITT ST,60608,District,ES,"PK, K, 1, 2, 3, 4, 5, 6, 7, 8",41.84810094,-87.6807445348,1(773)535-4825,7,LOWER WEST SIDE,25,Daniel S. Solis
610126,Network 9,PERSHING,POINT (-87.61833765367705 41.83652695312878),3200 S CALUMET AVE,60616,District,ES,"PK, K, 1, 2, 3, 4, 5, 6, 7, 8",41.8365269539,-87.6183376537,1(773)534-9272,9,DOUGLAS,4,"William ""Will"" D. Burns"
610127,Network 1,PETERSON,POINT (-87.71258257767514 41.98155713794655),5510 N CHRISTIANA AVE,60625,District,ES,"PK, K, 1, 2, 3, 4, 5, 6, 7, 8",41.9815571388,-87.7125825777,1(773)534-5070,1,NORTH PARK,39,Margaret Laurino
610128,Network 13,GARVEY,POINT (-87.64757716520475 41.70660285906506),10309 S MORGAN ST,60643,District,ES,"PK, K, 1, 2, 3, 4, 5, 6, 7, 8",41.7066028598,-87.6475771652,1(773)535-2763,13,WASHINGTON HEIGHTS,34,Carrie M. Austin
610129,Network 7,PICKARD,POINT (-87.68329074268618 41.85290039437196),2301 W 21ST PL,60608,District,ES,"PK, K, 1, 2, 3, 4, 5, 6, 7, 8",41.8529003952,-87.6832907427,1(773)535-7280,7,LOWER WEST SIDE,25,Daniel S. Solis
610130,Network 12,PIRIE,POINT (-87.6078911370603 41.74034023287613),650 E 85TH ST,60619,District,ES,"PK, K, 1, 2, 3, 4, 5, 6",41.7403402337,-87.6078911371,1(773)535-3435,12,CHATHAM,6,Roderick T. Sawyer
610131,Network 5,PLAMONDON,POINT (-87.69252575097397 41.860258898900426),2642 W 15TH PL,60608,District,ES,"K, 1, 2, 3, 4, 5, 6, 7, 8",41.8602588997,-87.692525751,1(773)534-1789,5,NORTH LAWNDALE,28,Jason C. Ervin
610132,Network 13,POE,POINT (-87.6064191734078 41.702630000818154),10538 S LANGLEY AVE,60628,District,ES,"K, 1, 2, 3, 4, 5, 6",41.7026300016,-87.6064191734,1(773)535-5525,13,PULLMAN,9,Anthony A. Beale
610133,Network 5,WARD L,POINT (-87.7187972930433 41.89323561010509),646 N LAWNDALE AVE,60624,District,ES,"PK, K, 1, 2, 3, 4, 5, 6, 7, 8",41.8932356109,-87.718797293,1(773)534-6440,5,HUMBOLDT PARK,27,"Walter Burnett, Jr."
610135,Network 1,PORTAGE PARK,POINT (-87.76100700351024 41.95698763658335),5330 W BERTEAU AVE,60641,District,ES,"PK, K, 1, 2, 3, 4, 5, 6, 7, 8",41.9569876374,-87.7610070035,1(773)534-3576,1,PORTAGE PARK,38,Timothy M. Cullerton
610136,Network 4,PRESCOTT,POINT (-87.66952750427116 41.92884109996936),1632 W WRIGHTWOOD AVE,60614,District,ES,"PK, K, 1, 2, 3, 4, 5, 6, 7, 8",41.9288411008,-87.6695275043,1(773)534-5505,4,LINCOLN PARK,32,Scott Waguespack
610137,Network 1,PRUSSING,POINT (-87.77241416628834 41.965619070854565),4650 N MENARD AVE,60630,District,ES,"PK, K, 1, 2, 3, 4, 5, 6, 7, 8",41.9656190717,-87.7724141663,1(773)534-3460,1,PORTAGE PARK,45,John Arena
610138,Network 6,PULASKI,POINT (-87.6838014306478 41.918486277743455),2230 W MCLEAN AVE,60647,District,ES,"PK, K, 1, 2, 3, 4, 5, 6, 7, 8",41.9184862786,-87.6838014306,1(773)534-4391,6,LOGAN SQUARE,32,Scott Waguespack
610139,Network 13,PULLMAN,POINT (-87.60943096743696 41.688819352190364),11311 S FORRESTVILLE AVE,60628,District,ES,"PK, K, 1, 2, 3, 4, 5, 6, 7, 8",41.688819353,-87.6094309674,1(773)535-5395,13,PULLMAN,9,Anthony A. Beale
610141,Network 2,RAVENSWOOD,POINT (-87.67092241919761 41.96074569176259),4332 N PAULINA ST,60613,District,ES,"PK, K, 1, 2, 3, 4, 5, 6, 7, 8",41.9607456926,-87.6709224192,1(773)534-5525,2,LAKE VIEW,47,Ameya Pawar
610142,Network 9,RAY,POINT (-87.59475207202254 41.79234788018115),5631 S KIMBARK AVE,60637,District,ES,"PK, K, 1, 2, 3, 4, 5, 6, 7, 8",41.792347881,-87.594752072,1(773)535-0970,9,HYDE PARK,5,Leslie A. Hairston
610143,Network 9,REAVIS,POINT (-87.60492543044663 41.80417379096906),834 E 50TH ST,60615,District,ES,"PK, K, 1, 2, 3, 4, 5, 6, 7, 8",41.8041737918,-87.6049254304,1(773)535-1060,9,KENWOOD,4,"William ""Will"" D. Burns"
610144,Network 4,REILLY,POINT (-87.71954054422258 41.941093989839835),3650 W SCHOOL ST,60618,District,ES,"PK, K, 1, 2, 3, 4, 5, 6, 7, 8",41.9410939907,-87.7195405442,1(773)534-5250,4,AVONDALE,30,Ariel E. Reboyras
610145,Network 1,REINBERG,POINT (-87.76898261876582 41.94301889519389),3425 N MAJOR AVE,60634,District,ES,"PK, K, 1, 2, 3, 4, 5, 6, 7, 8",41.943018896,-87.7689826188,1(773)534-3465,1,PORTAGE PARK,36,Nicholas Sposato
610146,Network 12,REVERE,POINT (-87.60017682328274 41.76419586431344),1010 E 72ND ST,60619,District,ES,"PK, K, 1, 2, 3, 4, 5, 6, 7, 8",41.7641958651,-87.6001768233,1(773)535-0618,12,GREATER GRAND CROSSING,5,Leslie A. Hairston
610147,Network 2,ROGERS,POINT (-87.69718539374834 42.01526504556588),7345 N WASHTENAW AVE,60645,District,ES,"PK, K, 1, 2, 3, 4, 5, 6, 7, 8",42.0152650464,-87.6971853937,1(773)534-2125,2,WEST RIDGE,50,Debra L. Silverstein
610148,ISP,CHAVEZ,POINT (-87.66603693425228 41.80714283064575),4747 S MARSHFIELD AVE,60609,District,ES,"PK, K, 1, 2, 3, 4, 5, 6, 7, 8",41.8071428314,-87.6660369342,1(773)535-4600,8,NEW CITY,20,Willie B. Cochran
610152,Network 12,RUGGLES,POINT (-87.61806644739089 41.751945575252385),7831 S PRAIRIE AVE,60619,District,ES,"PK, K, 1, 2, 3, 4, 5, 6, 7, 8",41.751945576,-87.6180664474,1(773)535-3085,12,GREATER GRAND CROSSING,6,Roderick T. Sawyer
610153,Network 11,RYDER,POINT (-87.63884270034876 41.73537938937342),8716 S WALLACE ST,60620,District,ES,"PK, K, 1, 2, 3, 4, 5, 6, 7, 8",41.7353793902,-87.6388427003,1(773)535-3843,11,AUBURN GRESHAM,21,"Howard B. Brookins, Jr."
610155,Network 1,SAUGANASH,POINT (-87.74595144444002 41.99116924566341),6040 N KILPATRICK AVE,60646,District,ES,"K, 1, 2, 3, 4, 5, 6, 7, 8",41.9911692465,-87.7459514444,1(773)534-3470,1,FOREST GLEN,39,Margaret Laurino
610157,Network 8,SAWYER,POINT (-87.70500578054565 41.79749820232971),5248 S SAWYER AVE,60632,District,ES,"K, 1, 2, 3, 4, 5, 6, 7, 8",41.7974982031,-87.7050057805,1(773)535-0440,8,GAGE PARK,14,Edward M. Burke
610158,Network 3,SAYRE,POINT (-87.79872070511777 41.91415062927054),1850 N NEWLAND AVE,60707,District,ES,"PK, K, 1, 2, 3, 4, 5, 6, 7, 8",41.9141506301,-87.7987207051,1(773)534-3351,3,AUSTIN,29,Chris Taliaferro
610159,Network 1,SCAMMON,POINT (-87.73217877768654 41.94167760315429),4201 W HENDERSON ST,60641,District,ES,"PK, K, 1, 2, 3, 4, 5, 6, 7, 8",41.941677604,-87.7321787777,1(773)534-3475,1,IRVING PARK,30,Ariel E. Reboyras
610163,Network 1,STOCK,POINT (-87.81419465454108 42.0168916405905),7507 W BIRCHWOOD AVE,60631,District,ES,PK,42.0168916414,-87.8141946545,1(773)534-1215,1,EDISON PARK,41,Mary O'Connor
610165,Network 3,SCHUBERT,POINT (-87.76119046882289 41.9304033154651),2727 N LONG AVE,60639,District,ES,"PK, K, 1, 2, 3, 4, 5",41.9304033163,-87.7611904688,1(773)534-3080,3,BELMONT CRAGIN,31,Ray Suarez
610167,Network 8,SEWARD,POINT (-87.66877201152457 41.810333240125665),4600 S HERMITAGE AVE,60609,District,ES,"PK, K, 1, 2, 3, 4, 5, 6, 7, 8",41.8103332409,-87.6687720115,1(773)535-4890,8,NEW CITY,15,Raymond Lopez
610170,Network 8,COLUMBIA EXPLORERS,POINT (-87.70419859113254 41.811068609241815),4520 S KEDZIE AVE,60632,District,ES,"K, 1, 2, 3, 4, 5, 6, 7, 8",41.81106861,-87.7041985911,1(773)535-4050,8,BRIGHTON PARK,14,Edward M. Burke
610171,Network 12,MIRELES,POINT (-87.55278794439316 41.73171691578895),9000 S EXCHANGE AVE,60617,District,ES,"PK, K, 1, 2, 3, 4, 5, 6, 7, 8",41.7317169166,-87.5527879444,1(773)535-6360,12,SOUTH CHICAGO,10,Susie Sadlowski Garza
610172,AUSL,SHERMAN,POINT (-87.65022144566161 41.79976620533543),1000 W 52ND ST,60609,District,ES,"PK, K, 1, 2, 3, 4, 5, 6, 7, 8",41.7997662061,-87.6502214457,1(773)535-1757,11,NEW CITY,20,Willie B. Cochran
610173,Network 11,SHERWOOD,POINT (-87.63227938229912 41.790800243325855),245 W 57TH ST,60621,District,ES,"PK, K, 1, 2, 3, 4, 5, 6, 7, 8",41.7908002441,-87.6322793823,1(773)535-0829,11,ENGLEWOOD,20,Willie B. Cochran
610174,Network 8,SHIELDS,POINT (-87.68964723524776 41.81590948589596),4250 S ROCKWELL ST,60632,District,ES,"PK, K, 1, 2, 3, 4",41.8159094867,-87.6896472352,1(773)535-7285,8,BRIGHTON PARK,15,Raymond Lopez
610175,Network 9,SHOESMITH,POINT (-87.59390494160888 41.80429401583151),1330 E 50TH ST,60615,District,ES,"K, 1, 2, 3, 4, 5, 6",41.8042940166,-87.5939049416,1(773)535-1764,9,KENWOOD,4,"William ""Will"" D. Burns"
610176,Network 13,SHOOP,POINT (-87.65866905202984 41.69091887627593),11140 S BISHOP ST,60643,District,ES,"PK, K, 1, 2, 3, 4, 5, 6, 7, 8",41.6909188771,-87.658669052,1(773)535-2715,13,MORGAN PARK,34,Carrie M. Austin
610177,ISP,SKINNER,POINT (-87.65941897616551 41.879102542176845),1260 W ADAMS ST,60607,District,ES,"PK, K, 1, 2, 3, 4, 5, 6, 7, 8",41.879102543,-87.6594189762,1(773)534-7790,6,NEAR WEST SIDE,27,"Walter Burnett, Jr."
610178,Network 12,SCHMID,POINT (-87.59693188178447 41.7169888716671),9755 S GREENWOOD AVE,60628,District,ES,"PK, K, 1, 2, 3, 4, 5, 6, 7, 8",41.7169888725,-87.5969318818,1(773)535-6235,12,PULLMAN,8,Michelle A. Harris
610179,ISP,SMYSER,POINT (-87.78197453753317 41.958868035570845),4310 N MELVINA AVE,60634,District,ES,"PK, K, 1, 2, 3, 4, 5, 6, 7, 8",41.9588680364,-87.7819745375,1(773)534-3711,1,PORTAGE PARK,38,Timothy M. Cullerton
610180,Network 6,SMYTH,POINT (-87.65344502668637 41.86535101811163),1059 W 13TH ST,60608,District,ES,"PK, K, 1, 2, 3, 4, 5, 6, 7, 8",41.8653510189,-87.6534450267,1(773)534-7180,6,NEAR WEST SIDE,25,Daniel S. Solis
610182,Network 1,SOLOMON,POINT (-87.72404263306203 41.99394233241605),6206 N HAMLIN AVE,60659,District,ES,"PK, K, 1, 2, 3, 4, 5, 6, 7, 8",41.9939423333,-87.7240426331,1(773)534-5226,1,NORTH PARK,39,Margaret Laurino
610183,Network 3,SPENCER,POINT (-87.75044473105727 41.88487639768195),214 N LAVERGNE AVE,60644,District,ES,"PK, K, 1, 2, 3, 4, 5, 6, 7, 8",41.8848763985,-87.750444731,1(773)534-6150,3,AUSTIN,28,Jason C. Ervin
610185,Network 10,STEVENSON,POINT (-87.73166568492817 41.74710687859607),8010 S KOSTNER AVE,60652,District,ES,"PK, K, 1, 2, 3, 4, 5, 6, 7, 8",41.7471068794,-87.7316656849,1(773)535-2280,10,ASHBURN,18,Lona Lane
610188,Network 13,DUNNE,POINT (-87.63997360422805 41.69649616292765),10845 S UNION AVE,60628,District,ES,"PK, K, 1, 2, 3, 4, 5, 6, 7, 8",41.6964961637,-87.6399736042,1(773)535-5517,13,ROSELAND,34,Carrie M. Austin
610191,Network 2,STONE,POINT (-87.68479278594201 41.99535905094481),6239 N LEAVITT ST,60659,District,ES,"K, 1, 2, 3, 4, 5, 6, 7, 8",41.9953590518,-87.6847927859,1(773)534-2045,2,WEST RIDGE,50,Debra L. Silverstein
610192,Network 5,STOWE,POINT (-87.71331750070793 41.91193807892008),3444 W WABANSIA AVE,60647,District,ES,"PK, K, 1, 2, 3, 4, 5, 6, 7, 8",41.9119380797,-87.7133175007,1(773)534-4175,5,HUMBOLDT PARK,26,Roberto Maldonado
610193,Network 12,NEW SULLIVAN,POINT (-87.54292760841355 41.7438285240259),8331 S MACKINAW AVE,60617,District,ES,"PK, K, 1, 2, 3, 4, 5, 6, 7, 8",41.7438285248,-87.5429276084,1(773)535-6585,12,SOUTH CHICAGO,10,Susie Sadlowski Garza
610194,Network 5,SUMNER,POINT (-87.73352395108311 41.870828378524244),4320 W 5TH AVE,60624,District,ES,"PK, K, 1, 2, 3, 4, 5, 6, 7, 8",41.8708283793,-87.7335239511,1(773)534-6730,5,WEST GARFIELD PARK,24,Michael D. Chandler
610195,Network 10,SUTHERLAND,POINT (-87.67682117257347 41.71144507048929),10015 S LEAVITT ST,60643,District,ES,"K, 1, 2, 3, 4, 5, 6, 7, 8",41.7114450713,-87.6768211726,1(773)535-2580,10,BEVERLY,19,Matthew J. O'Shea
610196,Network 2,SWIFT,POINT (-87.65829608026417 41.98913906016773),5900 N WINTHROP AVE,60660,District,ES,"PK, K, 1, 2, 3, 4, 5, 6, 7, 8",41.989139061,-87.6582960803,1(773)534-2695,2,EDGEWATER,48,Harry Osterman
610197,ISP,TALCOTT,POINT (-87.67372272472176 41.89240461130975),1840 W OHIO ST,60622,District,ES,"PK, K, 1, 2, 3, 4, 5, 6, 7, 8",41.8924046121,-87.6737227247,1(773)534-7130,6,WEST TOWN,1,Proco (Joe) Moreno III
610198,Network 13,TAYLOR,POINT (-87.53297076750309 41.715470375344196),9912 S AVENUE H,60617,District,ES,"PK, K, 1, 2, 3, 4, 5, 6, 7, 8",41.7154703761,-87.5329707675,1(773)535-6240,13,EAST SIDE,10,Susie Sadlowski Garza
610199,Network 13,COLEMON,POINT (-87.65811083885912 41.677505446427055),1441 W 119TH ST,60643,District,ES,"PK, K, 1, 2, 3, 4, 5, 6, 7, 8",41.6775054472,-87.6581108389,1(773)535-3975,13,WEST PULLMAN,34,Carrie M. Austin
610200,Network 12,THORP J,POINT (-87.54427997626483 41.73332423774019),8914 S BUFFALO AVE,60617,District,ES,"PK, K, 1, 2, 3, 4, 5, 6, 7, 8",41.7333242385,-87.5442799763,1(773)535-6250,12,SOUTH CHICAGO,10,Susie Sadlowski Garza
610201,ISP,THORP O,POINT (-87.77763129474631 41.94857131145994),6024 W WARWICK AVE,60634,District,ES,"K, 1, 2, 3, 4, 5, 6, 7, 8",41.9485713123,-87.7776312947,1(773)534-3640,1,DUNNING,38,Timothy M. Cullerton
610202,Network 5,TILTON,POINT (-87.7305663846513 41.88410224125941),223 N KEELER AVE,60624,District,ES,"PK, K, 1, 2, 3, 4, 5, 6, 7, 8",41.8841022421,-87.7305663846,1(773)534-6746,5,WEST GARFIELD PARK,28,Jason C. Ervin
610203,ISP,TONTI,POINT (-87.708179184033 41.787523229256514),5815 S HOMAN AVE,60629,District,ES,"PK, K, 1, 2, 3, 4, 5",41.7875232301,-87.708179184,1(773)535-9280,8,GAGE PARK,23,Michael R. Zalewski
610206,Network 10,TWAIN,POINT (-87.75892840072956 41.79904639720592),5134 S LOTUS AVE,60638,District,ES,"PK, K, 1, 2, 3, 4, 5, 6, 7, 8",41.799046398,-87.7589284007,1(773)535-2290,10,GARFIELD RIDGE,14,Edward M. Burke
610207,Network 10,VANDERPOEL,POINT (-87.66555862134634 41.72081703371227),9510 S PROSPECT AVE,60643,District,ES,"K, 1, 2, 3, 4, 5, 6, 7, 8",41.7208170345,-87.6655586213,1(773)535-2690,10,BEVERLY,19,Matthew J. O'Shea
610208,Network 13,LAVIZZO,POINT (-87.62714768793036 41.69626234715829),138 W 109TH ST,60628,District,ES,"PK, K, 1, 2, 3, 4, 5, 6, 7, 8",41.6962623479,-87.6271476879,1(773)535-5300,13,ROSELAND,34,Carrie M. Austin
610209,Network 1,VOLTA,POINT (-87.72460522409652 41.97163400116181),4950 N AVERS AVE,60625,District,ES,"PK, K, 1, 2, 3, 4, 5, 6, 7, 8",41.971634002,-87.7246052241,1(773)534-5080,1,ALBANY PARK,39,Margaret Laurino
610212,Network 1,ALBANY PARK,POINT (-87.71060878865852 41.97150444292288),4929 N SAWYER AVE,60625,District,ES,"7, 8",41.9715044438,-87.7106087887,1(773)534-5108,1,ALBANY PARK,33,Deborah Mell
610213,Network 9,WADSWORTH,POINT (-87.60101811278476 41.77347789748448),6650 S ELLIS AVE,60637,District,ES,"PK, K, 1, 2, 3, 4, 5, 6, 7, 8",41.7734778983,-87.6010181128,1(773)535-0730,9,WOODLAWN,5,Leslie A. Hairston
610215,Network 7,MADERO,POINT (-87.70506426007299 41.84095691074145),3202 W 28TH ST,60623,District,ES,"6, 7, 8",41.8409569116,-87.7050642601,1(773)535-4466,7,SOUTH LAWNDALE,22,Ricardo Munoz
610216,Network 7,WALSH,POINT (-87.64808617420633 41.85483574672973),2015 S PEORIA ST,60608,District,ES,"PK, K, 1, 2, 3, 4, 5, 6, 7, 8",41.8548357475,-87.6480861742,1(773)534-7950,7,LOWER WEST SIDE,11,James A. Balcer
610217,ISP,WARD J,POINT (-87.63535578864986 41.84398008909466),2701 S SHIELDS AVE,60616,District,ES,"PK, K, 1, 2, 3, 4, 5, 6, 7, 8",41.8439800899,-87.6353557886,1(773)534-9050,6,ARMOUR SQUARE,11,James A. Balcer
610218,Network 12,WARREN,POINT (-87.57535254880202 41.72676290830874),9239 S JEFFERY AVE,60617,District,ES,"PK, K, 1, 2, 3, 4, 5, 6, 7, 8",41.7267629091,-87.5753525488,1(773)535-6625,12,CALUMET HEIGHTS,7,Gregory Mitchell
610219,Network 13,WASHINGTON G ES,POINT (-87.53601529919601 41.68813148338763),3611 E 114TH ST,60617,District,ES,"PK, K, 1, 2, 3, 4, 5, 6, 7, 8",41.6881314842,-87.5360152992,1(773)535-5010,13,EAST SIDE,10,Susie Sadlowski Garza
610220,Network 2,WATERS,POINT (-87.69133251142506 41.96436540333339),4540 N CAMPBELL AVE,60625,District,ES,"K, 1, 2, 3, 4, 5, 6, 7, 8",41.9643654042,-87.6913325114,1(773)534-5090,2,LINCOLN SQUARE,47,Ameya Pawar
610221,Network 5,WEBSTER,POINT (-87.72752437440957 41.869915857763885),4055 W ARTHINGTON ST,60624,District,ES,"PK, K, 1, 2, 3, 4, 5, 6, 7, 8",41.8699158586,-87.7275243744,1(773)534-6925,5,WEST GARFIELD PARK,24,Michael D. Chandler
610223,Network 11,WENTWORTH,POINT (-87.65820483631407 41.76507589571757),1340 W 71ST ST,60636,District,ES,"PK, K, 1, 2, 3, 4, 5, 6, 7, 8",41.7650758965,-87.6582048363,1(773)535-3394,11,WEST ENGLEWOOD,6,Roderick T. Sawyer
610225,Network 13,WHISTLER,POINT (-87.65538382114454 41.683907009687786),11533 S ADA ST,60643,District,ES,"PK, K, 1, 2, 3, 4, 5, 6, 7, 8",41.6839070105,-87.6553838211,1(773)535-5560,13,WEST PULLMAN,34,Carrie M. Austin
610226,Network 8,SANDOVAL,POINT (-87.71098733185424 41.79234608382597),5534 S SAINT LOUIS AVE,60629,District,ES,"PK, K, 1, 2, 3, 4, 5",41.7923460846,-87.7109873318,1(773)535-0457,8,GAGE PARK,14,Edward M. Burke
610227,Network 7,WHITNEY,POINT (-87.7255456427252 41.84008042644524),2815 S KOMENSKY AVE,60623,District,ES,"PK, K, 1, 2, 3, 4, 5, 6, 7, 8",41.8400804273,-87.7255456427,1(773)534-1560,7,SOUTH LAWNDALE,22,Ricardo Munoz
610228,Network 7,WHITTIER,POINT (-87.67339165433035 41.850480886147),1900 W 23RD ST,60608,District,ES,"PK, K, 1, 2, 3, 4, 5, 6, 7, 8",41.850480887,-87.6733916543,1(773)535-4590,7,LOWER WEST SIDE,25,Daniel S. Solis
610229,Network 6,PRITZKER,POINT (-87.67776098072349 41.90705300429838),2009 W SCHILLER ST,60622,District,ES,"PK, K, 1, 2, 3, 4, 5, 6, 7, 8",41.9070530051,-87.6777609807,1(773)534-4415,6,WEST TOWN,1,Proco (Joe) Moreno III
610230,Network 1,WILDWOOD,POINT (-87.7783448615387 42.00749066934333),6950 N HIAWATHA AVE,60646,District,ES,"K, 1, 2, 3, 4, 5, 6, 7, 8",42.0074906702,-87.7783448615,1(773)534-1188,1,FOREST GLEN,41,Mary O'Connor
610231,AUSL,NATIONAL TEACHERS,POINT (-87.62930832983595 41.85279976953131),55 W CERMAK RD,60616,District,ES,"PK, K, 1, 2, 3, 4, 5, 6, 7, 8",41.8527997703,-87.6293083298,1(773)534-9970,6,NEAR SOUTH SIDE,3,Patricia R. Dowell
610234,Network 5,YATES,POINT (-87.70028031260621 41.915038547085196),1839 N RICHMOND ST,60647,District,ES,"PK, K, 1, 2, 3, 4, 5, 6, 7, 8",41.9150385479,-87.7002803126,1(773)534-4550,5,LOGAN SQUARE,1,Proco (Joe) Moreno III
610235,Network 3,YOUNG ES,POINT (-87.76714284601937 41.9067905738164),1434 N PARKSIDE AVE,60651,District,ES,"PK, K, 1, 2, 3, 4, 5, 6, 7, 8",41.9067905746,-87.767142846,1(773)534-6200,3,AUSTIN,29,Chris Taliaferro
610237,Network 9,BEETHOVEN,POINT (-87.62713680545437 41.80913475686662),25 W 47TH ST,60609,District,ES,"PK, K, 1, 2, 3, 4, 5, 6, 7, 8",41.8091347577,-87.6271368054,1(773)535-1480,9,GRAND BOULEVARD,3,Patricia R. Dowell
610238,Network 11,BOND,POINT (-87.65301778635478 41.76536056570044),7050 S MAY ST,60621,District,ES,"PK, K, 1, 2, 3, 4, 5, 6, 7, 8",41.7653605665,-87.6530177863,1(773)535-3480,11,ENGLEWOOD,6,Roderick T. Sawyer
610239,Network 8,DALEY,POINT (-87.67220640216625 41.802342867518746),5024 S WOLCOTT AVE,60609,District,ES,"PK, K, 1, 2, 3, 4, 5, 6, 7, 8",41.8023428683,-87.6722064022,1(773)535-9091,8,NEW CITY,20,Willie B. Cochran
610242,ISP,BRENNEMANN,POINT (-87.64974916517143 41.95998415465289),4251 N CLARENDON AVE,60613,District,ES,"PK, K, 1, 2, 3, 4, 5, 6, 7, 8",41.9599841555,-87.6497491652,1(773)534-5766,2,UPTOWN,46,James Cappleman
610244,Network 3,CLARK HS,POINT (-87.75332487134204 41.87288500496833),5101 W HARRISON ST,60644,District,HS,"9, 10, 11, 12",41.8728850058,-87.7533248713,1(773)534-6250,3,AUSTIN,29,Chris Taliaferro
610245,Network 3,DOUGLASS HS,POINT (-87.76766845556021 41.89036862899963),543 N WALLER AVE,60644,District,HS,"9, 10, 11, 12",41.8903686298,-87.7676684556,1(773)534-6176,3,AUSTIN,29,Chris Taliaferro
610246,Network 9,BEASLEY,POINT (-87.6256915785112 41.798464959275144),5255 S STATE ST,60609,District,ES,"PK, K, 1, 2, 3, 4, 5, 6, 7, 8",41.7984649601,-87.6256915785,1(773)535-1230,9,WASHINGTON PARK,3,Patricia R. Dowell
610248,AUSL,CHICAGO ACADEMY ES,POINT (-87.77818680275425 41.94305591932024),3400 N AUSTIN AVE,60634,District,ES,"PK, K, 1, 2, 3, 4, 5, 6, 7, 8",41.9430559201,-87.7781868027,1(773)534-3885,1,DUNNING,36,Nicholas Sposato
610249,ISP,TALMAN,POINT (-87.69026083876544 41.79404805057685),5450 S TALMAN AVE,60632,District,ES,"PK, K, 1, 2, 3, 4, 5, 6, 7, 8",41.7940480514,-87.6902608388,1(773)535-7850,8,GAGE PARK,14,Edward M. Burke
610250,Network 6,SALAZAR,POINT (-87.63363243383714 41.901416533650156),160 W WENDELL ST,60610,District,ES,"PK, K, 1, 2, 3, 4, 5, 6, 7, 8",41.9014165345,-87.6336324338,1(773)534-8310,6,NEAR NORTH SIDE,27,"Walter Burnett, Jr."
610251,Network 5,CATHER,POINT (-87.69918700903415 41.882949923809264),2908 W WASHINGTON BLVD,60612,District,ES,"PK, K, 1, 2, 3, 4, 5, 6, 7, 8",41.8829499246,-87.699187009,1(773)534-6780,5,EAST GARFIELD PARK,27,"Walter Burnett, Jr."
610252,Network 6,DETT,POINT (-87.6803149665699 41.87986982005957),2131 W MONROE ST,60612,District,ES,"PK, K, 1, 2, 3, 4, 5, 6, 7, 8",41.8798698209,-87.6803149666,1(773)534-7160,6,NEAR WEST SIDE,27,"Walter Burnett, Jr."
610254,AUSL,DVORAK,POINT (-87.71574357179486 41.85888344613877),3615 W 16TH ST,60623,District,ES,"PK, K, 1, 2, 3, 4, 5, 6, 7, 8",41.858883447,-87.7157435718,1(773)534-1690,5,NORTH LAWNDALE,24,Michael D. Chandler
610256,Network 9,ROBINSON,POINT (-87.59906677098365 41.81734932673638),4225 S LAKE PARK AVE,60653,District,ES,"PK, K, 1, 2, 3",41.8173493275,-87.599066771,1(773)535-1777,9,OAKLAND,4,"William ""Will"" D. Burns"
610257,AUSL,MORTON,POINT (-87.70510783049163 41.88917813449174),431 N TROY ST,60612,District,ES,"PK, K, 1, 2, 3, 4, 5, 6, 7, 8",41.8891781353,-87.7051078305,1(773)534-6791,5,HUMBOLDT PARK,27,"Walter Burnett, Jr."
610263,AUSL,DULLES,POINT (-87.6172141790608 41.779900493583106),6311 S CALUMET AVE,60637,District,ES,"PK, K, 1, 2, 3, 4, 5, 6, 7, 8",41.7799004944,-87.6172141791,1(773)535-0690,9,GREATER GRAND CROSSING,20,Willie B. Cochran
610268,Network 12,ASHE,POINT (-87.60117440804437 41.740183790256616),8505 S INGLESIDE AVE,60619,District,ES,"K, 1, 2, 3, 4, 5, 6, 7, 8",41.740183791,-87.601174408,1(773)535-3550,12,CHATHAM,8,Michelle A. Harris
610269,Network 2,MCCUTCHEON,POINT (-87.65475844786295 41.97094908209549),4865 N SHERIDAN RD,60640,District,ES,"PK, K, 1, 2, 3, 4, 5, 6, 7, 8",41.9709490829,-87.6547584479,1(773)534-2680,2,UPTOWN,46,James Cappleman
610271,Network 5,JENSEN,POINT (-87.70224105256844 41.87381494670643),3030 W HARRISON ST,60612,District,ES,"PK, K, 1, 2, 3, 4, 5, 6, 7, 8",41.8738149475,-87.7022410526,1(773)534-6840,5,EAST GARFIELD PARK,28,Jason C. Ervin
610274,AUSL,JOHNSON,POINT (-87.7031387627253 41.86183619104433),1420 S ALBANY AVE,60623,District,ES,"PK, K, 1, 2, 3, 4, 5, 6, 7, 8",41.8618361919,-87.7031387627,1(773)534-1829,5,NORTH LAWNDALE,24,Michael D. Chandler
610276,Network 9,MOLLISON,POINT (-87.61661794407227 41.81435828267455),4415 S DR MARTIN L KING JR DR,60653,District,ES,"PK, K, 1, 2, 3, 4, 5, 6, 7, 8",41.8143582835,-87.6166179441,1(773)535-1804,9,GRAND BOULEVARD,3,Patricia R. Dowell
610279,Network 12,TANNER,POINT (-87.60679103519684 41.76067263502636),7350 S EVANS AVE,60619,District,ES,"PK, K, 1, 2, 3, 4, 5, 6, 7, 8",41.7606726358,-87.6067910352,1(773)535-3870,12,GREATER GRAND CROSSING,6,Roderick T. Sawyer
610281,Network 12,POWELL,POINT (-87.55678924878404 41.76033179959435),7511 S SOUTH SHORE DR,60649,District,ES,"K, 1, 2, 3, 4, 5, 6, 7, 8",41.7603318004,-87.5567892488,1(773)535-6650,12,SOUTH SHORE,7,Gregory Mitchell
610282,AUSL,MCNAIR,POINT (-87.74673077914349 41.897819069092115),4820 W WALTON ST,60651,District,ES,"PK, K, 1, 2, 3, 4, 5, 6, 7, 8",41.8978190699,-87.7467307791,1(773)534-8980,3,AUSTIN,37,Emma M. Mitts
610284,Network 2,NEW FIELD,POINT (-87.67316832857148 42.007702570043016),1707 W MORSE AVE,60626,District,ES,"PK, K, 1, 2, 3, 4",42.0077025709,-87.6731683286,1(773)534-2760,2,ROGERS PARK,49,Joe A. Moore
610287,Network 10,ASHBURN,POINT (-87.70960968204936 41.74235056627999),8300 S ST LOUIS AVE,60652,District,ES,"PK, K, 1, 2, 3, 4, 5, 6, 7, 8",41.7423505671,-87.709609682,1(773)535-7860,10,ASHBURN,18,Lona Lane
610290,Network 11,MAYS,POINT (-87.63727734722362 41.77272749687046),6656 S NORMAL BLVD,60621,District,ES,"PK, K, 1, 2, 3, 4, 5, 6, 7, 8",41.7727274977,-87.6372773472,1(773)535-3892,11,ENGLEWOOD,6,Roderick T. Sawyer
610291,ISP,LEE,POINT (-87.7288842929386 41.7753053866094),6448 S TRIPP AVE,60629,District,ES,"PK, K, 1, 2, 3, 4, 5, 6, 7, 8",41.7753053874,-87.7288842929,1(773)535-2255,10,WEST LAWN,13,Marty Quinn
610293,Network 5,MELODY,POINT (-87.72466123135618 41.8787989319273),3937 W WILCOX ST,60624,District,ES,"PK, K, 1, 2, 3, 4, 5, 6, 7, 8",41.8787989327,-87.7246612313,1(773)534-6850,5,WEST GARFIELD PARK,28,Jason C. Ervin
610295,Network 13,HIGGINS,POINT (-87.64699403794559 41.6810313695292),11710 S MORGAN ST,60643,District,ES,"PK, K, 1, 2, 3, 4, 5, 6, 7, 8",41.6810313703,-87.6469940379,1(773)535-5625,13,WEST PULLMAN,34,Carrie M. Austin
610298,ISP,LENART,POINT (-87.62804036317074 41.74718591747294),8101 S LASALLE ST,60620,District,ES,"PK, K, 1, 2, 3, 4, 5, 6, 7, 8",41.7471859183,-87.6280403632,1(773)535-0040,11,CHATHAM,21,"Howard B. Brookins, Jr."
610299,Network 11,KING ES,POINT (-87.6413345407389 41.76533497924157),644 W 71ST ST,60621,District,ES,"PK, K, 1, 2, 3, 4, 5, 6, 7, 8",41.76533498,-87.6413345407,1(773)535-3875,11,ENGLEWOOD,6,Roderick T. Sawyer
610300,Network 11,WESTCOTT,POINT (-87.634750516536 41.7488682245116),409 W 80TH ST,60620,District,ES,"PK, K, 1, 2, 3, 4, 5, 6, 7, 8",41.7488682253,-87.6347505165,1(773)535-3090,11,CHATHAM,17,Latasha R. Thomas
610304,Network 6,PHOENIX MILITARY HS,POINT (-87.68696021819036 41.879118231068894),145 S CAMPBELL AVE,60612,District,HS,"9, 10, 11, 12",41.8791182319,-87.6869602182,1(773)534-7275,6,NEAR WEST SIDE,27,"Walter Burnett, Jr."
610305,Network 3,LELAND,POINT (-87.74927555446033 41.87358678018176),512 S LAVERGNE AVE,60644,District,ES,"PK, K, 1, 2, 3, 4, 5, 6, 7, 8",41.873586781,-87.7492755545,1(773)534-6340,3,AUSTIN,29,Chris Taliaferro
610308,Network 6,RUDOLPH,POINT (-87.66947670925113 41.8835681680644),110 N PAULINA ST,60612,District,ES,"PK, K, 1, 2, 3, 4, 5",41.8835681689,-87.6694767092,1(773)534-7460,6,NEAR WEST SIDE,27,"Walter Burnett, Jr."
610312,ISP,MCDOWELL,POINT (-87.5895894984777 41.733132312723),1419 E 89TH ST,60619,District,ES,"PK, K, 1, 2, 3, 4, 5",41.7331323135,-87.5895894985,1(773)535-6404,12,CALUMET HEIGHTS,8,Michelle A. Harris
610313,Network 5,DE DIEGO,POINT (-87.6857562038488 41.90529385315727),1313 N CLAREMONT AVE,60622,District,ES,"PK, K, 1, 2, 3, 4, 5, 6, 7, 8",41.905293854,-87.6857562038,1(773)534-4451,5,WEST TOWN,1,Proco (Joe) Moreno III
610315,Network 13,WHITE,POINT (-87.65053854188713 41.67230940600583),1136 W 122ND ST,60643,District,ES,"PK, K, 1, 2, 3, 4, 5, 6, 7, 8",41.6723094068,-87.6505385419,1(773)535-5672,13,WEST PULLMAN,34,Carrie M. Austin
610316,Network 12,EARHART,POINT (-87.58218173785268 41.726107454791666),1710 E 93RD ST,60617,District,ES,"K, 1, 2, 3, 4, 5, 6, 7, 8",41.7261074556,-87.5821817378,1(773)535-6416,12,CALUMET HEIGHTS,8,Michelle A. Harris
610317,Network 8,BRIGHTON PARK,POINT (-87.69207693007087 41.82389999976054),3825 S WASHTENAW AVE,60632,District,ES,"PK, K, 1, 2, 3, 4, 5, 6, 7, 8",41.8239000006,-87.6920769301,1(773)535-7237,8,BRIGHTON PARK,12,George A. Cardenas
610319,Network 8,EVERGREEN,POINT (-87.66781651175461 41.82935561870738),3537 S PAULINA ST,60609,District,ES,"6, 7, 8",41.8293556195,-87.6678165117,1(773)535-4836,8,MCKINLEY PARK,12,George A. Cardenas
610323,Network 12,BOWEN HS,POINT (-87.55755003385275 41.73462671971637),2710 E 89TH ST,60617,District,HS,"9, 10, 11, 12",41.7346267205,-87.5575500338,1(773)535-7650,12,SOUTH CHICAGO,7,Gregory Mitchell
610325,Network 4,LOGANDALE,POINT (-87.7080408764978 41.93397019544521),3212 W GEORGE ST,60618,District,ES,"PK, K, 1, 2, 3, 4, 5, 6, 7, 8",41.9339701963,-87.7080408765,1(773)534-5350,4,AVONDALE,35,Rey Colon
610329,Network 7,OROZCO,POINT (-87.67521045891944 41.857754809048),1940 W 18TH ST,60608,District,ES,"PK, K, 1, 2, 3, 4, 5, 6, 7, 8",41.8577548099,-87.6752104589,1(773)534-7215,7,LOWER WEST SIDE,25,Daniel S. Solis
610334,Network 5,RABY HS,POINT (-87.71542311991061 41.88621005936022),3545 W FULTON BLVD,60624,District,HS,"9, 10, 11, 12",41.8862100602,-87.7154231199,1(773)534-6755,5,EAST GARFIELD PARK,28,Jason C. Ervin
610339,AUSL,STAGG,POINT (-87.64921669361973 41.75892473172105),7424 S MORGAN ST,60621,District,ES,"PK, K, 1, 2, 3, 4, 5, 6, 7, 8",41.7589247325,-87.6492166936,1(773)535-3565,11,ENGLEWOOD,17,Latasha R. Thomas
610340,AUSL,CHICAGO ACADEMY HS,POINT (-87.77684656598319 41.94305449025786),3400 N AUSTIN AVE,60634,District,HS,"9, 10, 11, 12",41.9430544911,-87.776846566,1(773)534-0146,1,DUNNING,36,Nicholas Sposato
610342,ISP,SABIN,POINT (-87.68304994191865 41.90681580907238),2216 W HIRSCH ST,60622,District,ES,"K, 1, 2, 3, 4, 5, 6, 7, 8",41.9068158099,-87.6830499419,1(773)534-4491,5,WEST TOWN,1,Proco (Joe) Moreno III
610345,Network 9,WOODSON,POINT (-87.60841876847849 41.81449879499185),4414 S EVANS AVE,60653,District,ES,"PK, K, 1, 2, 3, 4, 5, 6, 7, 8",41.8144987958,-87.6084187685,1(773)535-1280,9,GRAND BOULEVARD,3,Patricia R. Dowell
610347,Network 10,CLAREMONT,POINT (-87.68106119770613 41.777510507274556),2300 W 64TH ST,60636,District,ES,"PK, K, 1, 2, 3, 4, 5, 6, 7, 8",41.7775105081,-87.6810611977,1(773)535-8110,10,CHICAGO LAWN,16,JoAnn Thompson
610350,Network 12,BLACK,POINT (-87.5766429511519 41.729692360814184),9101 S EUCLID AVE,60619,District,ES,"K, 1, 2, 3, 4, 5, 6, 7, 8",41.7296923616,-87.5766429511,1(773)535-6390,12,CALUMET HEIGHTS,8,Michelle A. Harris
610352,Network 10,DURKIN PARK,POINT (-87.72995529240711 41.73884394057011),8445 S KOLIN AVE,60652,District,ES,"PK, K, 1, 2, 3, 4, 5, 6, 7, 8",41.7388439414,-87.7299552924,1(773)535-2322,10,ASHBURN,18,Lona Lane
610353,Network 8,CALMECA,POINT (-87.71165364057762 41.824377327213384),3456 W 38TH ST,60632,District,ES,"PK, K, 1, 2, 3, 4, 5, 6, 7, 8",41.824377328,-87.7116536406,1(773)535-7000,8,BRIGHTON PARK,12,George A. Cardenas
610354,Network 1,NORTH RIVER,POINT (-87.7071507281792 41.961721055910864),4416 N TROY ST,60625,District,ES,"PK, K, 1, 2, 3, 4, 5, 6, 7, 8",41.9617210567,-87.7071507282,1(773)534-0590,1,ALBANY PARK,33,Deborah Mell
610355,Network 2,COURTENAY,POINT (-87.66385296311167 41.96230777171522),4420 N BEACON ST,60640,District,ES,"PK, K, 1, 2, 3, 4, 5, 6, 7, 8",41.9623077725,-87.6638529631,1(773)534-5790,2,UPTOWN,46,James Cappleman
610357,Network 7,SPRY HS,POINT (-87.69894610650913 41.84776169413336),2400 S MARSHALL BLVD,60623,District,HS,"9, 10, 11, 12",41.8477616949,-87.6989461065,1(773)534-1997,7,SOUTH LAWNDALE,12,George A. Cardenas
610362,Network 11,EVERS,POINT (-87.63930546895577 41.715665357544054),9811 S LOWE AVE,60628,District,ES,"PK, K, 1, 2, 3, 4, 5, 6, 7, 8",41.7156653583,-87.6393054689,1(773)535-2565,11,WASHINGTON HEIGHTS,34,Carrie M. Austin
610363,ISP,DISNEY,POINT (-87.6460827440443 41.95681613022009),4140 N MARINE DR,60613,District,ES,"PK, K, 1, 2, 3, 4, 5, 6, 7, 8",41.9568161311,-87.646082744,1(773)534-5840,2,UPTOWN,46,James Cappleman
610364,Network 13,DUBOIS,POINT (-87.61432001021883 41.653732980686485),330 E 133RD ST,60827,District,ES,"PK, K, 1, 2, 3, 4, 5, 6, 7, 8",41.6537329815,-87.6143200102,1(773)535-5582,13,RIVERDALE,9,Anthony A. Beale
610366,ISP,WACKER,POINT (-87.64804432348328 41.71619329561056),9746 S MORGAN ST,60643,District,ES,"PK, K, 1, 2, 3, 4, 5, 6, 7, 8",41.7161932964,-87.6480443235,1(773)535-2821,11,WASHINGTON HEIGHTS,34,Carrie M. Austin
610367,Network 3,DEPRIEST,POINT (-87.76629755455644 41.8779788328372),139 S PARKSIDE AVE,60644,District,ES,"PK, K, 1, 2, 3, 4, 5, 6, 7, 8",41.8779788337,-87.7662975545,1(773)534-6800,3,AUSTIN,29,Chris Taliaferro
610368,Network 13,HUGHES L,POINT (-87.62986865964777 41.705342321152955),240 W 104TH ST,60628,District,ES,"PK, K, 1, 2, 3, 4, 5, 6, 7, 8",41.7053423219,-87.6298686596,1(773)535-5075,13,ROSELAND,34,Carrie M. Austin
610369,Network 11,JACKSON M,POINT (-87.64676673439911 41.73412547213793),917 W 88TH ST,60620,District,ES,"PK, K, 1, 2, 3, 4, 5, 6, 7, 8",41.7341254729,-87.6467667344,1(773)535-3341,11,AUBURN GRESHAM,21,"Howard B. Brookins, Jr."
610380,Network 9,WILLIAMS HS,POINT (-87.62502997956442 41.80611759680971),4934 S WABASH AVE,60615,District,HS,"9, 10, 11, 12",41.8061175976,-87.6250299796,1(773)535-1120,9,GRAND BOULEVARD,3,Patricia R. Dowell
610381,Network 9,BRONZEVILLE HS,POINT (-87.62500446842496 41.80520417036024),4934 S WABASH AVE,60615,District,HS,"9, 10, 11, 12",41.8052041712,-87.6250044684,1(773)535-1150,9,GRAND BOULEVARD,3,Patricia R. Dowell
610383,Network 7,SOCIAL JUSTICE HS,POINT (-87.73529946932085 41.83350727440447),3120 S KOSTNER AVE,60623,District,HS,"9, 10, 11, 12",41.8335072752,-87.7352994693,1(773)535-4300,7,SOUTH LAWNDALE,22,Ricardo Munoz
610384,Network 7,INFINITY HS,POINT (-87.73527796161464 41.83616881791408),3120 S KOSTNER AVE,60623,District,HS,"9, 10, 11, 12",41.8361688187,-87.7352779616,1(773)535-4225,7,SOUTH LAWNDALE,22,Ricardo Munoz
610385,Network 7,MULTICULTURAL HS,POINT (-87.73528329704085 41.83528187282801),3120 S KOSTNER AVE,60623,District,HS,"9, 10, 11, 12",41.8352818736,-87.735283297,1(773)535-4242,7,SOUTH LAWNDALE,22,Ricardo Munoz
610386,ISP,PEACE AND EDUCATION HS,POINT (-87.66737776499681 41.80351471547385),4946 S PAULINA ST,60609,District,HS,"10, 11, 12",41.8035147163,-87.667377765,1(773)535-9023,8,NEW CITY,20,Willie B. Cochran
610389,AUSL,ORR HS,POINT (-87.72665959049806 41.894546718772595),730 N PULASKI RD,60624,District,HS,"9, 10, 11, 12",41.8945467196,-87.7266595905,1(773)534-6500,5,HUMBOLDT PARK,37,Emma M. Mitts
610390,ISP,RICKOVER MILITARY HS,POINT (-87.66578850846128 41.98902070946669),5900 N GLENWOOD AVE,60660,District,HS,"9, 10, 11, 12",41.9890207103,-87.6657885085,1(773)534-2890,2,EDGEWATER,48,Harry Osterman
610391,Network 11,LINDBLOM HS,POINT (-87.67166184964424 41.78204080286074),6130 S WOLCOTT AVE,60636,District,HS,"7, 8, 9, 10, 11, 12",41.7820408037,-87.6716618496,1(773)535-9300,11,WEST ENGLEWOOD,15,Raymond Lopez
610392,Network 7,WORLD LANGUAGE HS,POINT (-87.73529221730786 41.83439661641913),3120 S KOSTNER AVE,60623,District,HS,"9, 10, 11, 12",41.8343966172,-87.7352922173,1(773)535-4334,7,SOUTH LAWNDALE,22,Ricardo Munoz
610394,Network 2,UPLIFT HS,POINT (-87.65247334563585 41.96554746082514),900 W WILSON AVE,60640,District,HS,"9, 10, 11, 12",41.9655474617,-87.6524733456,1(773)534-2875,2,UPTOWN,46,James Cappleman
610396,AUSL,TARKINGTON,POINT (-87.70644464862602 41.7644070751603),3330 W 71ST ST,60629,District,ES,"PK, K, 1, 2, 3, 4, 5, 6, 7, 8",41.764407076,-87.7064446486,1(773)535-4700,10,CHICAGO LAWN,17,Latasha R. Thomas
610402,ISP,DEVRY HS,POINT (-87.69076139189741 41.94138763973928),3300 N CAMPBELL AVE,60618,District,HS,"11, 12",41.9413876406,-87.6907613919,1(773)697-2216,4,NORTH CENTER,47,Ameya Pawar
610405,Network 6,SUDER,POINT (-87.6776361122946 41.883214516587714),2022 W WASHINGTON BLVD,60612,District,ES,"PK, K, 1, 2, 3, 4, 5, 6, 7, 8",41.8832145174,-87.6776361123,1(773)534-7685,6,NEAR WEST SIDE,27,"Walter Burnett, Jr."
610499,AUSL,COLLINS HS,POINT (-87.7020415857877 41.86414856686577),1313 S SACRAMENTO DR,60623,District,HS,"9, 10, 11, 12",41.8641485677,-87.7020415858,1(773)534-1840,5,NORTH LAWNDALE,24,Michael D. Chandler
610503,Network 5,FRAZIER PROSPECTIVE,POINT (-87.72724437841765 41.86697962686208),4027 W GRENSHAW ST,60624,District,ES,"K, 1, 2, 3, 4, 5, 6, 7, 8",41.8669796277,-87.7272443784,1(773)534-6880,5,NORTH LAWNDALE,24,Michael D. Chandler
610504,ISP,THOMAS,POINT (-87.67754185004422 41.827774912780285),3625 S HOYNE AVE,60609,District,ES,PK,41.8277749136,-87.67754185,1(773)535-4088,8,MCKINLEY PARK,12,George A. Cardenas
610506,Network 11,TEAM HS,POINT (-87.6330187904462 41.781484903182914),6201 S STEWART AVE,60621,District,HS,"9, 10, 11, 12",41.781484904,-87.6330187904,1(773)535-3530,11,ENGLEWOOD,20,Willie B. Cochran
610513,Network 6,AIR FORCE HS,POINT (-87.63275698312634 41.828145322049565),3630 S WELLS ST,60609,District,HS,"9, 10, 11, 12",41.8281453229,-87.6327569831,1(773)535-1590,6,ARMOUR SQUARE,11,James A. Balcer
610518,Network 3,AUSTIN CCA HS,POINT (-87.76191637273237 41.88599328647998),231 N PINE AVE,60644,District,HS,"9, 10, 11, 12",41.8859932873,-87.7619163727,1(773)534-0660,3,AUSTIN,37,Emma M. Mitts
610520,ISP,LASALLE II,POINT (-87.67369603171919 41.902914456505975),1148 N HONORE ST,60622,District,ES,"PK, K, 1, 2, 3, 4, 5, 6, 7, 8",41.9029144573,-87.6736960317,1(773)534-0490,6,WEST TOWN,1,Proco (Joe) Moreno III
610521,Network 11,DAVIS M,POINT (-87.66652988325733 41.771221111228726),6740 S PAULINA ST,60636,District,ES,"K, 1, 2, 3, 4, 5, 6, 7, 8",41.771221112,-87.6665298832,1(773)535-9120,11,WEST ENGLEWOOD,16,JoAnn Thompson
610523,Network 1,EDISON PARK,POINT (-87.81377123403563 41.99423794962509),6220 N OLCOTT AVE,60631,District,ES,"PK, K, 1, 2, 3, 4, 5, 6, 7, 8",41.9942379505,-87.813771234,1(773)534-0960,1,NORWOOD PARK,41,Mary O'Connor
610524,Network 4,ALCOTT HS,POINT (-87.68056201258314 41.93579455558985),2957 N HOYNE AVE,60618,District,HS,"9, 10, 11, 12",41.9357945564,-87.6805620126,1(773)534-5970,4,NORTH CENTER,32,Scott Waguespack
610529,Network 6,OGDEN HS,POINT (-87.65940468445534 41.8935476378506),1250 W ERIE ST,60642,District,HS,"6, 7, 8, 9, 10, 11, 12",41.8935476387,-87.6594046844,1(773)534-0866,6,WEST TOWN,1,Proco (Joe) Moreno III
610530,Network 12,SOUTH SHORE ES,POINT (-87.5903961020606 41.76775510872349),1415 E 70TH ST,60637,District,ES,"PK, K, 1, 2, 3, 4, 5, 6, 7, 8",41.7677551095,-87.5903961021,1(773)535-8340,12,SOUTH SHORE,5,Leslie A. Hairston
610532,Network 8,HERNANDEZ,POINT (-87.7113699213332 41.793479329251525),3510 W 55TH ST,60632,District,ES,"6, 7, 8",41.7934793301,-87.7113699213,1(773)535-8850,8,GAGE PARK,14,Edward M. Burke
610533,ISP,PRIETO,POINT (-87.76578057130992 41.921317581679105),2231 N CENTRAL AVE,60639,District,ES,"PK, K, 1, 2, 3, 4, 5, 6, 7, 8",41.9213175825,-87.7657805713,1(773)534-0210,3,BELMONT CRAGIN,36,Nicholas Sposato
400178,Charter,MOVING EVEREST,POINT (-87.75542435392758 41.88826258027161),416 N. LARAMIE AVE,60644,Charter,ES,"K, 1, 2, 3",41.8882625811,-87.7554243539,TBD,3,AUSTIN,37,Emma M. Mitts
610534,Network 4,SKINNER NORTH,POINT (-87.6448414947778 41.905109118866676),640 W SCOTT ST,60610,District,ES,"K, 1, 2, 3, 4, 5, 6, 7, 8",41.9051091197,-87.6448414948,1(773)534-8500,4,NEAR NORTH SIDE,27,"Walter Burnett, Jr."
610539,Network 3,CAMRAS,POINT (-87.77012725797415 41.93493062208358),3000 N MANGO AVE,60634,District,ES,"PK, K, 1, 2, 3, 4, 5, 6, 7, 8",41.9349306229,-87.770127258,1(773)534-2960,3,BELMONT CRAGIN,30,Ariel E. Reboyras
610541,ISP,LORCA,POINT (-87.72478312355827 41.94002591322928),3231 N SPRINGFIELD AVE,60618,District,ES,"PK, K, 1, 2, 3, 4, 5, 6, 7, 8",41.9400259141,-87.7247831236,1(773)534-0950,4,AVONDALE,30,Ariel E. Reboyras
610542,Network 2,WEST RIDGE,POINT (-87.7059172053415 42.00295899415031),6700 N WHIPPLE ST,60645,District,ES,"PK, K, 1, 2, 3, 4, 5, 6, 7, 8",42.002958995,-87.7059172053,1(773)534-8250,2,WEST RIDGE,50,Debra L. Silverstein
610543,AUSL,SOLORIO HS,POINT (-87.71105882218495 41.79520055456999),5400 S ST LOUIS AVE,60632,District,HS,"9, 10, 11, 12",41.7952005554,-87.7110588222,1(773)535-9070,8,GAGE PARK,14,Edward M. Burke
610544,ISP,AZUELA,POINT (-87.73992023378516 41.77107907193362),4707 W MARQUETTE RD,60629,District,ES,"PK, K, 1, 2, 3, 4, 5, 6, 7, 8",41.7710790727,-87.7399202338,1(773)535-7395,10,WEST LAWN,13,Marty Quinn
610547,Network 12,SOUTH SHORE INTL HS,POINT (-87.57635263779207 41.75879166256017),1955 E 75TH ST,60649,District,HS,"9, 10, 11, 12",41.7587916634,-87.5763526378,1(773)535-8351,12,SOUTH SHORE,8,Michelle A. Harris
610548,Network 6,STEM,POINT (-87.6649691328381 41.868575878584245),1522 W FILLMORE ST,60607,District,ES,"K, 1, 2, 3, 4, 5, 6, 7, 8",41.8685758794,-87.6649691328,1(773)534-7300,6,NEAR WEST SIDE,28,Jason C. Ervin
610557,Options,PATHWAYS - ASHBURN HS,POINT (-87.70406006783527 41.73523902189959),3284 W 87TH ST,60652,ALOP,HS,"9, 10, 11, 12",41.7352390227,-87.7040600678,1(773)434-6300,10,ASHBURN,18,Lona Lane
610558,Network 10,GOODE HS,POINT (-87.70734534806047 41.753749801742536),7651 S HOMAN AVE,60652,District,HS,"9, 10, 11, 12",41.7537498025,-87.7073453481,1(773)535-7875,10,ASHBURN,18,Lona Lane
610559,Network 8,SHIELDS MIDDLE,POINT (-87.68977977275121 41.80649141085714),2611 W 48TH ST,60632,District,ES,"5, 6, 7, 8",41.8064914117,-87.6897797727,1(773)535-7115,8,BRIGHTON PARK,14,Edward M. Burke
610561,Network 6,CRANE MEDICAL HS,POINT (-87.6833013465923 41.87694744316895),2245 W JACKSON BLVD,60612,District,HS,"9, 10, 11, 12",41.876947444,-87.6833013466,1(773)534-7600,6,NEAR WEST SIDE,27,"Walter Burnett, Jr."
610563,ISP,BACK OF THE YARDS HS,POINT (-87.6775413678762 41.80841254258602),2111 W 47TH ST,60609,District,HS,"9, 10, 11, 12",41.8084125434,-87.6775413679,1(773)535-7320,8,NEW CITY,15,Raymond Lopez
610564,ISP,DISNEY II HS,POINT (-87.72136351133383 41.95248766939361),3900 N LAWNDALE AVE,60618,District,HS,"7, 8, 9, 10, 11, 12",41.9524876702,-87.7213635113,1(773)534-5010,1,IRVING PARK,45,John Arena
610565,Options,CAMELOT - EXCEL ENGLEWOOD HS,POINT (-87.64912434695815 41.763895973300585),7141 S MORGAN ST,60621,Contract,HS,"8, 9, 10, 11, 12",41.7638959741,-87.6491243469,1(773)675-6674,11,ENGLEWOOD,6,Roderick T. Sawyer
610566,Options,MAGIC JOHNSON - N LAWNDALE HS,POINT (-87.70660367604683 41.86647785082858),3222 W ROOSEVELT RD,60624,ALOP,HS,"9, 10, 11, 12",41.8664778516,-87.706603676,1(773)826-1137,5,NORTH LAWNDALE,24,Michael D. Chandler
610567,Options,MAGIC JOHNSON - ROSELAND HS,POINT (-87.64269696865162 41.69515983901628),10928 S. HALSTED AVE,60661,ALOP,HS,"9, 10, 11, 12",41.6951598398,-87.6426969686,1(773)468-1505,13,MORGAN PARK,34,Carrie M. Austin
610568,Options,PATHWAYS - AVONDALE HS,POINT (-87.70520632190492 41.939433209108394),3100 W BELMONT AVE,60618,ALOP,HS,"9, 10, 11, 12",41.9394332099,-87.7052063219,1(773)588-5007,4,AVONDALE,33,Deborah Mell
610569,Options,OMBUDSMAN - NORTHWEST HS,POINT (-87.80668177211628 42.017171238947576),7500 N HARLEM AVE,60631,ALOP,HS,"9, 10, 11, 12",42.0171712398,-87.8066817721,1(312)806-9022,1,EDISON PARK,41,Mary O'Connor
610570,Options,OMBUDSMAN - SOUTH HS,POINT (-87.68363453082763 41.78302658059831),6057 S. WESTERN AVE,60635,ALOP,HS,"9, 10, 11, 12",41.7830265814,-87.6836345308,1(773)498-5085 x6803,10,CHICAGO LAWN,16,JoAnn Thompson
610571,Options,OMBUDSMAN - WEST HS,POINT (-87.68784229509059 41.874672994282946),2401 W. CONGRESS PKWY,60612,ALOP,HS,"9, 10, 11, 12",41.8746729951,-87.6878422951,1(312)243-1550,6,NEAR WEST SIDE,28,Jason C. Ervin
610580,Options,MAGIC JOHNSON - HUMBOLDT PK HS,POINT (-87.6878889934761 41.90292503117001),2421 W. DIVISION,60622,ALOP,HS,"9, 10, 11, 12",41.902925032,-87.6878889935,1(773)276-0620,5,WEST TOWN,26,Roberto Maldonado
400168,Charter,GREAT LAKES,POINT (-87.55990690212751 41.74267138180483),8401 S SAGINAW AVE,60617,Charter,ES,"K, 1, 2, 3, 4",41.7426713826,-87.5599069021,1(773)503-3040,12,SOUTH CHICAGO,7,Gregory Mitchell
610572,Options,CAMELOT SAFE ES,POINT (-87.55051275982352 41.75311714101605),7530 S SOUTH SHORE DR,60603,Safe,ES,"4, 5, 6, 7, 8",41.7531171418,-87.5505127598,1(773)902-2487,12,SOUTH SHORE,7,Gregory Mitchell
609774,Network 4,ALCOTT ES,POINT (-87.6464131367942 41.929849851985445),2625 N ORCHARD ST,60614,District,ES,"PK, K, 1, 2, 3, 4, 5, 6, 7, 8",41.9298498528,-87.6464131368,1(773)534-5460,4,LINCOLN PARK,43,Michele Smith
610184,Network 7,SPRY ES,POINT (-87.70018447219638 41.84774672194433),2400 S MARSHALL BLVD,60623,District,ES,"PK, K, 1, 2, 3, 4, 5, 6, 7, 8",41.8477467228,-87.7001844722,1(773)534-1700,7,SOUTH LAWNDALE,12,George A. Cardenas
610101,Network 6,OGDEN ES,POINT (-87.62929656939367 41.89997648907867),24 W WALTON ST,60610,District,ES,"K, 1, 2, 3, 4, 5",41.8999764899,-87.6292965694,1(773)534-8110,6,NEAR NORTH SIDE,2,Bob Fioretti
610515,Network 1,DISNEY II ES,POINT (-87.73067837614433 41.95046050541308),3815 N KEDVALE AVE,60641,District,ES,"PK, K, 1, 2, 3, 4, 5, 6",41.9504605062,-87.7306783761,1(773)534-3750,1,IRVING PARK,45,John Arena
610573,Options,CAMELOT SAFE HS,POINT (-87.5518035520084 41.75311490093142),7530 S SOUTH SHORE DR,60603,Safe,HS,"9, 10, 11, 12",41.7531149017,-87.551803552,1(773)902-2487,12,SOUTH SHORE,7,Gregory Mitchell
610581,Options,MAGIC JOHNSON - BRAINERD HS,POINT (-87.66313972978341 41.731492301878724),8908 S. ASHLAND AVE,60620,ALOP,HS,"9, 10, 11, 12",41.7314923027,-87.6631397298,1(773)238-2677,11,WASHINGTON HEIGHTS,21,"Howard B. Brookins, Jr."
400172,Charter,ASPIRA - BUSINESS & FINANCE HS,POINT (-87.71820414376963 41.935726466269834),2989 N. MILWAUKEE AVE,60618,Charter,HS,"9, 10, 11",41.9357264671,-87.7182041438,1(773)252-0970,4,AVONDALE,30,Ariel E. Reboyras
610586,Network 13,SOUTHEAST,POINT (-87.52798507716913 41.70485859058478),3930 E 105TH ST,60617,District,ES,"PK, K, 1, 2, 3, 4, 5, 6, 7",41.7048585914,-87.5279850772,1(773)535-8040,13,EAST SIDE,10,Susie Sadlowski Garza
400179,Charter,NOBLE - MANSUETO HS,POINT (-87.69705747862847 41.80798719224411),2911 W 47TH ST,60632,Charter,HS,"9, 10",41.807987193,-87.6970574786,1(773)349-8200,8,BRIGHTON PARK,15,Raymond Lopez
400180,Charter,KIPP ONE,POINT (-87.72661479996482 41.89380503675415),730 N PULASKI RD,60651,Charter,ES,"K, 1, 5, 6",41.8938050376,-87.7266148,TBD,5,HUMBOLDT PARK,37,Emma M. Mitts
610587,ISP,DYETT ARTS HS,POINT (-87.6122391052473 41.80120416594358),555 E 51ST ST,60615,District,HS,"9, 10",41.8012041667,-87.6122391052,(773)535-1825,9,WASHINGTON PARK,4,"William ""Will"" D. Burns"
400142,Options,YCCS - VIRTUAL HS,POINT (-87.67413840184999 41.87631672731323),1900 W VAN BUREN ST,60612,Charter,HS,"10, 11, 12",41.8763167281,-87.6741384018,1(312)429-0027,6,NEAR WEST SIDE,27,"Walter Burnett, Jr."
610588,Network 10,RICHARDSON,POINT (-87.72542159519747 41.783826321316255),6018 S KARLOV AVE,60629,District,ES,"5, 6, 7, 8",41.7838263221,-87.7254215952,TBD,10,WEST LAWN,23,Michael R. Zalewski
